<?xml version="1.0" encoding="UTF-8"?>
    <kml xmlns="http://www.opengis.net/kml/2.2">
    <Document>
        <name>Colored Path</name>
        <Folder>
            <name>Day 2</name>
            <open>1</open>
            <Style id="blackLine">
            <LineStyle>
                <color>ff000000</color>
                <width>4</width>
            </LineStyle>
            </Style>
            <Style id="redLine">
            <LineStyle>
                <color>ff0000ff</color>
                <width>4</width>
            </LineStyle>
            </Style>
        <Placemark>
        <name>Segment 1 (True)</name>
        <styleUrl>#blackLine</styleUrl>
        <LineString>
            <tessellate>1</tessellate>
            <coordinates>
            26.0821129382,-25.5414251983,0 26.0820485651,-25.5413970351,0 26.0807718337,-25.5417121947,0 26.0806377232,-25.5417443812,0 26.0792389512,-25.5420783162,0 26.0795152187,-25.5430211127,0 26.0797592998,-25.543962568,0 26.0799095035,-25.5445083976,0 26.0800556839,-25.5449858308,0 26.0790391266,-25.5452218652,0 26.0781888664,-25.545424372,0 26.0771146417,-25.5456805229,0 26.0764253139,-25.5458508432,0 26.0757131875,-25.5460090935,0 26.0753940046,-25.5460801721,0 26.0747489333,-25.5462250113,0 26.0743010044,-25.546322912,0 26.0742218792,-25.5463443696,0 26.0740917921,-25.5463953316,0 26.0739429295,-25.5464717746,0 26.0738383234,-25.5465374887,0 26.0738168657,-25.546553582,0 26.0737109184,-25.5466367304,0 26.0736478865,-25.5466917157,0 26.0736157,-25.5467225611,0 26.0734923184,-25.5468741059,0 26.0734158754,-25.5469988286,0 26.0733582079,-25.5471342802,0 26.0733340681,-25.5472107232,0 26.0733152926,-25.5472885072,0 26.0733045638,-25.5473528802,0 26.073295176,-25.5474172533,0 26.073281765,-25.5476009846,0 26.0732670128,-25.5479067564,0 26.0733126104,-25.5479751527,0 26.0732991993,-25.5481012166,0 26.0732321441,-25.5486725271,0 26.0731905699,-25.548954159,0 26.0731194913,-25.5492438376,0 26.0729853809,-25.5496770144,0 26.0728432238,-25.5499693751,0 26.0726313293,-25.5503797531,0 26.0723389685,-25.5508652329,0 26.0718642175,-25.551661849,0 26.0712955892,-25.55259794,0 26.0712057352,-25.5527441204,0 26.0711252689,-25.5528782308,0 26.0709442198,-25.5531451106,0 26.0708020627,-25.553316772,0 26.0705204308,-25.5536493659,0 26.0704506934,-25.5536708236,0 26.0702843964,-25.5538465083,0 26.0697264969,-25.5543521047,0 26.0675136745,-25.5562537909,0 26.0670228302,-25.5566735566,0 26.0661913455,-25.5573830009,0 26.0660719872,-25.5574849248,0 26.0655502975,-25.5579301715,0 26.0654054582,-25.5580548942,0 26.0643017292,-25.5590070784,0 26.0642923415,-25.5590580404,0 26.0641850531,-25.5591666698,0 26.0638859868,-25.5594281852,0 26.0632073879,-25.5600142479,0 26.0628211498,-25.5603441596,0 26.0625931621,-25.5605386198,0 26.0619708896,-25.5610764027,0 26.0612936318,-25.5616369843,0 26.0612305999,-25.5616477132,0 26.0595555604,-25.5630974472,0 26.0590003431,-25.5635882914,0 26.0579971969,-25.5644734204,0 26.0558326542,-25.5663469434,0 26.0548134148,-25.5672347546,0 26.0545746982,-25.5674479902,0 26.0542206466,-25.5677497387,0 26.0538129508,-25.568125248,0 26.0533221066,-25.5685852468,0 26.0529090464,-25.5689768493,0 26.0528071225,-25.569101572,0 26.0526287556,-25.5693697929,0 26.0516765714,-25.57087183,0 26.0491096973,-25.5749568343,0 26.0463497043,-25.5791544914,0 26.0439813137,-25.5829015374,0 26.0432048142,-25.5841138959,0 26.04247123,-25.5852136016,0 26.0422445834,-25.5855770409,0 26.0420286655,-25.5859954655,0 26.0419455171,-25.5861738324,0 26.0418435931,-25.5864608288,0 26.0417068005,-25.5869033933,0 26.0413151979,-25.5883692205,0 26.040623188,-25.5910621583,0 26.0400854051,-25.5931945145,0 26.0399647057,-25.5936679244,0 26.0396696627,-25.5948333442,0 26.0386101902,-25.5989089608,0 26.0382333398,-25.6004552543,0 26.038030833,-25.601041317,0 26.0379114747,-25.6013149023,0 26.0376553237,-25.6019063294,0 26.0366602242,-25.6040051579,0 26.035746932,-25.6058518589,0 26.0356074572,-25.6061334908,0 26.03457883,-25.6082122028,0 26.0333678126,-25.6106194854,0 26.0329078138,-25.6116521358,0 26.0326838493,-25.612282455,0 26.032486707,-25.6128913164,0 26.032294929,-25.6135953963,0 26.0322359204,-25.6139118969,0 26.0320830345,-25.6156472862,0 26.0320240259,-25.6164774299,0 26.0319046676,-25.6181497872,0 26.0319006443,-25.6183791161,0 26.0319006443,-25.6184341013,0 26.0318925977,-25.6190872192,0 26.0319341719,-25.619725585,0 26.0320293903,-25.6203116477,0 26.0321782529,-25.6208842993,0 26.0332860053,-25.6236764789,0 26.0337553918,-25.6247332692,0 26.0348658264,-25.6272384524,0 26.0356839001,-25.6291079521,0 26.0359346867,-25.6296390295,0 26.0360084474,-25.6297785044,0 26.0361143947,-25.62997967,0 26.0365019739,-25.6305348873,0 26.0383151472,-25.6327825785,0 26.0389320552,-25.6335121393,0 26.0389494896,-25.633547008,0 26.0402999818,-25.6351737678,0 26.0419267416,-25.6371492147,0 26.0419736803,-25.6371867657,0 26.0442616045,-25.6398823857,0 26.0458025336,-25.6416687369,0 26.0459581017,-25.6419436634,0 26.0461311042,-25.6422829628,0 26.0461418331,-25.6423084438,0 26.0462383926,-25.6425404549,0 26.0463403165,-25.6428690255,0 26.0463939607,-25.6431439519,0 26.0464543104,-25.6437112391,0 26.0464476049,-25.6440035999,0 26.046435535,-25.6443683803,0 26.0463309288,-25.6449437141,0 26.0460318625,-25.6460823119,0 26.0454632342,-25.6482468545,0 26.0454498231,-25.6482964754,0 26.0451520979,-25.6494310498,0 26.0451038182,-25.6496147811,0 26.044266969,-25.6528200209,0 26.044126153,-25.6533591449,0 26.0438525677,-25.6544025242,0 26.0437037051,-25.6549523771,0 26.043690294,-25.6549993157,0 26.0435052216,-25.6556819379,0 26.043266505,-25.6565576792,0 26.0428225994,-25.65818578,0 26.0419401526,-25.6615720689,0 26.0417845845,-25.6621809304,0 26.0417188704,-25.6626114249,0 26.0416826606,-25.6629990041,0 26.0416826606,-25.6634053588,0 26.0418409109,-25.6651514769,0 26.0421842337,-25.6689052284,0 26.0422003269,-25.669054091,0 26.0424953699,-25.6719200313,0 26.0425007343,-25.6726965308,0 26.0424833,-25.6730371714,0 26.0424377024,-25.6732973456,0 26.0423545539,-25.6736259162,0 26.0422284901,-25.6739357114,0 26.0419777036,-25.6743836403,0 26.040867269,-25.6761458516,0 26.0407036543,-25.6764650345,0 26.0404582322,-25.6770148873,0 26.0400344431,-25.6780596077,0 26.0398426652,-25.6786738336,0 26.039724648,-25.6792598963,0 26.0396696627,-25.6796662509,0 26.0396160185,-25.6804065406,0 26.0396160185,-25.6811106205,0 26.0396844149,-25.6822840869,0 26.0397206247,-25.6827038527,0 26.0397997499,-25.6836225092,0 26.0398761928,-25.6845237315,0 26.0399472713,-25.6850789487,0 26.040019691,-25.6854557991,0 26.0403482616,-25.6869658828,0 26.0403724015,-25.6870785356,0 26.0403750837,-25.6870879233,0 26.0414291918,-25.6914156675,0 26.0419777036,-25.6938149035,0 26.0420259833,-25.6941622496,0 26.0420434177,-25.6947523355,0 26.0420313478,-25.6951358914,0 26.0419897735,-25.695540905,0 26.0418824852,-25.6960304081,0 26.0415753722,-25.6970255077,0 26.0402677953,-25.7003071904,0 26.038915962,-25.7036934793,0 26.0387590528,-25.7040864229,0 26.0379771888,-25.7060270011,0 26.0376311839,-25.7067793608,0 26.0373951495,-25.7071883976,0 26.0368868709,-25.7079474628,0 26.0364818573,-25.7084973156,0 26.0360459983,-25.7090163231,0 26.0356637836,-25.709399879,0 26.0350066423,-25.7100610435,0 26.0328648984,-25.7121129334,0 26.0305903852,-25.7143042982,0 26.0279121995,-25.7168631256,0 26.0248813033,-25.7197625935,0 26.0244856775,-25.7201367617,0 26.0225048661,-25.7220076025,0 26.0213689506,-25.7230912149,0 26.0201726854,-25.7242311537,0 26.0182857513,-25.7260711491,0 26.0162432492,-25.7279634476,0 26.0159066319,-25.7282423973,0 26.0151542723,-25.7287439704,0 26.0146097839,-25.7290779054,0 26.0140907764,-25.7293340564,0 26.0124117136,-25.7300810516,0 26.0119946301,-25.730266124,0 26.0084085166,-25.7318513095,0 26.0064437985,-25.7326988876,0 26.0053575039,-25.7332366705,0 26.0046198964,-25.733640343,0 26.0017539561,-25.735271126,0 26.0007561743,-25.7357901335,0 26.0002599657,-25.7360167801,0 25.9997034073,-25.7362420857,0 25.9994713962,-25.7363212109,0 25.9990650415,-25.7364660501,0 25.99891752,-25.7365183532,0 25.9983985126,-25.7366886735,0 25.9977453947,-25.7368710637,0 25.9972532094,-25.7369944453,0 25.9967194498,-25.7370883226,0 25.9961588681,-25.7371822,0 25.9951356053,-25.7373189926,0 25.9932540357,-25.7375523448,0 25.9923622012,-25.7376877964,0 25.9916004539,-25.7378219068,0 25.9908494353,-25.7379828393,0 25.990382731,-25.7381075621,0 25.9897108376,-25.7383221388,0 25.988932997,-25.7386131585,0 25.9880840778,-25.7389913499,0 25.987072885,-25.7394942641,0 25.9867040813,-25.7397007942,0 25.9862628579,-25.7399837673,0 25.9858310223,-25.7402841747,0 25.9840165079,-25.7415488362,0 25.9821161628,-25.7428443432,0 25.9812819958,-25.7434129715,0 25.9787164629,-25.7452006638,0 25.9761589766,-25.7469668984,0 25.9761375189,-25.7469816506,0 25.9756332636,-25.74732095,0 25.9740199149,-25.7484032214,0 25.973919332,-25.7484716177,0 25.9732246399,-25.7489410043,0 25.9729215503,-25.7491542399,0 25.9725943208,-25.7493849099,0 25.9724883735,-25.7494586706,0 25.9723100066,-25.7495847344,0 25.9717386961,-25.7499843836,0 25.9717011452,-25.7500112057,0 25.9714610875,-25.7501775026,0 25.9709058702,-25.7505623996,0 25.9707073867,-25.7507045567,0 25.9701830149,-25.7510411739,0 25.9698343277,-25.7512664795,0 25.9698021412,-25.7512973249,0 25.9694856405,-25.7515145838,0 25.9690363705,-25.751824379,0 25.9679742157,-25.7525485754,0 25.9677086771,-25.7527269423,0 25.9674847126,-25.7528825104,0 25.9663514793,-25.7536657155,0 25.9662844241,-25.7537233829,0 25.9659773111,-25.7539352775,0 25.9654985368,-25.7542692125,0 25.9652705491,-25.7544073462,0 25.9652088583,-25.7544368505,0 25.9650814533,-25.7544958591,0 25.9647917747,-25.7545910776,0 25.9643130004,-25.7547104359,0 25.9637966752,-25.7547922432,0 25.9635190666,-25.7548110187,0 25.9632106125,-25.7547922432,0 25.9629423916,-25.7547613978,0 25.9627117217,-25.754711777,0 25.9618587792,-25.7544931769,0 25.9611131251,-25.7543174922,0 25.9606651962,-25.7542169094,0 25.9602494538,-25.7541538775,0 25.9599208832,-25.754135102,0 25.9594166279,-25.754172653,0 25.958956629,-25.7542611659,0 25.9587487578,-25.7543174922,0 25.9582002461,-25.7545146346,0 25.9579454362,-25.7546246052,0 25.9577281773,-25.7547184825,0 25.9569194913,-25.7550671697,0 25.9557366371,-25.7555781305,0 25.9556159377,-25.7556290925,0 25.9537933767,-25.756419003,0 25.9535439312,-25.7565276325,0 25.9530101717,-25.7567609847,0 25.9519064426,-25.7572451234,0 25.9480078518,-25.7589523494,0 25.9466721117,-25.7595075667,0 25.9459868073,-25.7596845925,0 25.9392222762,-25.7610149682,0 25.9343084693,-25.7620315254,0 25.9333831072,-25.7622756064,0 25.9322029352,-25.7626108825,0 25.9305734932,-25.7631888986,0 25.9274514019,-25.7644374669,0 25.9227266908,-25.7663954794,0 25.920086056,-25.7674898207,0 25.9118758142,-25.7708774507,0 25.9083031118,-25.7723620534,0 25.9057241678,-25.7734335959,0 25.9043830633,-25.7739539444,0 25.9035623074,-25.7742543519,0 25.9024170041,-25.7746472955,0 25.8986471593,-25.7759535313,0 25.8921951056,-25.7781851292,0 25.8892473578,-25.7791922987,0 25.8848874271,-25.7806943357,0 25.8786083758,-25.7828454673,0 25.8743530512,-25.7843139768,0 25.8734746277,-25.7846613228,0 25.8729891479,-25.7848919928,0 25.8722609282,-25.7852500677,0 25.8680981398,-25.787678808,0 25.8614261448,-25.7915639877,0 25.8549244702,-25.7953056693,0 25.8516602218,-25.7972408831,0 25.8468335867,-25.8000518382,0 25.8461683989,-25.800435394,0 25.845593065,-25.800767988,0 25.8439837396,-25.8016973734,0 25.8432944119,-25.8020970225,0 25.8431495726,-25.802180171,0 25.842807591,-25.8023773134,0 25.8410574496,-25.8033871651,0 25.8410131931,-25.8034166694,0 25.8409783244,-25.8034367859,0 25.8408737183,-25.8034984767,0 25.8370810747,-25.8057314157,0 25.8305726945,-25.8095133305,0 25.82968086,-25.8100323379,0 25.8293549716,-25.8102214336,0 25.8275820315,-25.8112500608,0 25.8250848949,-25.8126984537,0 25.8249843121,-25.8127574623,0 25.822571665,-25.8141562343,0 25.8220566809,-25.8144539595,0 25.8218796551,-25.8145585656,0 25.8217509091,-25.8146336675,0 25.8197298646,-25.815808475,0 25.8152894676,-25.8183927834,0 25.813575536,-25.8194053173,0 25.8129438758,-25.8197768033,0 25.8126153052,-25.8200275898,0 25.8123041689,-25.8203306794,0 25.8120962977,-25.820581466,0 25.8118535578,-25.8208939433,0 25.8115330338,-25.8214639127,0 25.8110824227,-25.8224362135,0 25.810469538,-25.8237572014,0 25.8101570606,-25.8242949843,0 25.8098378778,-25.8247362077,0 25.8094570041,-25.8251948655,0 25.8089983463,-25.8256709576,0 25.8084096014,-25.8261550963,0 25.8079080284,-25.8264930546,0 25.8073796332,-25.8267867565,0 25.8068861067,-25.8270294964,0 25.8063670993,-25.8272279799,0 25.8058480918,-25.8273929358,0 25.8053545654,-25.8275136352,0 25.8044721186,-25.8276692033,0 25.8031819761,-25.8279038966,0 25.7974635065,-25.8289325237,0 25.7965703309,-25.8290934563,0 25.7952144742,-25.8293375373,0 25.7938612998,-25.8295816183,0 25.7926905155,-25.8297841251,0 25.7904951274,-25.8301649988,0 25.7887946069,-25.8304721117,0 25.7880462706,-25.8306075633,0 25.786062777,-25.8309669793,0 25.7849858701,-25.8311627805,0 25.7838110626,-25.831374675,0 25.7765905559,-25.8327010274,0 25.7762311399,-25.8327694237,0 25.7760232687,-25.8328042924,0 25.7743361592,-25.8331140876,0 25.7719664276,-25.8335486054,0 25.7599756122,-25.8357949555,0 25.7531560957,-25.8370703459,0 25.7513080537,-25.8374270797,0 25.7503733039,-25.8376067877,0 25.7481175661,-25.8380278945,0 25.7427437603,-25.8390310407,0 25.741147846,-25.8393327892,0 25.7371218503,-25.8400945365,0 25.7340091467,-25.8406873047,0 25.7333131135,-25.8408200741,0 25.7284301519,-25.8417494595,0 25.7227894664,-25.8427847922,0 25.7205149531,-25.8432018757,0 25.7146704197,-25.8442921937,0 25.7093341649,-25.8452913165,0 25.704343915,-25.8462300897,0 25.7036291063,-25.8463642001,0 25.6981734931,-25.8473539352,0 25.6980755925,-25.8473713696,0 25.6958895922,-25.8477696776,0 25.6933642924,-25.8482310176,0 25.6930048764,-25.8482967317,0 25.6889466941,-25.8490692079,0 25.6874459982,-25.8493588865,0 25.687289089,-25.8493897319,0 25.6862698495,-25.8495855331,0 25.6855966151,-25.8497169614,0 25.685518831,-25.8497317135,0 25.6852760911,-25.8497773111,0 25.6845988333,-25.8499060571,0 25.6837593019,-25.8500951529,0 25.6834387779,-25.8501756191,0 25.682733357,-25.8503553271,0 25.6816913188,-25.8506570756,0 25.6807954609,-25.8508944511,0 25.6805446744,-25.8509521186,0 25.6796810031,-25.8511546254,0 25.679089576,-25.8512766659,0 25.6782755256,-25.8514335752,0 25.6782259047,-25.8514429629,0 25.6777068973,-25.8515301347,0 25.6774668396,-25.8515690267,0 25.6770725548,-25.8516333997,0 25.6765951216,-25.8517044783,0 25.6760747731,-25.8517996967,0 25.6757676601,-25.8518573642,0 25.6743581593,-25.8521322906,0 25.6734153628,-25.8522851765,0 25.6728507578,-25.8524098992,0 25.672441721,-25.8525010943,0 25.6719978154,-25.8526231349,0 25.6716316938,-25.8527196944,0 25.6713272631,-25.8528001606,0 25.6708082557,-25.8529289067,0 25.6701752543,-25.8531314135,0 25.6698600948,-25.8532373607,0 25.6696937978,-25.8532977104,0 25.6691533327,-25.8535096049,0 25.6687697768,-25.8536598086,0 25.668592751,-25.8537335694,0 25.6685270369,-25.8537630737,0 25.6684331596,-25.853805989,0 25.6669954956,-25.8544792235,0 25.6662216783,-25.8548587561,0 25.6656624377,-25.8551323414,0 25.6656436622,-25.8551725745,0 25.6655336916,-25.8552289009,0 25.6653083861,-25.8553469181,0 25.6650455296,-25.8554810286,0 25.6646163762,-25.8556969464,0 25.6645278633,-25.855743885,0 25.6643669307,-25.8558216691,0 25.6640665233,-25.8559691906,0 25.6639015675,-25.8560483158,0 25.6635917723,-25.8561971784,0 25.6632511318,-25.8563567698,0 25.6631693244,-25.8563970029,0 25.6631049514,-25.8563916385,0 25.6627871096,-25.8565498888,0 25.6614366174,-25.8572164178,0 25.6607231498,-25.8575677872,0 25.6599466503,-25.8579513431,0 25.6598232687,-25.8580116928,0 25.6595242023,-25.8581551909,0 25.6594531238,-25.8581900597,0 25.6559944153,-25.859862417,0 25.6555920839,-25.8600568771,0 25.6524954736,-25.8615790308,0 25.651397109,-25.862134248,0 25.6502196193,-25.8627122641,0 25.6496778131,-25.8629871905,0 25.6485700607,-25.8635424078,0 25.648214668,-25.8637194335,0 25.6481382251,-25.8637583256,0 25.6471900642,-25.8642303944,0 25.6470546126,-25.8642974496,0 25.6468333304,-25.8644087613,0 25.6465382874,-25.8645549417,0 25.645468086,-25.8650900424,0 25.6441350281,-25.8657673001,0 25.6437809765,-25.8659389615,0 25.6431627274,-25.8662393689,0 25.6418122351,-25.86692065,0 25.6416459382,-25.8666363358,0 25.6412932277,-25.8660207689,0 25.6411443651,-25.8660636842,0 25.6410907209,-25.8660972118,0 25.6410451233,-25.8661481738,0 25.6410115957,-25.8662299812,0 25.6410075724,-25.8663453162,0 25.6410290301,-25.8664271235,0 25.6410880387,-25.8665290475,0 25.641168505,-25.8666658401,0 25.6412060559,-25.8667449653,0 25.6412355602,-25.8668240905,0 25.6412476301,-25.8669085801,0 25.6412543356,-25.8669944108,0 25.6412476301,-25.8670681715,0 25.6412275136,-25.8671674132,0 25.6411671638,-25.8672840893,0 25.6411282718,-25.8673578501,0 25.6410518289,-25.8674490452,0 25.6409753859,-25.8675201237,0 25.6408976018,-25.8675724268,0 25.6408023834,-25.8676207066,0 25.6405958533,-25.8676998317,0 25.6404134631,-25.8677588403,0 25.6401734054,-25.8678299189,0 25.6399346888,-25.8679036796,0 25.6397777796,-25.8679667115,0 25.6397429109,-25.8679828048,0 25.6396262348,-25.8680337667,0 25.6394974887,-25.8680994809,0 25.6393606961,-25.8681732416,0 25.6392426789,-25.8682443202,0 25.6388282776,-25.8685044944,0 25.6386646628,-25.8685997128,0 25.6383012235,-25.8688116074,0 25.6380289793,-25.8689711988,0 25.6379391253,-25.8690221608,0 25.637780875,-25.869114697,0 25.6375139952,-25.8692702651,0 25.6369869411,-25.869577378,0 25.6368233263,-25.8696752787,0 25.636639595,-25.8697852492,0 25.6357893348,-25.8702707291,0 25.6355439126,-25.8703967929,0 25.6353789568,-25.8704799414,0 25.6350812316,-25.8706086874,0 25.6349189579,-25.8706784248,0 25.6344388425,-25.8708152175,0 25.6343114376,-25.8708500862,0 25.6339144707,-25.8709520102,0 25.6335765123,-25.8710069954,0 25.6332613528,-25.8710472286,0 25.6331004202,-25.8710619807,0 25.6328456104,-25.8710820973,0 25.6327718496,-25.8710874617,0 25.6325787306,-25.8710847795,0 25.6323829293,-25.871078074,0 25.6321522593,-25.8710686862,0 25.631865263,-25.8710485697,0 25.6316788495,-25.8710204065,0 25.6314682961,-25.8709855378,0 25.6311678886,-25.8709292114,0 25.6309506297,-25.8708889782,0 25.6299608946,-25.8707119524,0 25.6298723817,-25.8706958592,0 25.6292447448,-25.8705751598,0 25.6290408969,-25.8705416322,0 25.6289818883,-25.8705349267,0 25.6289403141,-25.8705295622,0 25.6286291778,-25.8705027401,0 25.6285178661,-25.8704933524,0 25.62841326,-25.8704866469,0 25.6282898784,-25.8704799414,0 25.6281852722,-25.8704812825,0 25.627913028,-25.8704866469,0 25.6276971102,-25.8704960346,0 25.6274610758,-25.8705067635,0 25.6273336709,-25.870513469,0 25.627194196,-25.8705335855,0 25.6268937886,-25.8705818653,0 25.6266497076,-25.8706301451,0 25.626553148,-25.8706502616,0 25.6264042854,-25.8706864715,0 25.626270175,-25.8707226813,0 25.6261789799,-25.8707481623,0 25.6260247529,-25.8707977831,0 25.6257914007,-25.870886296,0 25.6256465614,-25.8709466457,0 25.6255567074,-25.8709828556,0 25.6255245209,-25.8709922433,0 25.6254789233,-25.8710110188,0 25.6254333258,-25.8710418642,0 25.6253528595,-25.8710807562,0 25.6252482533,-25.8711317182,0 25.6251946092,-25.8711625636,0 25.6250068545,-25.8712550998,0 25.6246447563,-25.8714549243,0 25.6245924532,-25.8714790642,0 25.6243027747,-25.8716413379,0 25.6241874397,-25.871707052,0 25.6238695979,-25.8718840778,0 25.6237663329,-25.8719457686,0 25.6231896579,-25.8722917736,0 25.623101145,-25.8723454177,0 25.6230045855,-25.8724044263,0 25.6226599216,-25.8726082742,0 25.6225955486,-25.8726458251,0 25.6224440038,-25.872734338,0 25.6220363081,-25.8729757369,0 25.6218405068,-25.8730924129,0 25.6211552024,-25.8735014498,0 25.6206965446,-25.8737710118,0 25.6204283237,-25.8739212155,0 25.6203719974,-25.8739520609,0 25.6198315322,-25.874273926,0 25.6195002794,-25.8744710684,0 25.6187170744,-25.874940455,0 25.6179365516,-25.8754017949,0 25.617557019,-25.8756257594,0 25.6166236103,-25.8761796355,0 25.6156593561,-25.8767254651,0 25.6146575511,-25.877327621,0 25.6145717204,-25.8773879707,0 25.6135819852,-25.87797001,0 25.6129918993,-25.8783267438,0 25.612436682,-25.87864995,0 25.61193645,-25.8789476752,0 25.6111867726,-25.8793821931,0 25.6108769774,-25.8795686066,0 25.6097236276,-25.8802324533,0 25.6092301011,-25.8805033565,0 25.6087768078,-25.8807554841,0 25.6086708605,-25.8808104694,0 25.6081277132,-25.8811122179,0 25.6078581512,-25.8812570572,0 25.607573837,-25.8814018965,0 25.6074638665,-25.8814568818,0 25.607265383,-25.8815360069,0 25.6071580946,-25.8815936744,0 25.6064888835,-25.8819490671,0 25.6052832305,-25.8825109899,0 25.6047548354,-25.882756412,0 25.6043122709,-25.8829629421,0 25.6043002009,-25.8829683065,0 25.6042063236,-25.8830112219,0 25.6031991541,-25.8834725618,0 25.6030087173,-25.8835530281,0 25.6027203798,-25.8836911619,0 25.6022885442,-25.883897692,0 25.6016072631,-25.8842021227,0 25.6013149023,-25.8843322098,0 25.6010989845,-25.8844314516,0 25.6007020175,-25.8846138418,0 25.5998598039,-25.8850054443,0 25.5986635387,-25.8855552971,0 25.5983953178,-25.8856773376,0 25.5975168943,-25.8860971034,0 25.5968677998,-25.8863894641,0 25.5964587629,-25.8865731955,0 25.5956661701,-25.8869433403,0 25.5955320597,-25.8870023489,0 25.5952289701,-25.8871351182,0 25.5951552093,-25.887169987,0 25.594510138,-25.8874717355,0 25.5939723551,-25.8877184987,0 25.5939093232,-25.887748003,0 25.5934198201,-25.8879719675,0 25.5932052433,-25.8880712092,0 25.5924206972,-25.8884306252,0 25.5923469365,-25.8884654939,0 25.5912968516,-25.8889496326,0 25.5909173191,-25.8891253173,0 25.5906450748,-25.8892527223,0 25.5902682245,-25.889428407,0 25.5896043777,-25.8897301555,0 25.5895453691,-25.8897569776,0 25.5890733004,-25.8899715543,0 25.5887031555,-25.8901432157,0 25.5885744095,-25.8902022243,0 25.5870388448,-25.8909036219,0 25.586951673,-25.890943855,0 25.5856199563,-25.8915513754,0 25.5853061378,-25.8916948736,0 25.5852028728,-25.8917418122,0 25.5837410688,-25.8924244344,0 25.5835680664,-25.892495513,0 25.5816583335,-25.8933752775,0 25.580932796,-25.8937092125,0 25.5803145468,-25.8939921856,0 25.5788312852,-25.8946761489,0 25.5786985159,-25.8947378397,0 25.5783887208,-25.8948786557,0 25.5771227181,-25.8954553306,0 25.576607734,-25.895691365,0 25.5761048198,-25.895922035,0 25.5757534504,-25.8960843086,0 25.574773103,-25.8965268731,0 25.5743533373,-25.896730721,0 25.5742192268,-25.8967910707,0 25.5740556121,-25.8968675137,0 25.5731812119,-25.8972685039,0 25.5728727579,-25.8974093199,0 25.5727359653,-25.8974736929,0 25.5721820891,-25.8977285028,0 25.5717475712,-25.8979296684,0 25.5715450644,-25.8980235457,0 25.5713184178,-25.8981254697,0 25.5703219771,-25.8985774219,0 25.5698338151,-25.8988040686,0 25.5688427389,-25.8992640674,0 25.567638427,-25.8998125792,0 25.5672414601,-25.8999936283,0 25.566919595,-25.9001411498,0 25.5663925409,-25.9003812075,0 25.5655623972,-25.9007647634,0 25.564942807,-25.9010517597,0 25.5648033321,-25.9011161327,0 25.5636700988,-25.9016391635,0 25.5630867183,-25.9019047022,0 25.5627568066,-25.9020549059,0 25.5623625219,-25.9022346139,0 25.5618569255,-25.9024679661,0 25.5617523193,-25.9025162458,0 25.5615216494,-25.9026235342,0 25.5613687634,-25.9026946127,0 25.5612614751,-25.9027442336,0 25.5607867241,-25.9029614925,0 25.5597433448,-25.903441608,0 25.5596347153,-25.9034912288,0 25.5591224134,-25.903724581,0 25.5588649213,-25.9038425982,0 25.5581353605,-25.9041765332,0 25.5580830574,-25.9042006731,0 25.557923466,-25.904275775,0 25.5576726794,-25.904392451,0 25.5576230586,-25.9044165909,0 25.5575090647,-25.9044702351,0 25.5566306412,-25.9048819542,0 25.5558434129,-25.905252099,0 25.5552600324,-25.9055458009,0 25.5545130372,-25.9058475494,0 25.5540020764,-25.9060755372,0 25.553779453,-25.9061747789,0 25.553535372,-25.9062847495,0 25.5532939732,-25.9063987434,0 25.5531705916,-25.9064523876,0 25.5520990491,-25.906945914,0 25.5517530441,-25.9071041644,0 25.5515103042,-25.9072168171,0 25.550647974,-25.9076137841,0 25.5505473912,-25.9076607227,0 25.5493028462,-25.9082306921,0 25.549030602,-25.9083554149,0 25.548415035,-25.9086370468,0 25.5475862324,-25.9090152383,0 25.547375679,-25.9091117978,0 25.5464167893,-25.9095530212,0 25.5448678136,-25.9102664888,0 25.5447632074,-25.9103147686,0 25.5438029766,-25.9107559919,0 25.5430573225,-25.9110993147,0 25.5427180231,-25.9112562239,0 25.5421668291,-25.9115096927,0 25.5419281125,-25.9116196632,0 25.5406205356,-25.9122218192,0 25.5397166312,-25.9126375616,0 25.5391681194,-25.9128896892,0 25.5362525582,-25.9142281115,0 25.532219857,-25.9160842001,0 25.5319985747,-25.9161861241,0 25.5302001536,-25.9170135856,0 25.5295228958,-25.9173247218,0 25.5247056484,-25.9195415676,0 25.5239385366,-25.919894278,0 25.5237708986,-25.919970721,0 25.5215647817,-25.9209913015,0 25.5208593607,-25.9213171899,0 25.5199795961,-25.9217235446,0 25.5191078782,-25.9221258759,0 25.5174100399,-25.9229117632,0 25.5146929622,-25.924167037,0 25.5133464932,-25.9247893095,0 25.5109244585,-25.9259037673,0 25.5106441677,-25.9260325134,0 25.5092078447,-25.9266923368,0 25.5083481967,-25.9270879626,0 25.5058202147,-25.9282507002,0 25.5057705939,-25.928273499,0 25.5048519373,-25.9286959469,0 25.5043356121,-25.9289333224,0 25.5024258792,-25.929813087,0 25.5021576583,-25.9299364686,0 25.5006368458,-25.9306392074,0 25.5001929402,-25.9308443964,0 25.499676615,-25.9310817719,0 25.4993332922,-25.9312359989,0 25.4991911352,-25.9313003719,0 25.4989054799,-25.931430459,0 25.4988276958,-25.9314733744,0 25.4982510209,-25.931737572,0 25.4977306724,-25.9319762886,0 25.4969796538,-25.9323196113,0 25.4963386059,-25.9326146543,0 25.4950095713,-25.9332342446,0 25.4945227504,-25.9334541857,0 25.4942411184,-25.9335815907,0 25.4938173294,-25.9337747097,0 25.4920175672,-25.9346061945,0 25.4906818271,-25.9352190793,0 25.4889303446,-25.9360197186,0 25.488781482,-25.936088115,0 25.4881967604,-25.9363657236,0 25.4867175221,-25.9370483458,0 25.485817641,-25.9374600649,0 25.4846173525,-25.938013941,0 25.483391583,-25.9385839105,0 25.4824206233,-25.9390251338,0 25.4810379446,-25.9396621585,0 25.4793468118,-25.9404332936,0 25.4792515934,-25.9404762089,0 25.4786078632,-25.9407792985,0 25.4784817994,-25.9408356249,0 25.4784241319,-25.9408637881,0 25.4783825576,-25.9408839047,0 25.477526933,-25.9412808716,0 25.4771500826,-25.9414552152,0 25.4757620394,-25.9421016276,0 25.4748098552,-25.9425254166,0 25.474023968,-25.9428888559,0 25.473177731,-25.9432804585,0 25.4722054303,-25.9437324107,0 25.4716408253,-25.943993926,0 25.4706658423,-25.9444485605,0 25.4688258469,-25.9452854097,0 25.468608588,-25.9453846514,0 25.4682277143,-25.9455576539,0 25.4681485891,-25.9455938637,0 25.4676309228,-25.945828557,0 25.4675075412,-25.9458862245,0 25.4664212465,-25.9463958442,0 25.4656165838,-25.9467579424,0 25.4653456807,-25.9468799829,0 25.4633957148,-25.9477704763,0 25.4626889527,-25.9481030703,0 25.4622745514,-25.948292166,0 25.4612405598,-25.9487628937,0 25.4604788125,-25.9491048753,0 25.4588198662,-25.9498827159,0 25.4581654072,-25.9501791,0 25.4574948549,-25.9504835308,0 25.4568269849,-25.9507933259,0 25.4554617405,-25.9514129162,0 25.454146117,-25.9520190954,0 25.4527983069,-25.9526440501,0 25.4519923031,-25.9530128539,0 25.4514800012,-25.9532475471,0 25.4511044919,-25.9534178674,0 25.4502515495,-25.9538054466,0 25.4494026303,-25.9541997313,0 25.4484155774,-25.9546557069,0 25.4469175637,-25.955350399,0 25.4454745352,-25.9560142457,0 25.4448187351,-25.9563173354,0 25.4430283606,-25.9571367502,0 25.4415786266,-25.9577992558,0 25.4400765896,-25.9584912658,0 25.4391136765,-25.9589472413,0 25.4383841157,-25.9592664242,0 25.4367560148,-25.960021466,0 25.436104238,-25.9603111446,0 25.4356402159,-25.960535109,0 25.4336231947,-25.9614658356,0 25.4318730533,-25.9622624516,0 25.4311797023,-25.9625896811,0 25.4294537008,-25.9633795917,0 25.4278765619,-25.9640984237,0 25.4269994795,-25.9645047784,0 25.4260110855,-25.9649647772,0 25.4233248532,-25.9661851823,0 25.4231598973,-25.9662334621,0 25.4223404825,-25.9666532278,0 25.4213762283,-25.9670944512,0 25.4194195569,-25.9679876268,0 25.41766271,-25.9688043594,0 25.4165683687,-25.9692965448,0 25.4158401489,-25.9696264565,0 25.4157154262,-25.9696988761,0 25.415673852,-25.969723016,0 25.4150153697,-25.9700529277,0 25.4148356616,-25.9701427817,0 25.4142549634,-25.9704338014,0 25.4131284356,-25.9710493684,0 25.4126402736,-25.971339047,0 25.4118946195,-25.971813798,0 25.4114332795,-25.9721249342,0 25.4110376537,-25.9723985195,0 25.4106353223,-25.9726881981,0 25.4103818536,-25.9728746116,0 25.4100465775,-25.9731401503,0 25.4095181823,-25.9735706449,0 25.4091654718,-25.9738643467,0 25.4091386497,-25.9738884866,0 25.4087845981,-25.9741996229,0 25.4084815085,-25.9744571149,0 25.4082374275,-25.9746690094,0 25.4077251256,-25.9751558304,0 25.4073496163,-25.9754991531,0 25.4068922997,-25.9759604931,0 25.4062861204,-25.9766109288,0 25.4047465324,-25.9783691168,0 25.4031009972,-25.9801903367,0 25.4017102718,-25.9817312658,0 25.4003758729,-25.983209163,0 25.399017334,-25.984750092,0 25.3989543021,-25.9848198295,0 25.3975743055,-25.9863822162,0 25.3956833482,-25.9885387123,0 25.3944562376,-25.9898529947,0 25.3928683698,-25.9916259348,0 25.3910391033,-25.9936764836,0 25.3890609741,-25.9959174693,0 25.3869768977,-25.9982147813,0 25.3861910105,-25.9990945458,0 25.3847828507,-26.0006703436,0 25.3829213977,-26.0027061403,0 25.3814166784,-26.0044066608,0 25.38019225,-26.0057893395,0 25.378240943,-26.0079954565,0 25.3771439195,-26.0092198849,0 25.37319839,-26.0136254132,0 25.3684079647,-26.0189697146,0 25.3636389971,-26.0242643952,0 25.3602781892,-26.0280503333,0 25.3592120111,-26.029253304,0 25.3577448428,-26.0308800638,0 25.3555092216,-26.0333584249,0 25.3508153558,-26.038620919,0 25.346108079,-26.0438753664,0 25.3418447077,-26.0485947132,0 25.3397445381,-26.0509470105,0 25.3370583057,-26.0539577901,0 25.332237035,-26.0593731701,0 25.3313881159,-26.0603186488,0 25.3275123239,-26.0646316409,0 25.322701782,-26.0699947178,0 25.3192162514,-26.0738557577,0 25.3177544475,-26.075475812,0 25.3134374321,-26.080339998,0 25.3099344671,-26.0842587054,0 25.3081400692,-26.0862636566,0 25.304171741,-26.0906866193,0 25.2995663881,-26.0957975686,0 25.2985833585,-26.0969281197,0 25.2984184027,-26.097111851,0 25.2978779376,-26.0977180302,0 25.295201093,-26.1006966233,0 25.2948175371,-26.1011137068,0 25.2937929332,-26.1023367941,0 25.2930285037,-26.1033399403,0 25.2916833758,-26.1050873995,0 25.2912408113,-26.1056546867,0 25.2902953327,-26.1068804562,0 25.2870994806,-26.1110378802,0 25.2831727266,-26.1161407828,0 25.2829380333,-26.1164465547,0 25.2820207179,-26.1176294088,0 25.2790984511,-26.1214005947,0 25.2749544382,-26.1267609894,0 25.2742812037,-26.1276394129,0 25.2711765468,-26.1316882074,0 25.2672283351,-26.1367723346,0 25.2637857199,-26.1418698728,0 25.2602264285,-26.1470344663,0 25.2565920353,-26.1523988843,0 25.2531561255,-26.1574146152,0 25.2522401512,-26.1587329209,0 25.2516929805,-26.1595201492,0 25.2512826025,-26.1600404978,0 25.2509406209,-26.1604709923,0 25.2505785227,-26.1608746648,0 25.2503331006,-26.1611482501,0 25.2500246465,-26.1614620686,0 25.249709487,-26.1617718637,0 25.2496558428,-26.1618241668,0 25.2484863997,-26.1627347767,0 25.2482101321,-26.1629292369,0 25.2479526401,-26.163110286,0 25.2475020289,-26.1634106934,0 25.2471868694,-26.1635957658,0 25.2466839552,-26.1638519168,0 25.2452623844,-26.1646391451,0 25.2446736395,-26.1650213599,0 25.2438877523,-26.1655685306,0 25.2433687449,-26.1659654975,0 25.2428148687,-26.1664228141,0 25.2424581349,-26.1667379737,0 25.2421376109,-26.1670316756,0 25.2418090403,-26.1673602462,0 25.2413852513,-26.1677974463,0 25.2409748733,-26.1682413518,0 25.2406878769,-26.1685699224,0 25.240277499,-26.1690621078,0 25.2400106192,-26.1693973839,0 25.2399154007,-26.1695328355,0 25.2398094535,-26.1696816981,0 25.2391375601,-26.170707643,0 25.2388934791,-26.1710831523,0 25.2384348214,-26.1719039083,0 25.2378541231,-26.1731417477,0 25.2376556396,-26.1736808717,0 25.2375255525,-26.1739893258,0 25.2373820543,-26.174351424,0 25.2372761071,-26.1746759713,0 25.2369743586,-26.1758320034,0 25.2367557585,-26.1764609814,0 25.236633718,-26.176802963,0 25.2365036309,-26.1771167815,0 25.2363601327,-26.177431941,0 25.2359698713,-26.1781977117,0 25.235491097,-26.1789983511,0 25.2350471914,-26.1796608567,0 25.2348285913,-26.1799612641,0 25.2345134318,-26.1803099513,0 25.234246552,-26.1806385219,0 25.2340346575,-26.1808919907,0 25.2338093519,-26.1811240017,0 25.2334807813,-26.1814458668,0 25.2328692377,-26.1820024252,0 25.2326399088,-26.1821901798,0 25.2301333845,-26.1842393875,0 25.2301092446,-26.1842595041,0 25.2286420763,-26.1854758859,0 25.2277234197,-26.1862389743,0 25.2271427214,-26.1867137253,0 25.2211694419,-26.1916033924,0 25.2146436274,-26.1969128251,0 25.208222419,-26.2021914124,0 25.2077114582,-26.202608496,0 25.2024208009,-26.206933558,0 25.1963871717,-26.2119010091,0 25.1903870702,-26.2168201804,0 25.183853209,-26.2221631408,0 25.1780515909,-26.2269186974,0 25.1720018685,-26.2318781018,0 25.1719079912,-26.2319558859,0 25.1680630445,-26.2351061404,0 25.1654773951,-26.2372237444,0 25.1591071486,-26.2424446642,0 25.1541745663,-26.2464545667,0 25.1530775428,-26.2473504245,0 25.149166882,-26.2505489588,0 25.1464833319,-26.2527604401,0 25.1433371007,-26.2553434074,0 25.1420402527,-26.2563988566,0 25.1399843395,-26.258071214,0 25.1397778094,-26.258238852,0 25.1382623613,-26.2594619393,0 25.1381121576,-26.2595839798,0 25.1376186311,-26.259983629,0 25.136552453,-26.2608405948,0 25.1363794506,-26.260984093,0 25.1359570026,-26.2613327801,0 25.1353548467,-26.2618303299,0 25.1351898909,-26.2619671226,0 25.1348291337,-26.2622648478,0 25.1334357262,-26.2634155154,0 25.1332224905,-26.2635871768,0 25.1331447065,-26.2636515498,0 25.1326847076,-26.2640337646,0 25.131829083,-26.2647365034,0 25.1316399872,-26.2649095058,0 25.131213516,-26.2652568519,0 25.1297141612,-26.2664759159,0 25.1289711893,-26.2670794129,0 25.1283207536,-26.2676091492,0 25.1266644895,-26.2689623237,0 25.1250497997,-26.2702792883,0 25.1244100928,-26.270802319,0 25.1231628656,-26.2718202174,0 25.1223568618,-26.2724773586,0 25.1211605966,-26.2734550238,0 25.1189732552,-26.2752440572,0 25.1181350648,-26.2759307027,0 25.117751509,-26.27624318,0 25.1169964671,-26.2768641114,0 25.1165136695,-26.2772597373,0 25.114992857,-26.2785096467,0 25.1149378717,-26.2785552442,0 25.114762187,-26.2786974013,0 25.1144577563,-26.2789428234,0 25.1142807305,-26.2790849805,0 25.1135270298,-26.2796938419,0 25.1121738553,-26.2808150053,0 25.1118788123,-26.2810604274,0 25.1113423705,-26.2815271318,0 25.1109842956,-26.281838268,0 25.1095895469,-26.2831565738,0 25.1094648242,-26.283274591,0 25.1092864573,-26.2834475935,0 25.10828197,-26.2845097482,0 25.1078099012,-26.2850099802,0 25.107037425,-26.2859044969,0 25.1055943966,-26.2875768542,0 25.1055072248,-26.2876787782,0 25.104021281,-26.2894101441,0 25.101827234,-26.2919649482,0 25.0995540619,-26.2946096063,0 25.0971870124,-26.2973870337,0 25.0962147117,-26.2985242903,0 25.0959089398,-26.2988823652,0 25.0930590928,-26.3022190332,0 25.0912338495,-26.3042883575,0 25.0892047584,-26.3066862524,0 25.0867961347,-26.3094837964,0 25.0848783553,-26.3117274642,0 25.0825515389,-26.3144391775,0 25.0806391239,-26.3166546822,0 25.0780400634,-26.319693625,0 25.0758004189,-26.3223101199,0 25.0738169253,-26.3246114552,0 25.0719702244,-26.3267639279,0 25.0697185099,-26.3293884695,0 25.0674413145,-26.3320505619,0 25.0652231276,-26.3346375525,0 25.0630907714,-26.3371427357,0 25.0613433123,-26.3391718268,0 25.0591157377,-26.341778934,0 25.0570839643,-26.3441473246,0 25.0546739995,-26.3469663262,0 25.0522519648,-26.3497772813,0 25.0496770442,-26.3527786732,0 25.0472590327,-26.3555976748,0 25.0449496508,-26.3582852483,0 25.0425115228,-26.3611498475,0 25.0401310623,-26.3638857007,0 25.0379987061,-26.3664029539,0 25.0356853008,-26.3690784574,0 25.0331009924,-26.3721200824,0 25.0318390131,-26.3735899329,0 25.0294008851,-26.3764129579,0 25.0268045068,-26.3794237375,0 25.0255505741,-26.3808895648,0 25.0246480107,-26.3819436729,0 25.0223372877,-26.3846433163,0 25.0197918713,-26.387591064,0 25.0185593963,-26.3890179992,0 25.0180363655,-26.3896241784,0 25.0159160793,-26.3921025395,0 25.015655905,-26.3924056292,0 25.0132218003,-26.3952380419,0 25.0105154514,-26.3983936608,0 25.0084152818,-26.400834471,0 25.0061072409,-26.4035126567,0 25.0055788457,-26.4041335881,0 25.0034223497,-26.4066267014,0 25.0019028783,-26.4083969593,0 25.0018787384,-26.4084251225,0 25.0012081861,-26.4092069864,0 24.9995867908,-26.4110885561,0 24.997817874,-26.4131551981,0 24.9966135621,-26.4145620167,0 24.9951611459,-26.4162518084,0 24.9936041236,-26.4180582762,0 24.9919612706,-26.4199720323,0 24.9901588261,-26.4220668375,0 24.9889934063,-26.4234226942,0 24.9889732897,-26.4234468341,0 24.9875771999,-26.4250360429,0 24.9862267077,-26.4266185462,0 24.9847126007,-26.4283981919,0 24.9833151698,-26.4300236106,0 24.9823401868,-26.4311635494,0 24.9812445045,-26.4324335754,0 24.9798068404,-26.4341032505,0 24.9783571064,-26.4357943833,0 24.9761241674,-26.4383880794,0 24.9749144912,-26.4397801459,0 24.9728022516,-26.4422383904,0 24.9719667435,-26.4432120323,0 24.9710480869,-26.4442795515,0 24.9700087309,-26.4454811811,0 24.9684382975,-26.4473225176,0 24.9671803415,-26.4487977326,0 24.9645611644,-26.4518326521,0 24.9624046683,-26.4543297887,0 24.9610085785,-26.4559672773,0 24.9585476518,-26.4588399231,0 24.9561403692,-26.4616253972,0 24.9538376927,-26.4643156528,0 24.9525851011,-26.4657586813,0 24.9507021904,-26.4679352939,0 24.9490982294,-26.4697900414,0 24.948541671,-26.4704592526,0 24.9464817345,-26.4728410542,0 24.9453417957,-26.474160701,0 24.9435795844,-26.4762112498,0 24.9425898492,-26.477380693,0 24.9413882196,-26.4787754416,0 24.9395696819,-26.4808984101,0 24.9373488128,-26.4834599197,0 24.9353371561,-26.4858014882,0 24.933911562,-26.48745507,0 24.9320782721,-26.4895713329,0 24.9306875467,-26.4912088215,0 24.9293410778,-26.4927390218,0 24.928034842,-26.4942504466,0 24.9268171191,-26.4956612885,0 24.9245506525,-26.4983005822,0 24.922824651,-26.50032565,0 24.9211160839,-26.502276957,0 24.9173542857,-26.506678462,0 24.9135951698,-26.5110692382,0 24.910980016,-26.5140652657,0 24.9095115066,-26.5157470107,0 24.9050576985,-26.5209062397,0 24.9006012082,-26.5260842443,0 24.8991031945,-26.5278370678,0 24.8968420923,-26.530483067,0 24.89279598,-26.5350280702,0 24.8887203634,-26.5395958722,0 24.8876219988,-26.540812254,0 24.8850162327,-26.5436969697,0 24.8809674382,-26.5481749177,0 24.8807796836,-26.5483827889,0 24.8805691302,-26.5486174822,0 24.8778051138,-26.5517127514,0 24.8772780597,-26.5523014963,0 24.8766598105,-26.5529948473,0 24.8760133982,-26.5537150204,0 24.8757974803,-26.5539564192,0 24.874701798,-26.5551768243,0 24.8742605746,-26.5556663275,0 24.8741613328,-26.5557776392,0 24.8737429082,-26.5562430024,0 24.8727089167,-26.5573856235,0 24.8719444871,-26.5582291782,0 24.8707053065,-26.5596078336,0 24.8701366782,-26.560240835,0 24.8700857162,-26.5602958202,0 24.8694299161,-26.561037451,0 24.8688331246,-26.5617120266,0 24.8682135344,-26.562410742,0 24.868106246,-26.5625314415,0 24.867080301,-26.5636914968,0 24.8665586114,-26.5643379092,0 24.8663118482,-26.5646651387,0 24.8653569818,-26.5660987794,0 24.8649305105,-26.5667746961,0 24.8644450307,-26.5676048398,0 24.863960892,-26.5685382485,0 24.863614887,-26.5692731738,0 24.8632702231,-26.5700228512,0 24.8629939556,-26.5706504881,0 24.8616032302,-26.5745061636,0 24.8611821234,-26.5756447613,0 24.8593702912,-26.5807570517,0 24.8576697707,-26.5855890512,0 24.8560416698,-26.5901635587,0 24.8543545604,-26.5949955583,0 24.8538288474,-26.5964439511,0 24.8532186449,-26.5981283784,0 24.8520103097,-26.6014556587,0 24.8502212763,-26.606464684,0 24.8485998809,-26.6110619903,0 24.8469436169,-26.6157317162,0 24.8456306756,-26.6195203364,0 24.8441983759,-26.6234967113,0 24.84246701,-26.6283515096,0 24.8405532539,-26.6337642074,0 24.8385576904,-26.6393753886,0 24.8384557664,-26.6396637261,0 24.8377127945,-26.6417853534,0 24.8364776373,-26.6453352571,0 24.8344968259,-26.6507774591,0 24.8329827189,-26.6550408304,0 24.8314471543,-26.6594423354,0 24.8293416202,-26.665289551,0 24.8283532262,-26.6681152582,0 24.826824367,-26.6725757718,0 24.8253947496,-26.6767841578,0 24.8237921298,-26.6814726591,0 24.8221760988,-26.6862563789,0 24.8206686974,-26.6909086704,0 24.8193356395,-26.694726795,0 24.8178872466,-26.6989164054,0 24.817609638,-26.699757278,0 24.8167258501,-26.7024287581,0 24.8157213628,-26.7053993046,0 24.8149582744,-26.7076590657,0 24.8135071993,-26.7119465768,0 24.8119743168,-26.7164486647,0 24.8101450503,-26.7219096422,0 24.8085169494,-26.7266383767,0 24.8068660498,-26.7314918339,0 24.8052862287,-26.7361293733,0 24.8033832014,-26.7418035865,0 24.8014654219,-26.7475368083,0 24.8003844917,-26.7508359253,0 24.7989200056,-26.7551569641,0 24.7978578508,-26.7580778897,0 24.7960500419,-26.7634101212,0 24.7949436307,-26.7667159438,0 24.7933812439,-26.7713145912,0 24.7921340168,-26.7749986053,0 24.7914406657,-26.7769901454,0 24.7907969356,-26.7789146304,0 24.7900190949,-26.7811569571,0 24.7886672616,-26.7851869762,0 24.7870525718,-26.7899143696,0 24.7870311141,-26.7899814248,0 24.7857168317,-26.7940275371,0 24.7848115861,-26.7966815829,0 24.7843958437,-26.7978979647,0 24.7838754952,-26.7994228005,0 24.7830574214,-26.8018220365,0 24.7817860544,-26.8056495488,0 24.7802558541,-26.8101328611,0 24.7793774307,-26.8127386272,0 24.778893292,-26.8141749501,0 24.7776299715,-26.817869693,0 24.7765423357,-26.821077615,0 24.7749893367,-26.8256467581,0 24.7745226324,-26.8270254135,0 24.7735771537,-26.8298229575,0 24.7720777988,-26.8342204392,0 24.7706280649,-26.8385200202,0 24.7692279518,-26.8426291645,0 24.7682891786,-26.8453891575,0 24.7681416571,-26.8458196521,0 24.7678090632,-26.8467986584,0 24.766458571,-26.850797832,0 24.7649042308,-26.8553669751,0 24.7636730969,-26.8589946628,0 24.7621187568,-26.8635396659,0 24.7604008019,-26.8686157465,0 24.7587941587,-26.8733283877,0 24.7586721182,-26.8736945093,0 24.7580954432,-26.8754151464,0 24.757694453,-26.8766114116,0 24.7562541068,-26.8808278441,0 24.7551222146,-26.8841376901,0 24.7544007003,-26.8863210082,0 24.7533492744,-26.8893827498,0 24.7518566251,-26.8938352168,0 24.7506442666,-26.8973408639,0 24.7498838603,-26.899626106,0 24.7491180897,-26.9018188119,0 24.7480385005,-26.9049999118,0 24.7470755875,-26.9078457355,0 24.7458873689,-26.9113299251,0 24.7450518608,-26.9138404727,0 24.7449110448,-26.9142521918,0 24.7446213663,-26.9150970876,0 24.7439521551,-26.9170470536,0 24.742872566,-26.9201986492,0 24.7422261536,-26.9221016765,0 24.7413289547,-26.9247664511,0 24.7402533889,-26.9279234111,0 24.7395130992,-26.9301053882,0 24.7394098341,-26.9304084778,0 24.739215374,-26.9309838116,0 24.7389364243,-26.9318072498,0 24.7385139763,-26.9330571592,0 24.738342315,-26.9335640967,0 24.7383275628,-26.933607012,0 24.738072753,-26.9343593717,0 24.7377549112,-26.9352900982,0 24.7377213836,-26.9353812933,0 24.737136662,-26.9370777905,0 24.737123251,-26.9371193647,0 24.736777246,-26.9381251931,0 24.7365050018,-26.9389218092,0 24.7364553809,-26.9390639663,0 24.73640576,-26.9392128289,0 24.7360651195,-26.9402146339,0 24.736007452,-26.9403809309,0 24.7358720005,-26.9407832623,0 24.7356078029,-26.9415637851,0 24.7354227304,-26.9421350956,0 24.735198766,-26.9428271055,0 24.734993577,-26.9434641302,0 24.7348769009,-26.9438168406,0 24.7348085046,-26.9440314174,0 24.7347655892,-26.9441521168,0 24.7347199917,-26.9443331659,0 24.7346891463,-26.9444511831,0 24.7346006334,-26.9447381794,0 24.7345899045,-26.9447864592,0 24.7345872223,-26.9447985291,0 24.7345161438,-26.9451150298,0 24.7343806922,-26.9456702471,0 24.7342734039,-26.9461356103,0 24.7342371941,-26.9463153183,0 24.7341862321,-26.9465661049,0 24.7340507805,-26.9474177063,0 24.7340252995,-26.947581321,0 24.7340078652,-26.9476832449,0 24.733813405,-26.9490082562,0 24.7337651253,-26.9493046403,0 24.7334311903,-26.9513712823,0 24.7309568524,-26.9510561228,0 24.7273653746,-26.9505947828,0 24.7272929549,-26.9505853951,0 24.7259062529,-26.9503976405,0 24.7247904539,-26.9502487779,0 24.7245973349,-26.9502219558,0 24.7240810096,-26.9501495361,0 24.7239536047,-26.9501280785,0 24.7234842181,-26.9500663877,0 24.7233004868,-26.9500422478,0 24.7232830524,-26.9504767656,0 24.7232280672,-26.9509541988,0 24.723084569,-26.951892972,0 24.7229598463,-26.9526775181,0 24.7227841616,-26.953727603,0 24.7226312757,-26.9546368718,0 24.7224783897,-26.9555461407,0 24.7223228216,-26.9565318525,0 24.7222302854,-26.9571125507,0 24.7221833467,-26.957411617,0 24.720146209,-26.957167536,0 24.7200027108,-26.9580338895,0 24.7198444605,-26.9590061903,0 24.719837755,-26.9590544701,0 24.7196768224,-26.9600348175,0 24.7196044028,-26.9603687525,0 24.7195494175,-26.960529685,0 24.7194877267,-26.9606463611,0 24.7193670273,-26.960811317,0 24.7192744911,-26.9609105587,0 24.719235599,-26.9609521329,0 24.7191752493,-26.961016506,0 24.7191028297,-26.9610875845,0 24.7190049291,-26.9611774385,0 24.7187179327,-26.9614309072,0 24.7182700038,-26.9617849588,0 24.7180809081,-26.9619351625,0 24.7176866233,-26.962248981,0 24.717258811,-26.9625775516,0 24.7168242931,-26.9629128277,0 24.7162918746,-26.9633245468,0 24.7157433629,-26.963751018,0 24.7153235972,-26.9640795887,0 24.7144974768,-26.9647246599,0 24.7143177688,-26.9648560882,0 24.7142386436,-26.9649164379,0 24.713961035,-26.9651404023,0 24.7138001025,-26.9652718306,0 24.7131697834,-26.9657707214,0 24.7130678594,-26.9658525288,0 24.7125568986,-26.9662562013,0 24.7120861709,-26.9666223228,0 24.7120204568,-26.9666746259,0 24.7111822665,-26.9673277438,0 24.7107973695,-26.9676268101,0 24.7098317742,-26.9683818519,0 24.7085537016,-26.9693809748,0 24.7082921863,-26.9695861638,0 24.7082345188,-26.9696304202,0 24.708032012,-26.9697900116,0 24.7062966228,-26.9711472094,0 24.7045947611,-26.9724749029,0 24.7026917338,-26.9739675522,0 24.7019407153,-26.9745562971,0 24.7017140687,-26.9747239351,0 24.7012245655,-26.9750712812,0 24.7006720304,-26.9754172862,0 24.7002495825,-26.9756627083,0 24.699998796,-26.9758088887,0 24.6992853284,-26.9762139022,0 24.6986992657,-26.9765089452,0 24.6981118619,-26.9767691195,0 24.6977336705,-26.9769152999,0 24.6976223588,-26.9769582152,0 24.6969799697,-26.9771835208,0 24.6960921586,-26.9774477184,0 24.6941140294,-26.9780230522,0 24.6924993396,-26.9784857333,0 24.6922968328,-26.9785326719,0 24.6892444789,-26.9794003665,0 24.6883901954,-26.9796605408,0 24.6864549816,-26.9802264869,0 24.6846914291,-26.9807213545,0 24.6810208261,-26.9818089902,0 24.6786162257,-26.9824808836,0 24.6770887077,-26.9829234481,0 24.673627317,-26.9839252532,0 24.6706286073,-26.98478356,0 24.6672034264,-26.9857826829,0
            </coordinates>
        </LineString>
        </Placemark>
  </Folder>
        </Document>
    </kml>
    