<?xml version="1.0" encoding="UTF-8"?>
    <kml xmlns="http://www.opengis.net/kml/2.2">
    <Document>
        <name>Colored Path</name>
        <Folder>
            <name>Day 5</name>
            <open>1</open>
            <Style id="blackLine">
            <LineStyle>
                <color>ff000000</color>
                <width>4</width>
            </LineStyle>
            </Style>
            <Style id="redLine">
            <LineStyle>
                <color>ff0000ff</color>
                <width>4</width>
            </LineStyle>
            </Style>
        <Placemark>
        <name>Segment 1 (True)</name>
        <styleUrl>#blackLine</styleUrl>
        <LineString>
            <tessellate>1</tessellate>
            <coordinates>
            21.2414002419,-28.4568978846,0 21.2423041463,-28.457673043,0 21.2426769733,-28.4579922259,0 21.2428794801,-28.4581665695,0 21.2429465353,-28.458224237,0 21.2430229783,-28.4582872689,0 21.2427346408,-28.4585407376,0 21.2426447868,-28.4585621953,0 21.2425509095,-28.458648026,0 21.2419098616,-28.4592367709,0 21.2408128381,-28.4602573514,0 21.2414833903,-28.4607844055,0 21.2420144677,-28.4612779319,0 21.2421043217,-28.4613530338,0 21.2420345843,-28.4614241123,0 21.2419769168,-28.4614817798,0 21.2419447303,-28.4615139663,0 21.2419313192,-28.4616360068,0 21.2416966259,-28.4618613124,0 21.2415491045,-28.4620021284,0 21.2413157523,-28.4622314572,0 21.2412782013,-28.4622864425,0 21.2412326038,-28.4623575211,0 21.2412017584,-28.4624044597,0 21.2411521375,-28.4624822438,0 21.2411266565,-28.4625251591,0 21.2410743535,-28.4627021849,0 21.2410676479,-28.4627357125,0 21.2410502136,-28.4628497064,0 21.2410502136,-28.4629771113,0 21.2411212921,-28.4631863236,0 21.2412339449,-28.4634035826,0 21.2413023412,-28.4635283053,0 21.2414190173,-28.4636422992,0 21.2414485216,-28.4636718035,0 21.2417636812,-28.4639789164,0 21.2418213487,-28.464037925,0 21.2419085205,-28.464127779,0 21.2427547574,-28.4650102258,0 21.2427936494,-28.4650504589,0 21.2429451942,-28.4651845694,0 21.2435406446,-28.4657397866,0 21.2435701489,-28.4657692909,0 21.2436278164,-28.4658256173,0 21.2437136471,-28.4659127891,0 21.2439671159,-28.4661635756,0 21.2451352179,-28.4673249722,0 21.2455187738,-28.4677165747,0 21.2474003434,-28.4694989026,0 21.2486422062,-28.4707917273,0 21.2487025559,-28.4708413482,0 21.2487414479,-28.4708467126,0 21.248807162,-28.4709084034,0 21.2489439547,-28.4710425138,0 21.2492242455,-28.4713174403,0 21.2493315339,-28.4714287519,0 21.249461621,-28.4715628624,0 21.2495581806,-28.4716580808,0 21.2500597537,-28.472147584,0 21.2500758469,-28.4721623361,0 21.2504017353,-28.4724184871,0 21.250692755,-28.4726035595,0 21.2509354949,-28.4727269411,0 21.2511460483,-28.4728141129,0 21.2513566017,-28.4728878736,0 21.2516315281,-28.4729616344,0 21.2518326938,-28.472995162,0 21.251962781,-28.4730085731,0 21.2521478534,-28.473020643,0 21.2523637712,-28.4730286896,0 21.2527795136,-28.4730300307,0 21.2530235946,-28.4730327129,0 21.2536659837,-28.4730434418,0 21.2541809678,-28.4730541706,0 21.2545216084,-28.4730608761,0 21.2548354268,-28.4730662405,0 21.2551264465,-28.4730769694,0 21.2558224797,-28.4731024504,0 21.2562341988,-28.4731225669,0 21.2563817203,-28.473123908,0 21.2564300001,-28.4731547534,0 21.2569221854,-28.4731641412,0 21.2575820088,-28.4731775522,0 21.25870049,-28.473200351,0 21.2590505183,-28.4732110798,0 21.2593080103,-28.4732164443,0 21.259765327,-28.4732298553,0 21.2601006031,-28.4732365608,0 21.260202527,-28.4732379019,0 21.2607604265,-28.4732459486,0 21.2613277137,-28.4732593596,0 21.2615141273,-28.473264724,0 21.2621296942,-28.4732741117,0 21.2628337741,-28.4733250737,0 21.2630161643,-28.4733438492,0 21.2632200122,-28.4733720124,0 21.2633903325,-28.4733988345,0 21.2636129558,-28.4734658897,0 21.2638744712,-28.4735302627,0 21.2640702724,-28.4735879302,0 21.2645222247,-28.4737890959,0 21.2649513781,-28.4739983082,0 21.2653376162,-28.4742088616,0 21.267182976,-28.4752079844,0 21.2677569687,-28.4755110741,0 21.2688204646,-28.4760756791,0 21.2691812217,-28.4762647748,0 21.2696881592,-28.4765249491,0 21.2699148059,-28.4766228497,0 21.270070374,-28.4766831994,0 21.2703882158,-28.47679317,0 21.2706725299,-28.476883024,0 21.2711647153,-28.4770037234,0 21.2714570761,-28.4770667553,0 21.2717735767,-28.4771203995,0 21.2718446553,-28.4771284461,0 21.2719264627,-28.4771391749,0 21.2722818553,-28.4771646559,0 21.2724669278,-28.477152586,0 21.272662729,-28.4771606326,0 21.2728478014,-28.4771512449,0 21.2733238935,-28.4771110117,0 21.2735505402,-28.4770855308,0 21.2741151452,-28.4770010412,0 21.2745939195,-28.4768776596,0 21.2749063969,-28.4767623246,0 21.2749586999,-28.4767408669,0 21.2750726938,-28.4766966105,0 21.2754240632,-28.4765584767,0 21.2756976485,-28.476421684,0 21.2758854032,-28.4763278067,0 21.2759310007,-28.4763036668,0 21.2761750817,-28.4761507809,0 21.2763816118,-28.476023376,0 21.2767115235,-28.4757779539,0 21.2770736217,-28.475472182,0 21.2772855163,-28.4752602875,0 21.2773633003,-28.4751744568,0 21.2775269151,-28.4749934077,0 21.2776985765,-28.4747949243,0 21.2779453397,-28.4744609892,0 21.2780821323,-28.4742477536,0 21.2781921029,-28.4740425646,0 21.2783020735,-28.4738373756,0 21.2784469128,-28.4735155106,0 21.2785542011,-28.4731923044,0 21.2786909938,-28.4727349877,0 21.2787097692,-28.4726236761,0 21.2787660956,-28.472250849,0 21.2788251042,-28.4717841446,0 21.2788425386,-28.4715950489,0 21.2788881361,-28.4712101519,0 21.278924346,-28.4708547592,0 21.2789417803,-28.470672369,0 21.2790142,-28.4700903296,0 21.2790946662,-28.4693218768,0 21.2791697681,-28.4686070681,0 21.2793105841,-28.4675194323,0 21.2793119252,-28.4674134851,0 21.2794581056,-28.4667120874,0 21.2796056271,-28.4660696983,0 21.279771924,-28.4655614197,0 21.2799663842,-28.4650477767,0 21.2802037597,-28.4645153582,0 21.2804277241,-28.4640593827,0 21.2805537879,-28.4638139606,0 21.2806637585,-28.4636409581,0 21.2808890641,-28.4632882476,0 21.2810754776,-28.4630133212,0 21.2812444568,-28.4627611935,0 21.2814818323,-28.4624648094,0 21.2816642225,-28.4622381628,0 21.2819337845,-28.4619149566,0 21.2825238705,-28.461316824,0 21.2826123834,-28.4612309933,0 21.2827411294,-28.4611237049,0 21.282876581,-28.4610030055,0 21.2832842767,-28.4606409073,0 21.2837429345,-28.4603123367,0 21.2842901051,-28.4599368274,0 21.2848426402,-28.4595908225,0 21.285277158,-28.4593574703,0 21.2857934833,-28.4590852261,0 21.2863688171,-28.4588398039,0 21.2871493399,-28.4585501254,0 21.2878708541,-28.4582819045,0 21.2890456617,-28.4578621387,0 21.289498955,-28.457698524,0 21.2928396463,-28.4565103054,0 21.2955634296,-28.4555125237,0 21.2961401045,-28.4553167224,0 21.2967462838,-28.4550954401,0 21.297416836,-28.4548553824,0 21.2982134521,-28.4545724094,0 21.2987633049,-28.4543699026,0 21.2993480265,-28.4541687369,0 21.2998683751,-28.4539997578,0 21.3002224267,-28.4538978338,0 21.3007776439,-28.453758359,0 21.301753968,-28.4535183012,0 21.3026659191,-28.4532943368,0 21.3030400872,-28.4532018006,0 21.303551048,-28.4530770779,0 21.3041143119,-28.452937603,0 21.3051818311,-28.4526734054,0 21.306386143,-28.452386409,0 21.3070459664,-28.4522227943,0 21.3075260818,-28.4520980716,0 21.3082449138,-28.4519290924,0 21.3088671863,-28.4517802298,0 21.3095162809,-28.4516179562,0 21.3099642098,-28.451499939,0 21.3102512062,-28.4514221549,0 21.3105194271,-28.4513296187,0 21.3108037412,-28.4512142837,0 21.3112007082,-28.4510412812,0 21.3118806481,-28.4507086873,0 21.3119088113,-28.4506952763,0 21.3126343489,-28.450280875,0 21.3129709661,-28.4501159191,0 21.313059479,-28.4500716627,0 21.3133102655,-28.4499321878,0 21.3135892153,-28.4497873485,0 21.3145816326,-28.449229449,0 21.3154855371,-28.4487184882,0 21.3161614537,-28.4483362734,0 21.3166080415,-28.4480881691,0 21.3170827925,-28.4478253126,0 21.3186438382,-28.4469656646,0 21.3187417388,-28.4469120204,0 21.3198186457,-28.4463259578,0 21.3202504814,-28.446084559,0 21.3209974766,-28.4456688166,0 21.321837008,-28.4452047944,0 21.3224042952,-28.4448949993,0 21.3227677345,-28.444685787,0 21.3230359554,-28.4445382655,0 21.3232840598,-28.4444001317,0 21.3236220181,-28.4442096949,0 21.3246412575,-28.4436491132,0 21.3249859214,-28.4434533119,0 21.3251535594,-28.4433594346,0 21.3252219558,-28.4433205426,0 21.3258992136,-28.4429436922,0 21.3267065585,-28.4424944222,0 21.327265799,-28.4421859682,0 21.3277807832,-28.4419177473,0 21.32820189,-28.4416763484,0 21.3288536668,-28.4413209558,0 21.3290897012,-28.4411922097,0 21.3300096989,-28.4406799078,0 21.3306614757,-28.440323174,0 21.3313521445,-28.4399396181,0 21.3320977986,-28.439527899,0 21.3321943581,-28.4394715726,0 21.3324719667,-28.4393106401,0 21.3333235681,-28.4388425946,0 21.3339498639,-28.4384992719,0 21.3345761597,-28.4381452203,0 21.337737143,-28.4363950789,0 21.3379597664,-28.4362730384,0 21.3387537003,-28.4358519316,0 21.3390809298,-28.435690999,0 21.3393867016,-28.4355689585,0 21.3396911323,-28.4354522824,0 21.3401739299,-28.4353128076,0 21.3402302563,-28.4352967143,0 21.3417175412,-28.4348970652,0 21.3441704214,-28.4342251718,0 21.3448704779,-28.4340360761,0 21.3452580571,-28.4339368343,0 21.3458414376,-28.433804065,0 21.3462625444,-28.4337316453,0 21.3466179371,-28.4336927533,0 21.3467681408,-28.4336806834,0 21.3469398022,-28.4336806834,0 21.3471570611,-28.433675319,0 21.3473837078,-28.4336806834,0 21.3476344943,-28.4336860478,0 21.3478893042,-28.4337034822,0 21.3481360674,-28.4337410331,0 21.3487274945,-28.4338416159,0 21.3494771719,-28.4340360761,0 21.3504977524,-28.4343311191,0 21.3509362936,-28.434446454,0 21.3514083624,-28.4345805645,0 21.3521191478,-28.4347307682,0 21.3529627025,-28.4347844124,0 21.353045851,-28.4347830713,0 21.3540530205,-28.4347629547,0 21.355419606,-28.434741497,0 21.3564455509,-28.4347106516,0 21.35707587,-28.4347200394,0 21.3575989008,-28.4347200394,0 21.3581970334,-28.4348165989,0 21.3586342335,-28.4349668026,0 21.35911569,-28.4351478517,0 21.3595636189,-28.4354040027,0 21.3599485159,-28.4356816113,0 21.3605895638,-28.4362046421,0 21.3611233234,-28.4366217256,0 21.3619883358,-28.43729496,0 21.3627138734,-28.4378930926,0 21.3634729385,-28.4386079013,0 21.3641676307,-28.4393669665,0 21.3648542762,-28.4402373433,0 21.3656964898,-28.441337049,0 21.3664059341,-28.4422650933,0 21.3668860495,-28.4429128468,0 21.367264241,-28.4432964027,0 21.3675954938,-28.4436383843,0 21.3679160178,-28.4438838065,0 21.3680179417,-28.4439682961,0 21.3682258129,-28.4441412985,0 21.3685034215,-28.4443223476,0 21.3687770069,-28.4444966912,0 21.3696889579,-28.4450384974,0 21.3706505299,-28.4456366301,0 21.3715584576,-28.4461811185,0 21.3727225363,-28.446906656,0 21.37401402,-28.4477233887,0 21.3747516274,-28.4481565654,0 21.3756810129,-28.4487439692,0 21.3763435185,-28.4492133558,0 21.3769738376,-28.4496948123,0 21.3774968684,-28.4501856565,0 21.3779769838,-28.4506979585,0 21.378569752,-28.4512974322,0 21.3792201877,-28.4518861771,0 21.3794857264,-28.4521436691,0 21.3797834516,-28.452359587,0 21.3802099228,-28.4526586533,0 21.3810963929,-28.4532514215,0 21.3819614053,-28.453720808,0 21.3825380802,-28.4539984167,0 21.3833065331,-28.4543511271,0 21.3844075799,-28.4548741579,0 21.3851545751,-28.4552161396,0 21.3863186538,-28.455760628,0 21.3873875141,-28.4562635422,0 21.3887903094,-28.4569247067,0 21.3891819119,-28.4571044147,0 21.3896164298,-28.457313627,0 21.3901823759,-28.4575738013,0 21.390812695,-28.4578755498,0 21.3913571835,-28.4581370652,0 21.3918158412,-28.4583516419,0 21.3923496008,-28.4585823119,0 21.3926848769,-28.4587271512,0 21.3930845261,-28.4588451684,0 21.3934895396,-28.4589511156,0 21.3938489556,-28.4590168297,0 21.3941547275,-28.4590637684,0 21.3945114613,-28.459097296,0 21.3948521018,-28.459110707,0 21.3952115178,-28.4591013193,0 21.3955360651,-28.4590892494,0 21.3958150148,-28.4590637684,0 21.3961422443,-28.4590141475,0 21.3964265585,-28.4589618444,0 21.3966304064,-28.458917588,0 21.3971534371,-28.4587647021,0 21.3975208998,-28.4586372972,0 21.3979312778,-28.4584508836,0 21.3985535502,-28.4581397474,0 21.3990336657,-28.4579198062,0 21.3992348313,-28.4578111768,0 21.399435997,-28.4577333927,0 21.3997283578,-28.4576489031,0 21.3999482989,-28.4575925767,0 21.4002165198,-28.4575456381,0 21.4004901052,-28.4575094283,0 21.400744915,-28.4574960172,0 21.4010292292,-28.4574973583,0 21.4013457298,-28.4575174749,0 21.4016729593,-28.4575617313,0 21.4019787312,-28.4576207399,0 21.4024695754,-28.4577669203,0 21.4030596614,-28.4579439461,0 21.4034566283,-28.4580713511,0 21.4037624002,-28.4581491351,0 21.4039796591,-28.4581960738,0 21.404312253,-28.4582577646,0 21.4044731855,-28.4582805634,0 21.4047387242,-28.45828861,0 21.4050337672,-28.45828861,0 21.4052939415,-28.45827654,0 21.4056292176,-28.4582309425,0 21.4059510827,-28.4581585228,0 21.4062085748,-28.458096832,0 21.4065250754,-28.4579761326,0 21.406879127,-28.4578205645,0 21.4071929455,-28.4576462209,0 21.4077830315,-28.4572532773,0 21.408252418,-28.4569247067,0 21.4086681604,-28.4566350281,0 21.4090785384,-28.4563614428,0 21.4097088575,-28.4559322894,0 21.4106583595,-28.4552724659,0 21.4115488529,-28.4546689689,0 21.4120316505,-28.454336375,0 21.4128430188,-28.4537811577,0 21.4133539796,-28.4534445405,0 21.4138555527,-28.4530811012,0 21.4141049981,-28.4528812766,0 21.4144644141,-28.4525513649,0 21.4148452878,-28.4521383047,0 21.4151269197,-28.4517721832,0 21.4152771235,-28.4515294433,0 21.4154487848,-28.4512317181,0 21.4155748487,-28.4509809315,0 21.4157304168,-28.4505960345,0 21.4158350229,-28.4502325952,0 21.4159342647,-28.4498691559,0 21.4159744978,-28.4496451914,0 21.4160388708,-28.449241519,0 21.4160951972,-28.4489357471,0 21.4161595702,-28.448664844,0 21.4162695408,-28.4483295679,0 21.4164224267,-28.4480251372,0 21.4165753126,-28.4477636218,0 21.4167845249,-28.4474779665,0 21.4169937372,-28.4472620487,0 21.4172244072,-28.447034061,0 21.4174926281,-28.4468194842,0 21.4179003239,-28.4465539455,0 21.4182141423,-28.4463822842,0 21.4188095927,-28.4460376203,0 21.4195820689,-28.4455937147,0 21.4202713966,-28.4451967478,0 21.4211055636,-28.4447139502,0 21.4217305183,-28.4443598986,0 21.4223742485,-28.4439951181,0 21.4230877161,-28.4435847402,0 21.4236831665,-28.4432427585,0 21.424292028,-28.4428913891,0 21.4251959324,-28.4423696995,0 21.4256840944,-28.4420907497,0 21.4262098074,-28.4417943656,0 21.4269018173,-28.4414067864,0 21.427808404,-28.440874368,0 21.428591609,-28.4404331446,0 21.4292353392,-28.4400656819,0 21.4296108484,-28.4398645163,0 21.4298817515,-28.4397089481,0 21.4302304387,-28.4395493567,0 21.4305898547,-28.4394004941,0 21.4309492707,-28.4392663836,0 21.4312872291,-28.439155072,0 21.4316600561,-28.439065218,0 21.432504952,-28.4388627112,0 21.4329850674,-28.4387513995,0 21.4334785938,-28.4386266768,0 21.4337870479,-28.4385542572,0 21.4341276884,-28.4384456277,0 21.4345031977,-28.4382940829,0 21.4351174235,-28.4380151331,0 21.4353615046,-28.4378863871,0 21.435804069,-28.4376101196,0 21.4361125231,-28.4373861551,0 21.4364236593,-28.4371219575,0 21.4367857575,-28.4367799759,0 21.4370432496,-28.4365063906,0 21.4373999834,-28.4361027181,0 21.4376842976,-28.4357728064,0 21.4380571246,-28.4353409708,0 21.4385774732,-28.4347508848,0 21.4389851689,-28.4342841804,0 21.4393606782,-28.4338617325,0 21.4396235347,-28.4335653484,0 21.4400553703,-28.4330745041,0 21.4405435324,-28.4325246513,0 21.4407782257,-28.4322550893,0 21.4411309361,-28.4318500757,0 21.4415305853,-28.4313900769,0 21.4419302344,-28.430930078,0 21.4424961805,-28.4302890301,0 21.4429306984,-28.4298545122,0 21.4432471991,-28.4295554459,0 21.4435046911,-28.4293287992,0 21.4438694715,-28.4290109575,0 21.4442691207,-28.4286756814,0 21.4446902275,-28.4283189476,0 21.4454331994,-28.4276899695,0 21.4457818866,-28.4273989499,0 21.4463102818,-28.4269376099,0 21.4472973347,-28.4261088073,0 21.4481958747,-28.4253564477,0 21.4487376809,-28.4248964489,0 21.4493894577,-28.424333185,0 21.4499554038,-28.4238088131,0 21.4504221082,-28.4233421087,0 21.4507868886,-28.4229438007,0 21.4513126016,-28.422369808,0 21.4517015219,-28.4219178557,0 21.4519590139,-28.4216295183,0 21.4525383711,-28.4209857881,0 21.452884376,-28.4206035733,0 21.4534690976,-28.419945091,0 21.4538392425,-28.4195320308,0 21.4543274045,-28.4189929068,0 21.4545553923,-28.4187421203,0 21.4547136426,-28.4185919166,0 21.4549550414,-28.4183880687,0 21.4552661777,-28.418161422,0 21.455655098,-28.4179361165,0 21.4560198784,-28.4177604318,0 21.456438303,-28.4176035225,0 21.4572563767,-28.4172937274,0 21.4577069879,-28.417122066,0 21.458517015,-28.4168122709,0 21.4592760801,-28.4165266156,0 21.4597481489,-28.4163334966,0 21.4601048827,-28.4161564708,0 21.4604777098,-28.4159445763,0 21.4608371258,-28.415684402,0 21.4611710608,-28.4154242277,0 21.4613547921,-28.415260613,0 21.4616364241,-28.4149803221,0 21.4618831873,-28.4147080779,0 21.4622586966,-28.4143124521,0 21.4626127481,-28.4139369428,0 21.4628514647,-28.4136660397,0 21.4630499482,-28.4134554863,0 21.4632108808,-28.413271755,0 21.463457644,-28.4130142629,0 21.4637097716,-28.4127379954,0 21.4638894796,-28.4125261009,0 21.4640986919,-28.4123061597,0 21.4642703533,-28.4121130407,0 21.4645171165,-28.4118676186,0 21.4647290111,-28.4116744995,0 21.4649704099,-28.4114719927,0 21.4651232958,-28.4113566577,0 21.4653646946,-28.4111997485,0 21.4656999707,-28.4110119939,0 21.4659655094,-28.4109006822,0 21.4661720395,-28.4108161926,0 21.4664670825,-28.4107102454,0 21.4669364691,-28.4105734527,0 21.4675158262,-28.4104219079,0 21.4679503441,-28.4102971852,0 21.4687013626,-28.4101107717,0 21.4694201946,-28.4099055827,0 21.4698734879,-28.4097661078,0 21.4703509212,-28.4095837176,0 21.4709597826,-28.4092913568,0 21.4720031619,-28.4087777138,0 21.4728105068,-28.4083579481,0 21.4737090468,-28.4079046547,0 21.4746960998,-28.4074138105,0 21.4756241441,-28.4069377184,0 21.4763456583,-28.4065662324,0 21.4768016338,-28.4063355625,0 21.4770644903,-28.4062041342,0 21.4771999419,-28.4061411023,0 21.4773622155,-28.4060646594,0 21.4775687456,-28.4059935808,0 21.4777243137,-28.4059506655,0 21.4778879285,-28.4059104323,0 21.4779764414,-28.4058983624,0 21.478074342,-28.4058903158,0 21.4782688022,-28.4058849514,0 21.4784002304,-28.4058903158,0 21.4786912501,-28.4059198201,0 21.4787623286,-28.4058889747,0 21.4791284502,-28.4059238434,0 21.4794301987,-28.4059546888,0 21.479703784,-28.4059895575,0 21.4801007509,-28.4060499072,0 21.4804172516,-28.4061035514,0 21.4805433154,-28.406123668,0 21.4807270467,-28.4061612189,0 21.4807377756,-28.4062631428,0 21.4803957939,-28.4062001109,0 21.4802120626,-28.4061639011,0 21.4798311889,-28.4060968459,0 21.4795348048,-28.4060552716,0 21.4792987704,-28.4060257673,0 21.4788790047,-28.4059748054,0 21.4787515998,-28.4059600532,0 21.4786912501,-28.4059198201,0 21.4784002304,-28.4058903158,0 21.4782688022,-28.4058849514,0 21.478074342,-28.4058903158,0 21.4779764414,-28.4058983624,0 21.4778879285,-28.4059104323,0 21.4777243137,-28.4059506655,0 21.4775687456,-28.4059935808,0 21.4773622155,-28.4060646594,0 21.4771999419,-28.4061411023,0 21.4770644903,-28.4062041342,0 21.4768016338,-28.4063355625,0 21.4763456583,-28.4065662324,0 21.4756241441,-28.4069377184,0 21.4746960998,-28.4074138105,0 21.4737090468,-28.4079046547,0 21.4728105068,-28.4083579481,0 21.4720031619,-28.4087777138,0 21.4709597826,-28.4092913568,0 21.4703509212,-28.4095837176,0 21.4698734879,-28.4097661078,0 21.4694201946,-28.4099055827,0 21.4687013626,-28.4101107717,0 21.4679503441,-28.4102971852,0 21.4675158262,-28.4104219079,0 21.4669364691,-28.4105734527,0 21.4664670825,-28.4107102454,0 21.4661720395,-28.4108161926,0 21.4659655094,-28.4109006822,0 21.4656999707,-28.4110119939,0 21.4653646946,-28.4111997485,0 21.4651232958,-28.4113566577,0 21.4649704099,-28.4114719927,0 21.4647290111,-28.4116744995,0 21.4645171165,-28.4118676186,0 21.4642703533,-28.4121130407,0 21.4640986919,-28.4123061597,0 21.4638894796,-28.4125261009,0 21.4637097716,-28.4127379954,0 21.463457644,-28.4130142629,0 21.4632108808,-28.413271755,0 21.4630499482,-28.4134554863,0 21.4628514647,-28.4136660397,0 21.4626127481,-28.4139369428,0 21.4622586966,-28.4143124521,0 21.4618831873,-28.4147080779,0 21.4616364241,-28.4149803221,0 21.4613547921,-28.415260613,0 21.4611710608,-28.4154242277,0 21.4608371258,-28.415684402,0 21.4604777098,-28.4159445763,0 21.4601048827,-28.4161564708,0 21.4597481489,-28.4163334966,0 21.4592760801,-28.4165266156,0 21.458517015,-28.4168122709,0 21.4577069879,-28.417122066,0 21.4572563767,-28.4172937274,0 21.456438303,-28.4176035225,0 21.4560198784,-28.4177604318,0 21.455655098,-28.4179361165,0 21.4552661777,-28.418161422,0 21.4549550414,-28.4183880687,0 21.4547136426,-28.4185919166,0 21.4545553923,-28.4187421203,0 21.4543274045,-28.4189929068,0 21.4538392425,-28.4195320308,0 21.4534690976,-28.419945091,0 21.452884376,-28.4206035733,0 21.4525383711,-28.4209857881,0 21.4519590139,-28.4216295183,0 21.4517015219,-28.4219178557,0 21.4513126016,-28.422369808,0 21.4507868886,-28.4229438007,0 21.4504221082,-28.4233421087,0 21.4499554038,-28.4238088131,0 21.4493894577,-28.424333185,0 21.4487376809,-28.4248964489,0 21.4481958747,-28.4253564477,0 21.4472973347,-28.4261088073,0 21.4463102818,-28.4269376099,0 21.4457818866,-28.4273989499,0 21.4454331994,-28.4276899695,0 21.4446902275,-28.4283189476,0 21.4442691207,-28.4286756814,0 21.4438694715,-28.4290109575,0 21.4435046911,-28.4293287992,0 21.4432471991,-28.4295554459,0 21.4429306984,-28.4298545122,0 21.4424961805,-28.4302890301,0 21.4419302344,-28.430930078,0 21.4415305853,-28.4313900769,0 21.4411309361,-28.4318500757,0 21.4407782257,-28.4322550893,0 21.4405435324,-28.4325246513,0 21.4400553703,-28.4330745041,0 21.4396235347,-28.4335653484,0 21.4393606782,-28.4338617325,0 21.4389851689,-28.4342841804,0 21.4385774732,-28.4347508848,0 21.4380571246,-28.4353409708,0 21.4376842976,-28.4357728064,0 21.4373999834,-28.4361027181,0 21.4370432496,-28.4365063906,0 21.4367857575,-28.4367799759,0 21.4364236593,-28.4371219575,0 21.4361125231,-28.4373861551,0 21.435804069,-28.4376101196,0 21.4353615046,-28.4378863871,0 21.4351174235,-28.4380151331,0 21.4345031977,-28.4382940829,0 21.4341276884,-28.4384456277,0 21.4337870479,-28.4385542572,0 21.4334785938,-28.4386266768,0 21.4329850674,-28.4387513995,0 21.432504952,-28.4388627112,0 21.4316600561,-28.439065218,0 21.4312872291,-28.439155072,0 21.4309492707,-28.4392663836,0 21.4305898547,-28.4394004941,0 21.4302304387,-28.4395493567,0 21.4298817515,-28.4397089481,0 21.4296108484,-28.4398645163,0 21.4292353392,-28.4400656819,0 21.428591609,-28.4404331446,0 21.427808404,-28.440874368,0 21.4269018173,-28.4414067864,0 21.4262098074,-28.4417943656,0 21.4256840944,-28.4420907497,0 21.4251959324,-28.4423696995,0 21.424292028,-28.4428913891,0 21.4236831665,-28.4432427585,0 21.4230877161,-28.4435847402,0 21.4223742485,-28.4439951181,0 21.4217305183,-28.4443598986,0 21.4211055636,-28.4447139502,0 21.4202713966,-28.4451967478,0 21.4195820689,-28.4455937147,0 21.4188095927,-28.4460376203,0 21.4182141423,-28.4463822842,0 21.4179003239,-28.4465539455,0 21.4174926281,-28.4468194842,0 21.4172244072,-28.447034061,0 21.4169937372,-28.4472620487,0 21.4167845249,-28.4474779665,0 21.4165753126,-28.4477636218,0 21.4164224267,-28.4480251372,0 21.4162695408,-28.4483295679,0 21.4161595702,-28.448664844,0 21.4160951972,-28.4489357471,0 21.4160388708,-28.449241519,0 21.4159744978,-28.4496451914,0 21.4159342647,-28.4498691559,0 21.4158350229,-28.4502325952,0 21.4157304168,-28.4505960345,0 21.4155748487,-28.4509809315,0 21.4154487848,-28.4512317181,0 21.4152771235,-28.4515294433,0 21.4151269197,-28.4517721832,0 21.4148452878,-28.4521383047,0 21.4144644141,-28.4525513649,0 21.4141049981,-28.4528812766,0 21.4138555527,-28.4530811012,0 21.4133539796,-28.4534445405,0 21.4128430188,-28.4537811577,0 21.4120316505,-28.454336375,0 21.4115488529,-28.4546689689,0 21.4106583595,-28.4552724659,0 21.4097088575,-28.4559322894,0 21.4090785384,-28.4563614428,0 21.4086681604,-28.4566350281,0 21.408252418,-28.4569247067,0 21.4077830315,-28.4572532773,0 21.4071929455,-28.4576462209,0 21.406879127,-28.4578205645,0 21.4065250754,-28.4579761326,0 21.4062085748,-28.458096832,0 21.4059510827,-28.4581585228,0 21.4056292176,-28.4582309425,0 21.4052939415,-28.45827654,0 21.4050337672,-28.45828861,0 21.4047387242,-28.45828861,0 21.4044731855,-28.4582805634,0 21.404312253,-28.4582577646,0 21.4039796591,-28.4581960738,0 21.4037624002,-28.4581491351,0 21.4034566283,-28.4580713511,0 21.4030596614,-28.4579439461,0 21.4024695754,-28.4577669203,0 21.4019787312,-28.4576207399,0 21.4016729593,-28.4575617313,0 21.4013457298,-28.4575174749,0 21.4010292292,-28.4574973583,0 21.4007945359,-28.4574960172,0 21.3999482989,-28.4575925767,0 21.3997283578,-28.4576489031,0 21.399435997,-28.4577333927,0 21.3992348313,-28.4578111768,0 21.3990336657,-28.4579198062,0 21.3985535502,-28.4581397474,0 21.3979312778,-28.4584508836,0 21.3975208998,-28.4586372972,0 21.3971534371,-28.4587647021,0 21.3966304064,-28.458917588,0 21.3964265585,-28.4589618444,0 21.3961422443,-28.4590141475,0 21.3958150148,-28.4590637684,0 21.3955360651,-28.4590892494,0 21.3952115178,-28.4591013193,0 21.3948521018,-28.459110707,0 21.3945114613,-28.459097296,0 21.3941547275,-28.4590637684,0 21.3938489556,-28.4590168297,0 21.3934895396,-28.4589511156,0 21.3930845261,-28.4588451684,0 21.3926848769,-28.4587271512,0 21.3923496008,-28.4585823119,0 21.3918158412,-28.4583516419,0 21.3913571835,-28.4581370652,0 21.390812695,-28.4578755498,0 21.3901823759,-28.4575738013,0 21.3896164298,-28.457313627,0 21.3891819119,-28.4571044147,0 21.3887903094,-28.4569247067,0 21.3873875141,-28.4562635422,0 21.3863186538,-28.455760628,0 21.3851545751,-28.4552161396,0 21.3844075799,-28.4548741579,0 21.3833065331,-28.4543511271,0 21.3825380802,-28.4539984167,0 21.3819614053,-28.453720808,0 21.3810963929,-28.4532514215,0 21.3802099228,-28.4526586533,0 21.3797834516,-28.452359587,0 21.3794857264,-28.4521436691,0 21.3792201877,-28.4518861771,0 21.378569752,-28.4512974322,0 21.3779769838,-28.4506979585,0 21.3774968684,-28.4501856565,0 21.3769738376,-28.4496948123,0 21.3763435185,-28.4492133558,0 21.3756810129,-28.4487439692,0 21.3747516274,-28.4481565654,0 21.37401402,-28.4477233887,0 21.3727225363,-28.446906656,0 21.3715584576,-28.4461811185,0 21.3706505299,-28.4456366301,0 21.3696889579,-28.4450384974,0 21.3687770069,-28.4444966912,0 21.3685034215,-28.4443223476,0 21.3682258129,-28.4441412985,0 21.3680179417,-28.4439682961,0 21.3679160178,-28.4438838065,0 21.3675954938,-28.4436383843,0 21.367264241,-28.4432964027,0 21.3668860495,-28.4429128468,0 21.3664059341,-28.4422650933,0 21.3656964898,-28.441337049,0 21.3648542762,-28.4402373433,0 21.3641676307,-28.4393669665,0 21.3634729385,-28.4386079013,0 21.3627138734,-28.4378930926,0 21.3619883358,-28.43729496,0 21.3611233234,-28.4366217256,0 21.3605895638,-28.4362046421,0 21.3599485159,-28.4356816113,0 21.3595636189,-28.4354040027,0 21.35911569,-28.4351478517,0 21.3586342335,-28.4349668026,0 21.3584773242,-28.4349131584,0 21.3577035069,-28.4347374737,0 21.3575989008,-28.4347200394,0 21.35707587,-28.4347200394,0 21.3564455509,-28.4347106516,0 21.355419606,-28.434741497,0 21.3540530205,-28.4347629547,0 21.353045851,-28.4347830713,0 21.3529627025,-28.4347844124,0 21.3521191478,-28.4347307682,0 21.3514083624,-28.4345805645,0 21.3509362936,-28.434446454,0 21.3504977524,-28.4343311191,0 21.3494771719,-28.4340360761,0 21.3487274945,-28.4338416159,0 21.3481360674,-28.4337410331,0 21.3478893042,-28.4337034822,0 21.3476344943,-28.4336860478,0 21.3473837078,-28.4336806834,0 21.3471570611,-28.433675319,0 21.3469398022,-28.4336806834,0 21.3467681408,-28.4336806834,0 21.3466179371,-28.4336927533,0 21.3462625444,-28.4337316453,0 21.3458414376,-28.433804065,0 21.3452580571,-28.4339368343,0 21.3448704779,-28.4340360761,0 21.3441704214,-28.4342251718,0 21.3417175412,-28.4348970652,0 21.3402302563,-28.4352967143,0 21.3401739299,-28.4353128076,0 21.3396911323,-28.4354522824,0 21.3393867016,-28.4355689585,0 21.3390809298,-28.435690999,0 21.3387537003,-28.4358519316,0 21.3379597664,-28.4362730384,0 21.337737143,-28.4363950789,0 21.3345761597,-28.4381452203,0 21.3339498639,-28.4384992719,0 21.3333235681,-28.4388425946,0 21.3324719667,-28.4393106401,0 21.3321943581,-28.4394715726,0 21.3320977986,-28.439527899,0 21.3313521445,-28.4399396181,0 21.3306614757,-28.440323174,0 21.3300096989,-28.4406799078,0 21.3290897012,-28.4411922097,0 21.3288536668,-28.4413209558,0 21.32820189,-28.4416763484,0 21.3277807832,-28.4419177473,0 21.327265799,-28.4421859682,0 21.3267065585,-28.4424944222,0 21.3258992136,-28.4429436922,0 21.3252219558,-28.4433205426,0 21.3251535594,-28.4433594346,0 21.3249859214,-28.4434533119,0 21.3246412575,-28.4436491132,0 21.3236220181,-28.4442096949,0 21.3232840598,-28.4444001317,0 21.3230359554,-28.4445382655,0 21.3227677345,-28.444685787,0 21.3224042952,-28.4448949993,0 21.321837008,-28.4452047944,0 21.3209974766,-28.4456688166,0 21.3202504814,-28.446084559,0 21.3198186457,-28.4463259578,0 21.3187417388,-28.4469120204,0 21.3186438382,-28.4469656646,0 21.3170827925,-28.4478253126,0 21.3166080415,-28.4480881691,0 21.3161614537,-28.4483362734,0 21.3154855371,-28.4487184882,0 21.3145816326,-28.449229449,0 21.3135892153,-28.4497873485,0 21.3133102655,-28.4499321878,0 21.313059479,-28.4500716627,0 21.3129709661,-28.4501159191,0 21.3126343489,-28.450280875,0 21.3119088113,-28.4506952763,0 21.3118806481,-28.4507086873,0 21.3112007082,-28.4510412812,0 21.3108037412,-28.4512142837,0 21.3105194271,-28.4513296187,0 21.3102512062,-28.4514221549,0 21.3099642098,-28.451499939,0 21.3095162809,-28.4516179562,0 21.3088671863,-28.4517802298,0 21.3082449138,-28.4519290924,0 21.3075260818,-28.4520980716,0 21.3070459664,-28.4522227943,0 21.306386143,-28.452386409,0 21.3051818311,-28.4526734054,0 21.3041143119,-28.452937603,0 21.303551048,-28.4530770779,0 21.3030400872,-28.4532018006,0 21.3026659191,-28.4532943368,0 21.301753968,-28.4535183012,0 21.3007776439,-28.453758359,0 21.3002224267,-28.4538978338,0 21.2998683751,-28.4539997578,0 21.2993480265,-28.4541687369,0 21.2987633049,-28.4543699026,0 21.2982134521,-28.4545724094,0 21.297416836,-28.4548553824,0 21.2967462838,-28.4550954401,0 21.2961401045,-28.4553167224,0 21.2955634296,-28.4555125237,0 21.2928396463,-28.4565103054,0 21.289498955,-28.457698524,0 21.2890456617,-28.4578621387,0 21.2878708541,-28.4582819045,0 21.2871493399,-28.4585501254,0 21.2863688171,-28.4588398039,0 21.2857934833,-28.4590852261,0 21.285277158,-28.4593574703,0 21.2848426402,-28.4595908225,0 21.2842901051,-28.4599368274,0 21.2837429345,-28.4603123367,0 21.2832842767,-28.4606409073,0 21.282876581,-28.4610030055,0 21.2827411294,-28.4611237049,0 21.2826123834,-28.4612309933,0 21.2825238705,-28.461316824,0 21.2819337845,-28.4619149566,0 21.2816642225,-28.4622381628,0 21.2814818323,-28.4624648094,0 21.2812444568,-28.4627611935,0 21.2810754776,-28.4630133212,0 21.2808890641,-28.4632882476,0 21.2806637585,-28.4636409581,0 21.2805537879,-28.4638139606,0 21.2804277241,-28.4640593827,0 21.2802037597,-28.4645153582,0 21.2799663842,-28.4650477767,0 21.279771924,-28.4655614197,0 21.2796056271,-28.4660696983,0 21.2794581056,-28.4667120874,0 21.2793119252,-28.4674134851,0 21.2793105841,-28.4675194323,0 21.2791697681,-28.4686070681,0 21.2790946662,-28.4693218768,0 21.2790142,-28.4700903296,0 21.2789417803,-28.470672369,0 21.278924346,-28.4708547592,0 21.2788881361,-28.4712101519,0 21.2788425386,-28.4715950489,0 21.2788251042,-28.4717841446,0 21.2787660956,-28.472250849,0 21.2787097692,-28.4726236761,0 21.2786909938,-28.4727349877,0 21.2785542011,-28.4731923044,0 21.2784469128,-28.4735155106,0 21.2783020735,-28.4738373756,0 21.2781921029,-28.4740425646,0 21.2780821323,-28.4742477536,0 21.2779453397,-28.4744609892,0 21.2776985765,-28.4747949243,0 21.2775269151,-28.4749934077,0 21.2773633003,-28.4751744568,0 21.2772855163,-28.4752602875,0 21.2770736217,-28.475472182,0 21.2767115235,-28.4757779539,0 21.2763816118,-28.476023376,0 21.2761750817,-28.4761507809,0 21.2759310007,-28.4763036668,0 21.2758854032,-28.4763278067,0 21.2756976485,-28.476421684,0 21.2754240632,-28.4765584767,0 21.2750726938,-28.4766966105,0 21.2749586999,-28.4767408669,0 21.2749063969,-28.4767623246,0 21.2745939195,-28.4768776596,0 21.2741151452,-28.4770010412,0 21.2735505402,-28.4770855308,0 21.2733238935,-28.4771110117,0 21.2728478014,-28.4771512449,0 21.272662729,-28.4771606326,0 21.2724669278,-28.477152586,0 21.2722818553,-28.4771646559,0 21.2719264627,-28.4771391749,0 21.2718446553,-28.4771284461,0 21.2717735767,-28.4771203995,0 21.2714570761,-28.4770667553,0 21.2711647153,-28.4770037234,0 21.2706725299,-28.476883024,0 21.2703882158,-28.47679317,0 21.270070374,-28.4766831994,0 21.2699148059,-28.4766228497,0 21.2696881592,-28.4765249491,0 21.2691812217,-28.4762647748,0 21.2688204646,-28.4760756791,0 21.2677569687,-28.4755110741,0 21.267182976,-28.4752079844,0 21.2653376162,-28.4742088616,0 21.2649513781,-28.4739983082,0 21.2645222247,-28.4737890959,0 21.2640702724,-28.4735879302,0 21.2638744712,-28.4735302627,0 21.2636129558,-28.4734658897,0 21.2633903325,-28.4733988345,0 21.2632200122,-28.4733720124,0 21.2630161643,-28.4733438492,0 21.2628337741,-28.4733250737,0 21.2621296942,-28.4732741117,0 21.2615141273,-28.473264724,0 21.2613277137,-28.4732593596,0 21.2607604265,-28.4732459486,0 21.260202527,-28.4732379019,0 21.2601006031,-28.4732365608,0 21.259765327,-28.4732298553,0 21.2593080103,-28.4732164443,0 21.2590505183,-28.4732110798,0 21.25870049,-28.473200351,0 21.2575820088,-28.4731775522,0 21.2569221854,-28.4731641412,0 21.2564300001,-28.4731547534,0 21.2563844025,-28.4731788933,0 21.2562328577,-28.47317487,0 21.2553463876,-28.4731480479,0 21.2551251054,-28.4731426835,0 21.254529655,-28.4731252491,0 21.2541809678,-28.4731225669,0 21.2538228929,-28.473110497,0 21.25351578,-28.4731011093,0 21.2521344423,-28.4730783105,0 21.2519386411,-28.473059535,0 21.2517468631,-28.4730286896,0 21.2516006827,-28.4729965031,0 21.2514464557,-28.4729616344,0 21.2512680888,-28.4729066491,0 21.2510186434,-28.4728141129,0 21.2507504225,-28.4726880491,0 21.2505787611,-28.4725901484,0 21.2504312396,-28.4725016356,0 21.2502703071,-28.4723809361,0 21.2500798702,-28.4722200036,0 21.2500275671,-28.4721703827,0 21.2499135733,-28.4720630944,0 21.249551475,-28.4717077017,0 21.2495273352,-28.4716835618,0 21.2492832541,-28.4714408219,0 21.249204129,-28.4713603556,0 21.2488996983,-28.471057266,0 21.2487079203,-28.4708735347,0 21.2487025559,-28.4708413482,0 21.2486422062,-28.4707917273,0 21.2474003434,-28.4694989026,0 21.2455187738,-28.4677165747,0 21.2451352179,-28.4673249722,0 21.2439671159,-28.4661635756,0 21.2437136471,-28.4659127891,0 21.2436278164,-28.4658256173,0 21.2435701489,-28.4657692909,0 21.2435406446,-28.4657397866,0 21.2429451942,-28.4651845694,0 21.2427936494,-28.4650504589,0 21.2427547574,-28.4650102258,0 21.2419085205,-28.464127779,0 21.2418213487,-28.464037925,0 21.2417636812,-28.4639789164,0 21.2414485216,-28.4636718035,0 21.2414190173,-28.4636422992,0 21.2413023412,-28.4635283053,0 21.2411212921,-28.4633526206,0 21.2410314381,-28.4632144868,0 21.2409858406,-28.4631112218,0 21.240940243,-28.4629797935,0 21.2409161031,-28.4628148377,0 21.240914762,-28.4626860917,0 21.2409549952,-28.462535888,0 21.2410113215,-28.462383002,0 21.241016686,-28.4623682499,0 21.2410984933,-28.4622475505,0 21.2414324284,-28.461920321,0 21.2415893376,-28.4617714584,0 21.2418267131,-28.4615434706,0 21.2419447303,-28.4615139663,0 21.2419769168,-28.4614817798,0 21.2420345843,-28.4614241123,0 21.2421043217,-28.4613530338,0 21.2420144677,-28.4612779319,0 21.2414833903,-28.4607844055,0 21.2408128381,-28.4602573514,0 21.2419098616,-28.4592367709,0 21.2425509095,-28.458648026,0 21.2426447868,-28.4585621953,0 21.2426649034,-28.4585031867,0 21.2429465353,-28.458224237,0 21.2428794801,-28.4581665695,0 21.2426769733,-28.4579922259,0 21.2423041463,-28.457673043,0 21.2414002419,-28.4568978846,0
            </coordinates>
        </LineString>
        </Placemark>
  </Folder>
        </Document>
    </kml>
    