<?xml version="1.0" encoding="UTF-8"?>
    <kml xmlns="http://www.opengis.net/kml/2.2">
    <Document>
        <name>Colored Path</name>
        <Folder>
            <name>Day 4</name>
            <open>1</open>
            <Style id="blackLine">
            <LineStyle>
                <color>ff000000</color>
                <width>4</width>
            </LineStyle>
            </Style>
            <Style id="redLine">
            <LineStyle>
                <color>ff0000ff</color>
                <width>4</width>
            </LineStyle>
            </Style>
        <Placemark>
        <name>Segment 1 (True)</name>
        <styleUrl>#blackLine</styleUrl>
        <LineString>
            <tessellate>1</tessellate>
            <coordinates>
            23.0622285604,-28.3378265798,0 23.0621695518,-28.3378185332,0 23.0610135198,-28.3376441896,0 23.0610188842,-28.3371345699,0 23.061016202,-28.3368811011,0 23.0610215664,-28.3366182446,0 23.0610309541,-28.3363299072,0 23.0610443652,-28.3359356225,0 23.0610430241,-28.3350290358,0 23.0610510707,-28.3347460628,0 23.0610604584,-28.3344456553,0 23.061068505,-28.3342766762,0 23.0610738695,-28.3342015743,0 23.0610738695,-28.3341948688,0 23.0610886216,-28.3341117203,0 23.0611288548,-28.3340500295,0 23.0611610413,-28.3340071142,0 23.0612482131,-28.3339118958,0 23.0613340437,-28.3338193595,0 23.0613595247,-28.3337925375,0 23.0615217984,-28.3336208761,0 23.0617189407,-28.3334183693,0 23.0619160831,-28.3332158625,0 23.0620448291,-28.3330830932,0 23.062299639,-28.3328309655,0 23.0626751482,-28.3324608207,0 23.0628736317,-28.3322650194,0 23.0630144477,-28.3321322501,0 23.0635844171,-28.3315958083,0 23.0640698969,-28.331091553,0 23.064224124,-28.3308917284,0 23.0642656982,-28.3308085799,0 23.0642938614,-28.3307120204,0 23.0643112957,-28.3306154609,0 23.0643166602,-28.3305041492,0 23.0643112957,-28.3303686976,0 23.0643045902,-28.3302292228,0 23.0642978847,-28.3301956952,0 23.0642858148,-28.3301353455,0 23.0642522871,-28.3300334215,0 23.0642308295,-28.3299542964,0 23.0642080307,-28.3298161626,0 23.0642026663,-28.3297048509,0 23.0641919374,-28.3295626938,0 23.0641919374,-28.3294728398,0 23.0642133951,-28.3293507993,0 23.0642402172,-28.3292931318,0 23.0642925203,-28.3291563392,0 23.0644252896,-28.3289806545,0 23.0645781755,-28.3288063109,0 23.0646827817,-28.328666836,0 23.064995259,-28.3282510936,0 23.0652447045,-28.327934593,0 23.0653077364,-28.3278501034,0 23.0653654039,-28.327781707,0 23.0658468604,-28.3271728456,0 23.066290766,-28.3266015351,0 23.066470474,-28.3263896406,0 23.0665831268,-28.3262340724,0 23.066650182,-28.3261415362,0 23.0668111145,-28.3259376884,0 23.0675178766,-28.3250458539,0 23.067650646,-28.3248755336,0 23.0679363012,-28.3245053887,0 23.0680865049,-28.3243069053,0 23.0682501197,-28.3240614831,0 23.0683963001,-28.323765099,0 23.0685250461,-28.3233600855,0 23.0685572326,-28.3230046928,0 23.0685599148,-28.3229738474,0 23.0685612559,-28.3226238191,0 23.0685263872,-28.3224105835,0 23.0685169995,-28.3223569393,0 23.0684888363,-28.3222348988,0 23.0684459209,-28.3220471442,0 23.0683144927,-28.3217279613,0 23.0681240559,-28.3213537931,0 23.0679698288,-28.32109496,0 23.0677646399,-28.3207516372,0 23.0676855147,-28.3206094801,0 23.0676546693,-28.3205544949,0 23.0675795674,-28.3203962445,0 23.0674883723,-28.3201803267,0 23.0674441159,-28.3198718727,0 23.0674320459,-28.3196814358,0 23.0673998594,-28.3196398616,0 23.0673985183,-28.319426626,0 23.0674025416,-28.3193099499,0 23.0674146116,-28.3191557229,0 23.0674360693,-28.3190001547,0 23.0674682558,-28.31882447,0 23.0674937367,-28.3186903596,0 23.0675379932,-28.3184570074,0 23.0675755441,-28.3182263374,0 23.0676198006,-28.3179970086,0 23.0676372349,-28.3179044724,0 23.0676801503,-28.3176898956,0 23.0678343773,-28.3169308305,0 23.0679108202,-28.3165083826,0 23.0679671466,-28.3162227273,0 23.0679926276,-28.3161959052,0 23.0680274963,-28.3160041273,0 23.0683976412,-28.3140031993,0 23.0685585737,-28.3131328225,0 23.0686323345,-28.312727809,0 23.0690051615,-28.3107604086,0 23.0690789223,-28.3103714883,0 23.0691204965,-28.3101542294,0 23.0691862106,-28.3098229766,0 23.0691982806,-28.3097532392,0 23.0692264438,-28.3096338809,0 23.0692760646,-28.3094005287,0 23.0693297088,-28.3091376722,0 23.0693860352,-28.3088265359,0 23.069459796,-28.3084416389,0 23.069512099,-28.3081935346,0 23.0695174634,-28.3081667125,0 23.0696609616,-28.3073191345,0 23.0697508156,-28.3068457246,0 23.0699318647,-28.3058935404,0 23.0700056255,-28.3055099845,0 23.0700753629,-28.3051559329,0 23.0703449249,-28.303758502,0 23.0705621839,-28.3026655018,0 23.0706050992,-28.3024348319,0 23.0708290637,-28.3012399077,0 23.0709725618,-28.3005103469,0 23.0712300539,-28.2991544902,0 23.0716726184,-28.2967606187,0 23.0722627044,-28.2937082648,0 23.0724263191,-28.2928526402,0 23.0725698173,-28.2920721173,0 23.072669059,-28.2915705442,0 23.0728206038,-28.290759176,0 23.0729842186,-28.2898579538,0 23.0731116235,-28.2891780138,0 23.0732296407,-28.2885718346,0 23.0733771622,-28.2877524197,0 23.0737298727,-28.2859741151,0 23.0738653243,-28.285240531,0 23.0739752948,-28.2846303284,0 23.0740906298,-28.2840724289,0 23.0741845071,-28.2835896313,0 23.0743159354,-28.282880187,0 23.074427247,-28.2821895182,0 23.0748644471,-28.2799270749,0 23.0749475956,-28.2795636356,0 23.0750213563,-28.2791747153,0 23.075119257,-28.2786825299,0 23.0753177404,-28.2775935531,0 23.0757938325,-28.2751151919,0 23.0758474767,-28.2748188078,0 23.0762645602,-28.2726033032,0 23.0764938891,-28.2713882625,0 23.076582402,-28.2709671557,0 23.0768063664,-28.2697695494,0 23.0771295726,-28.2680730522,0 23.0773428082,-28.2669572532,0 23.0775667727,-28.2657757401,0 23.0779114366,-28.2639424503,0 23.0781139433,-28.2628856599,0 23.0783432722,-28.2616612315,0 23.0787268281,-28.2596750557,0 23.0788689852,-28.2589307427,0 23.0789789557,-28.2583607733,0 23.0793343484,-28.2564134896,0 23.0796079338,-28.2550133765,0 23.0797447264,-28.2542797923,0 23.0799686909,-28.2531143725,0 23.0802047253,-28.251888603,0 23.0804018676,-28.2508599758,0 23.0806204677,-28.2497213781,0 23.0807894468,-28.2487866282,0 23.0810147524,-28.2475984097,0 23.0811676383,-28.2468111813,0 23.0813540518,-28.2457825541,0 23.0814626813,-28.2451803982,0 23.0815391243,-28.2444803417,0 23.081599474,-28.2437963784,0 23.081638366,-28.2430681586,0 23.0816437304,-28.2426416874,0 23.0816490948,-28.2418651879,0 23.0816437304,-28.2408687472,0 23.081638366,-28.2394739985,0 23.0816236138,-28.2388450205,0 23.0816330016,-28.2384453714,0 23.0816330016,-28.2369124889,0 23.0816330016,-28.2352991402,0 23.0816330016,-28.2344073057,0 23.0816195905,-28.2325914502,0 23.0816276371,-28.2317921519,0 23.0816195905,-28.2307139039,0 23.0816236138,-28.2292051613,0 23.0816222727,-28.2277648151,0 23.0816195905,-28.2257437706,0 23.0816155672,-28.2231111825,0 23.081599474,-28.2196122408,0 23.0815967917,-28.2183583081,0 23.0815954506,-28.2173229754,0 23.0816048384,-28.215508461,0 23.0815954506,-28.2145965099,0 23.0815914273,-28.2136470079,0 23.0815900862,-28.2117922604,0 23.0815900862,-28.2117050886,0 23.0815887451,-28.2116299868,0 23.0815914273,-28.2101520896,0 23.081599474,-28.2072767615,0 23.081587404,-28.2053428888,0 23.081587404,-28.1977187097,0 23.0815793574,-28.1954737008,0 23.0815753341,-28.1939274073,0 23.0815753341,-28.192499131,0 23.0815713108,-28.189933598,0 23.0815672874,-28.188136518,0 23.0815632641,-28.186776638,0 23.0815632641,-28.1845235825,0 23.0815552175,-28.1820090115,0 23.0815498531,-28.1775766611,0 23.081548512,-28.1768900156,0 23.081548512,-28.1743097305,0 23.0815404654,-28.1697566807,0 23.0815391243,-28.1695193052,0 23.0815310776,-28.1642889977,0 23.081523031,-28.1610475481,0 23.0815190077,-28.1580810249,0 23.0815149844,-28.1551265717,0 23.0815190077,-28.1535601616,0 23.0815149844,-28.1530545652,0 23.0815149844,-28.152565062,0 23.0815270543,-28.1514425576,0 23.0815270543,-28.1510321796,0 23.0815190077,-28.1506982446,0 23.0815069377,-28.1503401697,0 23.0814962089,-28.1498385966,0 23.0814197659,-28.1489239633,0 23.081394285,-28.1485672295,0 23.0813647807,-28.1482332945,0 23.0813205242,-28.1478001177,0 23.0811260641,-28.1465998292,0 23.0810268223,-28.1460955739,0 23.0808256567,-28.1450387836,0 23.0807223916,-28.1445237994,0 23.0806741118,-28.144325316,0 23.0805359781,-28.1435461342,0 23.080393821,-28.1428205967,0 23.0802999437,-28.1422801316,0 23.0802167952,-28.1418737769,0 23.0801282823,-28.1414392591,0 23.0800746381,-28.1411576271,0 23.0800102651,-28.140847832,0 23.0799002945,-28.1402483582,0 23.0798171461,-28.1397789717,0 23.0797192454,-28.139333725,0 23.0795784295,-28.1385813653,0 23.0793383718,-28.1372925639,0 23.0790942907,-28.1360654533,0 23.0788944662,-28.1350287795,0 23.0787791312,-28.1344467402,0 23.0785538256,-28.1332504749,0 23.0783526599,-28.1322218478,0 23.0782078207,-28.1314855814,0 23.0780240893,-28.130518645,0 23.0778416991,-28.1295624375,0 23.0774514377,-28.1275373697,0 23.0771456659,-28.1259481609,0 23.0767406523,-28.1238412857,0 23.0765528977,-28.122870326,0 23.0763624609,-28.1218443811,0 23.0761693418,-28.1208720803,0 23.0759520829,-28.1197696924,0 23.0756650865,-28.1182555854,0 23.0755242705,-28.1174656749,0 23.0753754079,-28.1167159975,0 23.0748818815,-28.1140914559,0 23.0745063722,-28.1121750176,0 23.0743266642,-28.1112603843,0 23.074259609,-28.110922426,0 23.0740369856,-28.1098294258,0 23.0738022923,-28.1085862219,0 23.0737446249,-28.1082777679,0 23.0734844506,-28.106880337,0 23.0731907487,-28.105315268,0 23.0730807781,-28.1047385931,0 23.0727548897,-28.1030783057,0 23.0726127326,-28.1023527682,0 23.0725724995,-28.102106005,0 23.0724410713,-28.1014113128,0 23.0722586811,-28.1004336476,0 23.0719126761,-28.0986566842,0 23.071872443,-28.0984555185,0 23.0718134344,-28.0981430411,0 23.0714701116,-28.0963996053,0 23.0713386834,-28.0957223475,0 23.0710476637,-28.0941398442,0 23.0708934367,-28.093316406,0 23.0704964697,-28.0913315713,0 23.0701960623,-28.0896914005,0 23.0701692402,-28.089555949,0 23.069922477,-28.0883301795,0 23.0698232353,-28.0878178775,0 23.0697052181,-28.0871902406,0 23.0696167052,-28.0867382884,0 23.0695188046,-28.086156249,0 23.0694973469,-28.0860543251,0 23.0694705248,-28.0859202147,0 23.0692760646,-28.0849304795,0 23.0690668523,-28.0838415027,0 23.0689005554,-28.0829925835,0 23.0688039958,-28.0824454129,0 23.0686470866,-28.0816689134,0 23.0683882535,-28.0802540481,0 23.0681978166,-28.0792562664,0 23.0679671466,-28.0780519545,0 23.0676332116,-28.0763863027,0 23.0675728619,-28.0760523677,0 23.0674293637,-28.0753295124,0 23.0672831833,-28.0746173859,0 23.0672027171,-28.074196279,0 23.0670551956,-28.073374182,0 23.0665884912,-28.0709306896,0 23.0662505329,-28.0691309273,0 23.066111058,-28.068446964,0 23.0659621954,-28.0676664412,0 23.0658535659,-28.0671085417,0 23.0655317008,-28.0654643476,0 23.0654163659,-28.064866215,0 23.0653519928,-28.064506799,0 23.065212518,-28.0637651682,0 23.062954098,-28.0519996583,0 23.0621963739,-28.0480286479,0 23.0617041886,-28.0454564095,0 23.0611033738,-28.0423276126,0 23.0606554449,-28.0400142074,0 23.0603711307,-28.0385269225,0 23.0602531135,-28.0379515886,0 23.060092181,-28.0373480916,0 23.0599446595,-28.0369363725,0 23.059797138,-28.0365903676,0 23.0596415699,-28.0362778902,0 23.0594618618,-28.0359439552,0 23.0592794716,-28.0356301367,0 23.0590327084,-28.0352720618,0 23.0588261783,-28.0349850655,0 23.0585123599,-28.0346229672,0 23.0582307279,-28.034325242,0 23.0578364432,-28.0339081585,0 23.056935221,-28.0329398811,0 23.0568856001,-28.0328862369,0 23.0567850173,-28.0327789485,0 23.0561251938,-28.0320708454,0 23.0554197729,-28.0312876403,0 23.0550871789,-28.0308920145,0 23.0547089875,-28.0303904414,0 23.0541457236,-28.029537499,0 23.0538855493,-28.0290909111,0 23.0536173284,-28.0285289884,0 23.0534335971,-28.0280770361,0 23.0533061922,-28.0277618766,0 23.0531640351,-28.0273059011,0 23.0528314412,-28.0262236297,0 23.0510424078,-28.0203415453,0 23.0490709841,-28.013792932,0 23.0470432341,-28.0070954561,0 23.0464799702,-28.0052125454,0 23.0460293591,-28.0037802458,0 23.0453950167,-28.0016063154,0 23.0440096557,-27.9970277846,0 23.0437360704,-27.9961641133,0 23.0430588126,-27.9938922822,0 23.0424740911,-27.9919557273,0 23.0417391658,-27.9895605147,0 23.03930372,-27.9815071821,0 23.0390381813,-27.9806247354,0 23.0380833149,-27.9774409533,0 23.0377453566,-27.9763385653,0 23.0369460583,-27.9736858606,0 23.0365276337,-27.972304523,0 23.0363211036,-27.9716044664,0 23.0359241366,-27.9703009129,0 23.0352723598,-27.9681377113,0 23.0345964432,-27.9659637809,0 23.034427464,-27.9653991759,0 23.0342289805,-27.9646964371,0 23.0340653658,-27.964181453,0 23.0338668823,-27.9636114836,0 23.033542335,-27.9628175497,0 23.033182919,-27.9620879889,0 23.0329576135,-27.9616735876,0 23.0325767398,-27.9610808194,0 23.0321127176,-27.9604223371,0 23.0315440893,-27.9597142339,0 23.0310130119,-27.9591308534,0 23.0305758119,-27.95868963,0 23.0300205946,-27.9581692815,0 23.0295458436,-27.9577682912,0 23.0290254951,-27.9573780298,0 23.0286446214,-27.9571071267,0 23.026868999,-27.955904156,0 23.025495708,-27.9549747705,0 23.0231246352,-27.9533708096,0 23.021568954,-27.952324748,0 23.0211612582,-27.9520471394,0 23.0195599794,-27.9509595037,0 23.017591238,-27.9496277869,0 23.0165156722,-27.9488955438,0 23.0151611567,-27.9479782283,0 23.0138871074,-27.9471158981,0 23.0119022727,-27.9457707703,0 23.0103358626,-27.9447166622,0 23.0087721348,-27.9436518252,0 23.0077770352,-27.9429839551,0 23.0058136582,-27.9416495562,0 23.0045047402,-27.9407711327,0 23.0030912161,-27.9398109019,0 23.0013477802,-27.9386293888,0 22.9996459186,-27.93747738,0 22.9993455112,-27.937272191,0 22.9952511191,-27.9345014691,0 22.9897901416,-27.930804044,0 22.9871374369,-27.9290029407,0 22.9855924845,-27.9279622436,0 22.9839965701,-27.9268866777,0 22.9822933674,-27.9257118702,0 22.9807725549,-27.9246845841,0 22.9795172811,-27.9238530993,0 22.9770308733,-27.9221512377,0 22.9753249884,-27.9209898412,0 22.9725676775,-27.9191324115,0 22.9716959596,-27.91853562,0 22.9679703712,-27.9159928858,0 22.9659613967,-27.9146437347,0 22.9653552175,-27.9142387211,0 22.9642260075,-27.913454175,0 22.9637673497,-27.9130840302,0 22.9633140564,-27.91267097,0 22.9628312588,-27.9121613503,0 22.9624503851,-27.9116718471,0 22.9621821642,-27.9112869501,0 22.9619595408,-27.9109369218,0 22.9616242647,-27.9102677107,0 22.9614257812,-27.9098157585,0 22.961280942,-27.909398675,0 22.9611548781,-27.9089306295,0 22.9610154033,-27.9082560539,0 22.960948348,-27.9076445103,0 22.9609242082,-27.9072153568,0 22.9609510303,-27.9065917432,0 22.9610288143,-27.9060177505,0 22.9610958695,-27.9056556523,0 22.9613801837,-27.9043655097,0 22.9618924856,-27.9021687806,0 22.962077558,-27.9013882577,0 22.9623109102,-27.9003770649,0 22.9623833299,-27.9000471532,0 22.9623498023,-27.899980098,0 22.9624356329,-27.8996260464,0 22.9624812305,-27.8994302452,0 22.9625241458,-27.8992787004,0 22.9625737667,-27.8990761936,0 22.9626193643,-27.8988750279,0 22.9626864195,-27.8985732794,0 22.9626005888,-27.8985826671,0 22.9624637961,-27.8985987604,0 22.9622988403,-27.8986269236,0 22.9622545838,-27.8986349702,0 22.9620668292,-27.8986698389,0 22.961820066,-27.8986980021,0 22.9615277052,-27.8987181187,0 22.9612648487,-27.8987275064,0 22.9603824019,-27.8987181187,0 22.9601691663,-27.8987194598,0 22.9595080018,-27.8987127542,0 22.958317101,-27.8987529874,0 22.9581910372,-27.8987623751,0 22.9573997855,-27.8988240659,0 22.9571248591,-27.8988616168,0 22.956353724,-27.898966223,0 22.956123054,-27.8989984095,0 22.9549174011,-27.8991687298,0 22.9541328549,-27.8992800415,0 22.9508766532,-27.8997386992,0 22.9488542676,-27.9000230134,0 22.9457697272,-27.9004696012,0 22.9452386498,-27.9005500674,0 22.9446217418,-27.9006305337,0 22.9438492656,-27.9007391632,0 22.9430499673,-27.900853157,0 22.9418161511,-27.9010234773,0 22.941301167,-27.901109308,0 22.940748632,-27.9011844099,0 22.9381522536,-27.9015505314,0 22.9374977946,-27.9016444087,0 22.9362586141,-27.9018200934,0 22.9352661967,-27.9019582272,0 22.9340699315,-27.9021339118,0 22.9335603118,-27.902199626,0 22.9333081841,-27.9022331536,0 22.9327771068,-27.9023136199,0 22.9311999679,-27.9025362432,0 22.9296979308,-27.9027441144,0 22.9245641828,-27.9034750164,0 22.9199776053,-27.9041294754,0 22.9164639115,-27.9046270251,0 22.9153266549,-27.9047825933,0 22.9126229882,-27.9051674902,0 22.9098066688,-27.9055657983,0 22.9071137309,-27.9059439898,0 22.906191051,-27.9060821235,0 22.9052093625,-27.9062148929,0 22.9032620788,-27.9064844549,0 22.9009982944,-27.9068116844,0 22.8986687958,-27.9071442783,0 22.8984984756,-27.9071630538,0 22.8976052999,-27.9072837532,0 22.8926928341,-27.907987833,0 22.889187187,-27.9084800184,0 22.886479497,-27.9088555276,0 22.8827565908,-27.9093839228,0 22.8797216713,-27.9098117352,0 22.8769509494,-27.9102127254,0 22.8740045428,-27.9106163979,0 22.8644706309,-27.911965549,0 22.8620861471,-27.9122981429,0 22.8607329726,-27.9124899209,0
            </coordinates>
        </LineString>
        </Placemark>
  </Folder>
        </Document>
    </kml>
    