<?xml version="1.0" encoding="UTF-8"?>
    <kml xmlns="http://www.opengis.net/kml/2.2">
    <Document>
        <name>Colored Path</name>
        <Folder>
            <name>Day 7</name>
            <open>1</open>
            <Style id="blackLine">
            <LineStyle>
                <color>ff000000</color>
                <width>4</width>
            </LineStyle>
            </Style>
            <Style id="redLine">
            <LineStyle>
                <color>ff0000ff</color>
                <width>4</width>
            </LineStyle>
            </Style>
        <Placemark>
        <name>Segment 1 (True)</name>
        <styleUrl>#blackLine</styleUrl>
        <LineString>
            <tessellate>1</tessellate>
            <coordinates>
            17.8890010715,-29.6613197029,0 17.8900149465,-29.6608583629,0 17.8906600177,-29.6618574858,0 17.8909765184,-29.6623469889,0 17.8911522031,-29.6622598171,0 17.8916229308,-29.6620291471,0 17.8919434547,-29.6618708968,0 17.8926770389,-29.6615490317,0 17.8928607702,-29.6614927053,0 17.8930149972,-29.6614511311,0 17.8932979703,-29.6614162624,0 17.8935085237,-29.6614055336,0 17.893743217,-29.6613921225,0 17.8942662477,-29.6614015102,0 17.8944204748,-29.6614122391,0 17.8953713179,-29.6614699066,0 17.8955630958,-29.661488682,0 17.8956489265,-29.6614980698,0 17.8959184885,-29.6615248919,0 17.8976900876,-29.6617072821,0 17.8978966177,-29.6617287397,0 17.8984813392,-29.6617877483,0 17.8984960914,-29.6624100208,0 17.8985095024,-29.6626460552,0 17.8985282779,-29.6629478037,0 17.8985323012,-29.6630805731,0 17.8985738754,-29.6644726396,0 17.8985805809,-29.6648387611,0 17.8985591233,-29.6652062237,0 17.8983794153,-29.6652182937,0 17.8982613981,-29.6652437747,0 17.898170203,-29.6652746201,0 17.8972931206,-29.6655160189,0 17.8964938223,-29.66573596,0 17.8965340555,-29.6661758423,0 17.8967030346,-29.6672178805,0 17.896759361,-29.6676443517,0 17.8968156874,-29.6679072082,0 17.8969363868,-29.6687816083,0 17.8969685733,-29.6691249311,0 17.8969591856,-29.6697337925,0 17.8969497979,-29.6698786318,0 17.8968505561,-29.6705102921,0 17.8968451917,-29.6705907583,0 17.8968371451,-29.6708643436,0 17.8968317807,-29.6713203192,0 17.8968317807,-29.6713390946,0 17.8968290985,-29.6716462076,0 17.8968277574,-29.6718621254,0 17.8968398273,-29.6721813083,0 17.8968720138,-29.6725098789,0 17.8969283402,-29.6728532016,0 17.8969578445,-29.6730355918,0 17.8970731795,-29.6736270189,0 17.8971214592,-29.6738147736,0 17.8971590102,-29.6739663184,0 17.8972689807,-29.6743002534,0 17.8973588347,-29.6745188534,0 17.8974835575,-29.6748206019,0 17.8977034986,-29.6752202511,0 17.8989386559,-29.6772345901,0 17.9003401101,-29.6794876456,0 17.9004541039,-29.6796713769,0 17.9009597003,-29.6805109084,0 17.9011930525,-29.6809883416,0 17.9013794661,-29.6814456582,0 17.9015511274,-29.6819753945,0 17.9016852379,-29.6824622154,0 17.901737541,-29.6827156842,0 17.9017804563,-29.6830067039,0 17.9018354416,-29.6835337579,0 17.9018448293,-29.6842257679,0 17.9017978907,-29.6848319471,0 17.9017214477,-29.6854327619,0 17.9016302526,-29.6859061718,0 17.9015497863,-29.6862213314,0 17.901378125,-29.6867336333,0 17.900865823,-29.688064009,0 17.899594456,-29.6915401518,0 17.899043262,-29.6930488944,0 17.897259593,-29.6978272498,0 17.8966681659,-29.6993842721,0 17.8963328898,-29.7001124918,0 17.8960673511,-29.7006744146,0 17.8956730664,-29.7013744712,0 17.8954464197,-29.7017674148,0 17.8951513767,-29.7021912038,0 17.8947772086,-29.7026847303,0 17.8944580257,-29.7030481696,0 17.8942152858,-29.7033244371,0 17.8934173286,-29.7041626275,0 17.8912702203,-29.7061032057,0 17.8860278428,-29.7108319402,0 17.8845781088,-29.7121301293,0 17.8831619024,-29.7133934498,0 17.883143127,-29.713409543,0 17.8823585808,-29.7141109407,0 17.8803536296,-29.7159053385,0 17.8757965565,-29.7199983895,0 17.8719060123,-29.72349599,0 17.8690011799,-29.7261232138,0 17.8673878312,-29.7275796533,0 17.8658562899,-29.7289609909,0 17.8640136123,-29.7306199372,0 17.860674262,-29.7336038947,0 17.8575226665,-29.7364912927,0 17.8569312394,-29.7370424867,0 17.8560970724,-29.7379276156,0 17.8559750319,-29.7380577028,0 17.8555217385,-29.738560617,0 17.8550590575,-29.7390916944,0 17.854911536,-29.7392740846,0 17.8547237813,-29.7395060956,0 17.8543885052,-29.739959389,0 17.8538279235,-29.7407077253,0 17.852152884,-29.7430814803,0 17.8480826318,-29.7489126027,0 17.8468354046,-29.750700295,0 17.8468085825,-29.7507378459,0 17.8467777371,-29.7507847846,0 17.8462319076,-29.7515907884,0 17.8451952338,-29.7531196475,0 17.8433793783,-29.7557066381,0 17.8429247439,-29.7563530505,0 17.8423789144,-29.7571402788,0 17.8412953019,-29.7586745024,0 17.8352442384,-29.7672736645,0 17.8349103034,-29.7677484155,0 17.8345401585,-29.768333137,0 17.8341820836,-29.7690144181,0 17.833943367,-29.769552201,0 17.8337059915,-29.7702388465,0 17.8335678577,-29.7708584368,0 17.8334726393,-29.7715732455,0 17.8334806859,-29.7803346813,0 17.8335624933,-29.7814169526,0 17.8335893154,-29.7815752029,0 17.8338964283,-29.7833709419,0 17.8341177106,-29.7842533886,0 17.8413100541,-29.8050029576,0 17.84372136,-29.8119579256,0 17.8442417085,-29.8130348325,0 17.8449417651,-29.8141372204,0 17.8485788405,-29.8184609413,0 17.8489677608,-29.8189853132,0 17.8494827449,-29.8198248446,0 17.8499548137,-29.8206670582,0 17.8502109647,-29.8213148117,0 17.8503222764,-29.8215790093,0 17.8505945206,-29.8223273456,0 17.8507232666,-29.8228517175,0 17.8508265316,-29.8232741654,0 17.8508868814,-29.8236081004,0 17.8509753942,-29.8243148625,0 17.8509995341,-29.8248432577,0 17.851023674,-29.8251999915,0 17.8510290384,-29.8255339265,0 17.8510370851,-29.8257216811,0 17.8510303795,-29.8265759647,0 17.8510022163,-29.8279505968,0 17.8510035574,-29.8296792805,0 17.8509968519,-29.8303739727,0 17.8510008752,-29.8316466808,0 17.8510035574,-29.8322796822,0 17.8509686887,-29.8351791501,0 17.8509928286,-29.8355130851,0 17.8509928286,-29.8357518017,0 17.8510692716,-29.8363780975,0 17.8512127697,-29.8369963467,0 17.8514394164,-29.8376910388,0 17.8517344594,-29.8383629322,0 17.8520455956,-29.8389329016,0 17.8525149822,-29.8396356404,0 17.8530018032,-29.8402176797,0 17.8534470499,-29.8406669497,0 17.854706347,-29.8417827487,0 17.8553259373,-29.8423272371,0 17.856040746,-29.8429468274,0 17.8576272726,-29.8443362117,0 17.8592701256,-29.8457349837,0 17.8618879616,-29.8480390012,0 17.863984108,-29.8499031365,0 17.8702779114,-29.8553963006,0 17.8708679974,-29.8560212553,0 17.8712072968,-29.8564249277,0 17.871581465,-29.8569425941,0 17.871812135,-29.8573569953,0 17.8720374405,-29.8577928543,0 17.87214607,-29.8580114543,0 17.8725135326,-29.858956933,0 17.8731331229,-29.8607754707,0 17.873800993,-29.8627696931,0 17.8746928275,-29.8653768003,0 17.874802798,-29.8657013476,0 17.8787228465,-29.8772214353,0 17.8790286183,-29.8780918121,0 17.8791171312,-29.8784324527,0 17.8792673349,-29.8790922761,0 17.8793276846,-29.8796233535,0 17.8793692589,-29.8799706995,0 17.8793558478,-29.8806922138,0 17.8793343902,-29.8809510469,0 17.8792740405,-29.8815022409,0 17.8792284429,-29.8817168176,0 17.8791439533,-29.8821218312,0 17.8788998723,-29.8828701675,0 17.8787013888,-29.8833476007,0 17.8784090281,-29.8838987947,0 17.8777424991,-29.8853753507,0 17.8759454191,-29.8891948164,0 17.8750535846,-29.8910871148,0 17.8747746348,-29.8916785419,0 17.8741550446,-29.8930196464,0 17.8740115464,-29.8933039606,0 17.8737875819,-29.8937478662,0 17.873365134,-29.8949199915,0 17.8731411695,-29.895940572,0 17.8730526567,-29.897069782,0 17.8731478751,-29.8980166018,0 17.8740504384,-29.9030926824,0 17.8747478127,-29.9070087075,0 17.8749369085,-29.9080507457,0 17.8749650717,-29.9082063138,0 17.8750737011,-29.9088808894,0 17.875225246,-29.9097110331,0 17.8753580153,-29.9104352295,0 17.8757281601,-29.9115630984,0 17.8759253025,-29.9120660126,0 17.8761090338,-29.9124884605,0 17.8765515983,-29.9133735895,0 17.8771752119,-29.9144478142,0 17.8782574832,-29.9158801138,0 17.8837265074,-29.9227130413,0 17.8840000927,-29.9230509996,0 17.8841020167,-29.9231784046,0 17.8847269714,-29.9239522219,0 17.8854994476,-29.9250116944,0 17.8861498833,-29.9258847535,0 17.886659503,-29.926661253,0 17.8874212503,-29.9279017746,0 17.8880770504,-29.9290296435,0 17.8884096444,-29.9296022952,0 17.8890828788,-29.930921942,0 17.889777571,-29.9323998392,0 17.8904722631,-29.9338428676,0 17.8961840272,-29.9458028376,0 17.8967137635,-29.9469669163,0 17.896939069,-29.9475382268,0 17.8971616924,-29.9482154846,0 17.8976404667,-29.9496692419,0 17.8978992999,-29.9506697059,0 17.8982050717,-29.9519222975,0 17.8985792398,-29.9535423517,0 17.8990700841,-29.9555848539,0 17.8996963799,-29.9578888714,0 17.9003709555,-29.9595960975,0 17.9028064013,-29.964774102,0 17.9033656418,-29.9660535157,0 17.903637886,-29.9669386446,0 17.9037666321,-29.9675649405,0 17.9038350284,-29.9685385823,0 17.9037867486,-29.9693070352,0 17.9036512971,-29.9701787531,0 17.9035359621,-29.970689714,0 17.9033307731,-29.9712610245,0 17.9030115902,-29.9719557166,0 17.9025274515,-29.9728059769,0 17.9020580649,-29.9734121561,0 17.9012279212,-29.9742972851,0 17.9002676904,-29.9750590324,0 17.8991921246,-29.9757134914,0 17.8978174925,-29.9764953554,0 17.8954692185,-29.9778029323,0 17.8937673569,-29.9787631631,0 17.8897923231,-29.9809961021,0 17.8891526163,-29.9813555181,0 17.8886014223,-29.9816653132,0 17.8787443042,-29.9872027338,0 17.8777103126,-29.9879390001,0 17.8768721223,-29.9887959659,0 17.8764550388,-29.9893726408,0 17.8761573136,-29.9898648262,0 17.8758381307,-29.9905045331,0 17.8756637871,-29.9910007417,0 17.8754907846,-29.9916230142,0 17.8754344583,-29.9920119345,0 17.8754210472,-29.9920991063,0 17.875404954,-29.9922801554,0 17.8753821552,-29.9926503003,0 17.8753875196,-29.9930942059,0 17.8754250705,-29.9935917556,0 17.8754371405,-29.9937473238,0 17.8754398227,-29.9938063323,0 17.8754492104,-29.9939216673,0 17.8754720092,-29.9941939116,0 17.8756664693,-29.9969123304,0 17.8757362068,-29.9976217747,0 17.8758059442,-29.9984653294,0 17.8760017455,-29.9999190867,0 17.8762055933,-30.001116693,0 17.8763008118,-30.0016477704,0 17.876547575,-30.0028333068,0 17.8770209849,-30.0043085217,0 17.8774246573,-30.0053398311,0 17.8802651167,-30.0118334591,0 17.8806070983,-30.0127494335,0 17.8807640076,-30.0134950876,0 17.8807935119,-30.0138960779,0 17.8808109462,-30.0142273307,0 17.8807935119,-30.0148616731,0 17.8807117045,-30.0152640045,0 17.8806191683,-30.0157172978,0 17.8805306554,-30.0160190463,0 17.8801739216,-30.0173105299,0 17.8800921142,-30.0176511705,0 17.8800183535,-30.0183324516,0 17.8800183535,-30.0187294185,0 17.8800183535,-30.0191693008,0 17.8801216185,-30.0199270248,0 17.8802610934,-30.02045542,0 17.8805615008,-30.0212238729,0 17.880692929,-30.0214451551,0 17.8811743855,-30.0222632289,0 17.8820809722,-30.0233615935,0 17.8845204413,-30.0261832774,0 17.8868231177,-30.0288467109,0 17.8873085976,-30.0295414031,0 17.8875432909,-30.0299490988,0 17.8878624737,-30.0306357443,0 17.8881186247,-30.0314739347,0 17.8882004321,-30.031979531,0 17.8882299364,-30.0326018035,0 17.8881829977,-30.0337712467,0 17.888148129,-30.0346858799,0 17.8880918026,-30.0359264016,0 17.888122648,-30.0371897221,0 17.8883197904,-30.0385764241,0 17.8883264959,-30.0386233628,0 17.8886698186,-30.0399403274,0 17.8891177475,-30.0411352515,0 17.8896340728,-30.0422912836,0 17.8944097459,-30.0530080497,0 17.8946498036,-30.0535458326,0 17.8950159252,-30.0543679297,0 17.8975197673,-30.0599871576,0 17.8981219232,-30.0615267456,0 17.8983767331,-30.0623086095,0 17.8985752165,-30.0630797446,0 17.8987026215,-30.0635451078,0 17.8988608718,-30.0642371178,0 17.9008094966,-30.0736315548,0 17.9010361433,-30.0747285783,0 17.9012989998,-30.0757746398,0 17.9014264047,-30.0763741136,0 17.9019454122,-30.0785440207,0 17.903073281,-30.0820268691,0 17.9041019082,-30.0850148499,0 17.9046732187,-30.0866483152,0 17.9052498937,-30.0883729756,0 17.9098673165,-30.1017196476,0 17.9103139043,-30.1030164957,0 17.9117394984,-30.1071645319,0 17.9120533168,-30.1079303026,0 17.9127949476,-30.1094216108,0 17.9139134288,-30.1111570001,0 17.9141883552,-30.1115365326,0 17.9145920277,-30.1120635867,0 17.9155991971,-30.11320889,0 17.9178643227,-30.1154445112,0 17.9191571474,-30.1168620586,0 17.9201294482,-30.1180315018,0 17.9205344617,-30.1185263693,0 17.9216301441,-30.1200847328,0 17.9220727086,-30.1207646728,0 17.9229645431,-30.1222251356,0 17.9279078543,-30.1304273307,0 17.9286535084,-30.1316651702,0 17.9292167723,-30.1328198612,0 17.9294018447,-30.1335118711,0 17.9294903576,-30.1340818405,0 17.9295359552,-30.1347564161,0 17.9295010865,-30.1352982223,0 17.9294380546,-30.1358735561,0 17.9293160141,-30.1363684237,0 17.9291926324,-30.1368512213,0 17.9279601574,-30.141710043,0 17.927954793,-30.1417274773,0 17.9274773598,-30.1435312629,0 17.9270173609,-30.1454396546,0 17.9269744456,-30.1457762718,0 17.9270026088,-30.1462268829,0 17.9271259904,-30.1467566192,0 17.9271742702,-30.1469524205,0 17.9272440076,-30.1471267641,0 17.9274424911,-30.1474298537,0 17.9275551438,-30.1475706697,0 17.9279212654,-30.1480051875,0 17.9282981157,-30.1483659446,0 17.9286065698,-30.1485496759,0 17.9301247001,-30.1493261755,0 17.9305672646,-30.1496346295,0 17.9309856892,-30.1500892639,0 17.9312431812,-30.1505130529,0 17.9313236475,-30.150629729,0 17.9315382242,-30.151129961,0 17.9315905273,-30.1514625549,0 17.931625396,-30.1518340409,0 17.9316079617,-30.1523584127,0 17.931510061,-30.1528345048,0 17.931445688,-30.1530276239,0 17.9313410819,-30.1532301307,0 17.9312552512,-30.1533897221,0 17.931189537,-30.1535104215,0 17.9310151935,-30.153759867,0 17.9307644069,-30.154068321,0 17.930328548,-30.1546557248,0 17.9300321639,-30.1551559567,0 17.9298108816,-30.1556186378,0 17.9296888411,-30.1561483741,0 17.9296767712,-30.1565989852,0 17.9297102988,-30.1571314037,0 17.9302695394,-30.1593321562,0 17.9303580523,-30.1599597931,0 17.9303848743,-30.1605914533,0 17.9302936792,-30.1630523801,0 17.9302279651,-30.1643532515,0 17.9300925136,-30.1672875881,0 17.9297961295,-30.1737463474,0 17.9297585785,-30.1747588813,0 17.9297237098,-30.1755273342,0 17.929648608,-30.1761442423,0 17.9296070337,-30.1765573025,0 17.9294876754,-30.17706424,0 17.9294742644,-30.1771205664,0 17.9292435944,-30.1777522266,0 17.9290263355,-30.1783436537,0 17.9279561341,-30.1807925105,0 17.9276020825,-30.1817178726,0 17.9273150861,-30.1828832924,0 17.9272627831,-30.1840741932,0 17.9273164272,-30.1848480105,0 17.9274465144,-30.1855655015,0 17.9293602705,-30.1939769089,0 17.9304935038,-30.1990328729,0 17.9306088388,-30.1995290816,0 17.9309736192,-30.2011142671,0 17.931072861,-30.2015943825,0 17.9311157763,-30.2017834783,0 17.9312713444,-30.2024754882,0 17.9313129187,-30.2027061582,0 17.9313665628,-30.2029958367,0 17.9313893616,-30.2033981681,0 17.9313598573,-30.2039037645,0 17.9313477874,-30.2039895952,0 17.931330353,-30.2041907609,0 17.9312901199,-30.2044053376,0 17.9312619567,-30.2045930922,0 17.9312311113,-30.2047258615,0 17.9311613739,-30.2048961818,0 17.9309937358,-30.2053977549,0 17.9307845235,-30.2058416605,0 17.9307764769,-30.2058537304,0 17.9304170609,-30.2064411342,0 17.9298685491,-30.2070888877,0 17.9297183454,-30.2072189748,0 17.9296378791,-30.2073195577,0 17.9293763638,-30.2075234056,0 17.9289861023,-30.2078144252,0 17.9288452864,-30.2078922093,0 17.928571701,-30.2080692351,0 17.928263247,-30.2082127333,0 17.9281197488,-30.2082918584,0 17.9280379415,-30.2083280683,0 17.9276584089,-30.2085077763,0 17.9275739193,-30.2085480094,0 17.9259619117,-30.209235996,0 17.9256467521,-30.2093741298,0 17.9256346822,-30.2093794942,0 17.9254965484,-30.2094371617,0 17.9215161502,-30.2111189067,0 17.9209569097,-30.2113616467,0 17.9205787182,-30.2114823461,0 17.9204338789,-30.2115373313,0 17.9202246666,-30.2115775645,0 17.9198773205,-30.2116647363,0 17.9193811119,-30.2117411792,0 17.9192644358,-30.2117545903,0 17.9187346995,-30.2118015289,0 17.9186502099,-30.2118055522,0 17.9182572663,-30.2118055522,0 17.9179903865,-30.2117787302,0 17.9176108539,-30.2117519081,0 17.9172219336,-30.2117009461,0 17.9151968658,-30.2112409472,0 17.914429754,-30.2111537755,0 17.9137833416,-30.2111765742,0 17.9131087661,-30.2112409472,0 17.9124864936,-30.211404562,0 17.9117408395,-30.2116835117,0 17.9112178087,-30.2119745314,0 17.9106706381,-30.2123755217,0 17.910118103,-30.2129401267,0 17.9083183408,-30.2153755724,0 17.9082030058,-30.2155311406,0 17.907730937,-30.2161708474,0 17.9073192179,-30.2167274058,0 17.9071260989,-30.2169620991,0 17.9068283737,-30.2174046636,0 17.9063335061,-30.218000114,0 17.9060357809,-30.2183300257,0 17.9058654606,-30.2184963226,0 17.9054282606,-30.218898654,0 17.9049105942,-30.2192875743,0 17.9046276212,-30.2194793522,0 17.9044479132,-30.2196201682,0 17.9042172432,-30.2197663486,0 17.9039798677,-30.2199339867,0 17.9026186466,-30.2208700776,0 17.9015484452,-30.2215982974,0 17.9004889727,-30.2222849429,0 17.899377197,-30.2230989933,0 17.8989990056,-30.223454386,0 17.8985457122,-30.2238728106,0 17.8979194164,-30.2245996892,0 17.8974084556,-30.2253855765,0 17.8970369697,-30.2261298895,0 17.8967486322,-30.2269050479,0 17.8955107927,-30.2322104573,0 17.8953364491,-30.2334657311,0 17.8953337669,-30.2337701619,0 17.8953337669,-30.2342583239,0 17.8953458369,-30.2348645031,0 17.8954356909,-30.2383929491,0 17.8954383731,-30.2385082841,0 17.8954437375,-30.2386692166,0 17.8955322504,-30.2413460612,0 17.8955617547,-30.2426496148,0 17.8956314921,-30.2445928752,0 17.8956542909,-30.2452325821,0 17.8956636786,-30.245475322,0 17.8956717253,-30.2459648252,0 17.8956905007,-30.2464006841,0 17.8957079351,-30.2468942106,0 17.8957186639,-30.2474494278,0 17.895770967,-30.2489501238,0 17.8958031535,-30.2502737939,0 17.8958058357,-30.2503985167,0 17.8958755732,-30.2526502311,0 17.8959050775,-30.2538438141,0 17.8960217535,-30.2576552331,0 17.8960740566,-30.2591733634,0 17.8961960971,-30.2630652487,0 17.8962081671,-30.2635332942,0 17.8962256014,-30.2641823888,0 17.8963302076,-30.2675874531,0 17.8963932395,-30.2692504227,0 17.896464318,-30.2720506489,0 17.8965099156,-30.2737954259,0 17.8966493905,-30.2781204879,0 17.8967057168,-30.2798894048,0 17.8967607021,-30.2811433375,0 17.8968009353,-30.2825930715,0 17.8968344629,-30.2837075293,0 17.8968277574,-30.2840213478,0 17.8968814015,-30.2853651345,0 17.8968840837,-30.2859458327,0 17.8969055414,-30.2866458893,0 17.8969095647,-30.2868162096,0 17.8969243169,-30.287450552,0 17.8968639672,-30.2879051864,0 17.8967955709,-30.2884161472,0 17.8966735303,-30.2889579535,0 17.8963516653,-30.2898350358,0 17.8961612284,-30.2903956175,0 17.8957723081,-30.291261971,0 17.8954464197,-30.2922047675,0 17.8954142332,-30.2923107147,0 17.8951902688,-30.2929866314,0 17.8950347006,-30.2935659885,0 17.8950333595,-30.2935726941,0 17.8949032724,-30.2941963077,0 17.894833535,-30.2944993973,0 17.8947651386,-30.2948574722,0 17.8946954012,-30.295317471,0 17.8945559263,-30.2965271473,0 17.8945036232,-30.2974176407,0 17.8942018747,-30.3022228181,0 17.894141525,-30.3031642735,0 17.8940744698,-30.3040681779,0 17.8940221667,-30.3047816455,0 17.8939282894,-30.3065639734,0 17.8938357532,-30.3078393638,0 17.893782109,-30.3083623946,0 17.893768698,-30.3085032105,0 17.8937418759,-30.3087633848,0 17.8937311471,-30.3090342879,0 17.8936426342,-30.3097826242,0 17.8936399519,-30.3098081052,0 17.8935326636,-30.3106892109,0 17.8934280574,-30.3114107251,0 17.8933234513,-30.3122086823,0 17.8930552304,-30.3138032556,0 17.8928634524,-30.3149780631,0 17.8927360475,-30.3157746792,0 17.8926059604,-30.3164921701,0 17.8924557567,-30.3173115849,0 17.8912755847,-30.3245401382,0 17.890484333,-30.3293788433,0 17.8903877735,-30.3299434483,0 17.8902643919,-30.3306730092,0 17.8901785612,-30.3311182559,0 17.8900645673,-30.3318491578,0 17.8897494078,-30.333699882,0 17.8897239268,-30.3338433802,0 17.889701128,-30.3340284526,0 17.889392674,-30.3339935839,0 17.8893215954,-30.333981514,0 17.8892692924,-30.3340043128,0 17.8892411292,-30.3340888023,0 17.8891713917,-30.3343650699,0 17.8891566396,-30.3347754478,0 17.8891311586,-30.3356619179,0 17.8890600801,-30.3361862898,0 17.8890560567,-30.336214453,0 17.8889755905,-30.3366610408,0 17.8888522089,-30.3374429047,0 17.8887046874,-30.3382717073,0 17.8886845708,-30.338421911,0 17.888661772,-30.3385278583,0 17.8884404898,-30.3399413824,0 17.8883519769,-30.3404965997,0 17.8882500529,-30.3411725163,0 17.8881897032,-30.3415493667,0 17.8881347179,-30.3419490159,0 17.8881427646,-30.3421461582,0 17.8880958259,-30.3426598012,0 17.888071686,-30.3429910541,0 17.8880260885,-30.3441108763,0 17.8880609572,-30.3446768224,0 17.8881655633,-30.3453232348,0 17.8882876039,-30.3461158276,0 17.8883264959,-30.3463371098,0 17.8883694112,-30.3465878963,0 17.888597399,-30.3481154144,0 17.8887248039,-30.3490193188,0 17.8889997303,-30.3507211804,0 17.8892733157,-30.3525397182,0 17.8892961144,-30.3526684642,0 17.8894248605,-30.3535079956,0 17.8894463181,-30.3536085784,0 17.8901450336,-30.3543971479,0 17.8901799023,-30.354564786,0 17.8902120888,-30.3548276424,0 17.8902697563,-30.3551106155,0 17.890279144,-30.3551709652,0 17.8903354704,-30.3554297984,0 17.8903515637,-30.3555169702,0 17.8904440999,-30.3557825089,0 17.8905567527,-30.3560493886,0 17.8906291723,-30.3562881052,0 17.890894711,-30.3568768501,0 17.8910113871,-30.3570994735,0 17.8912098706,-30.3574226797,0 17.8913265467,-30.3575956821,0 17.8914660215,-30.3577914834,0 17.8918133676,-30.3582796454,0 17.8931370378,-30.3601451218,0 17.895052135,-30.362842083,0 17.8951634467,-30.3629882634,0 17.895321697,-30.3632122278,0 17.8955040872,-30.3634656966,0 17.8956395388,-30.3636467457,0 17.8957816958,-30.3638492525,0 17.8959359229,-30.3640665114,0 17.8960807621,-30.3642703593,0 17.8961706161,-30.3643964231,0 17.8963382542,-30.3646324575,0 17.8963543475,-30.3646552563,0 17.8965649009,-30.3649355471,0 17.8966788948,-30.3651112318,0 17.8971388936,-30.3657603264,0 17.8972743452,-30.3659749031,0 17.8974714875,-30.3662538528,0 17.8976887465,-30.3665663302,0 17.8979046643,-30.3669029474,0 17.8981178999,-30.3672476113,0 17.8983700275,-30.3677237034,0 17.8986476362,-30.3682266176,0 17.8988461196,-30.3686772287,0 17.8990150988,-30.3690420091,0 17.899209559,-30.369451046,0 17.8993463516,-30.3698694706,0 17.8995193541,-30.3703013062,0 17.8997057676,-30.3708270192,0 17.9000356793,-30.3718301654,0 17.9006177187,-30.3736621141,0 17.9007183015,-30.3739719093,0 17.9008215666,-30.3742924333,0 17.900865823,-30.3744265437,0 17.9008859396,-30.3745016456,0 17.9014894366,-30.3763885796,0 17.9020795226,-30.3782379627,0 17.90237993,-30.3790050745,0 17.9024456441,-30.3791311383,0 17.9026696086,-30.3796246648,0 17.9027366638,-30.3797587752,0 17.9028023779,-30.3798177838,0 17.902880162,-30.3799626231,0 17.9031269252,-30.3803126514,0 17.9031711817,-30.3803756833,0 17.9033911228,-30.3806975484,0 17.9036164284,-30.3809818625,0 17.9038175941,-30.3811588883,0 17.9039463401,-30.3813332319,0 17.9041984677,-30.3815840185,0 17.9045619071,-30.3819018602,0 17.9046678543,-30.3819742799,0 17.9054886103,-30.38263008,0 17.9061631858,-30.3831920028,0 17.9066003859,-30.3835245967,0 17.9072548449,-30.3840556741,0 17.9077363014,-30.3844459355,0 17.90893659,-30.3854195774,0 17.910220027,-30.3864200413,0 17.910452038,-30.3866024315,0 17.910913378,-30.3869698942,0 17.912196815,-30.3880146146,0 17.9126635194,-30.3883686662,0 17.9129773378,-30.3886435926,0 17.9133085907,-30.3889104724,0 17.9140475392,-30.3895555437,0 17.9141843319,-30.389674902,0 17.9144351184,-30.389944464,0 17.9152920842,-30.3908711672,0 17.91614905,-30.3919668496,0 17.9179045558,-30.3942105174,0 17.9192577302,-30.3959405422,0 17.919587642,-30.396309346,0 17.9196614027,-30.3963750601,0 17.9198826849,-30.3965762258,0 17.919934988,-30.3966231644,0 17.9203802347,-30.3969503939,0 17.9204526544,-30.3969785571,0 17.9206256568,-30.3970724344,0 17.9207463562,-30.3971140087,0 17.9209394753,-30.3972119093,0 17.9210467637,-30.3972427547,0 17.9212076962,-30.3973031044,0 17.9214061797,-30.3973567486,0 17.9214182496,-30.3973594308,0 17.9214383662,-30.3973634541,0 17.9218916595,-30.3974626958,0 17.9219828546,-30.3974868357,0 17.9222457111,-30.3975337744,0 17.9226829112,-30.3976142406,0 17.9227888584,-30.3976330161,0 17.9233051836,-30.397760421,0 17.9235881567,-30.397797972,0 17.9238831997,-30.3978838027,0 17.9239703715,-30.3979240358,0 17.9243043065,-30.3980822861,0 17.9244317114,-30.3981412947,0 17.9247133434,-30.3983290493,0 17.924901098,-30.3985060751,0 17.9249453545,-30.3985409439,0 17.9252189398,-30.3988534212,0 17.9253946245,-30.3991162777,0 17.9254496098,-30.3992570937,0 17.9255743325,-30.399479717,0 17.9255931079,-30.3995776176,0 17.9256440699,-30.3998525441,0 17.9256494343,-30.3998860717,0 17.9256641865,-30.4000107944,0 17.9256977141,-30.4003112018,0 17.9257258773,-30.4005593061,0 17.9257795215,-30.4007591307,0 17.9257902503,-30.4007980227,0 17.9258452356,-30.400968343,0 17.9258733988,-30.4010340571,0 17.9259471595,-30.4012003541,0 17.9259873927,-30.4012781382,0 17.9260544479,-30.4014135897,0 17.9261429608,-30.4015906155,0 17.9264138639,-30.4019540548,0 17.9265774786,-30.4020962119,0 17.9266297817,-30.4021310806,0 17.9267907143,-30.4022718966,0 17.9269368947,-30.4023577273,0 17.9270227253,-30.402418077,0 17.9271876812,-30.402507931,0 17.9273821414,-30.4026393592,0 17.9274626076,-30.4026862979,0 17.9278166592,-30.4028874636,0 17.9286588728,-30.4033689201,0 17.9289995134,-30.4036183655,0 17.9293079674,-30.4039818048,0 17.9293817282,-30.4040622711,0 17.9295386374,-30.4042835534,0 17.9296258092,-30.40452227,0 17.9296673834,-30.4046925902,0 17.929712981,-30.4048494995,0 17.9297545552,-30.4052692652,0 17.9296781123,-30.4058164358,0 17.9295614362,-30.4061383009,0 17.9294098914,-30.4064293206,0 17.9293052852,-30.4065982997,0 17.9290544987,-30.4070650041,0 17.9289673269,-30.4072567821,0 17.9288452864,-30.4076711833,0 17.9287286103,-30.4084932804,0 17.928455025,-30.4103520513,0 17.9284201562,-30.4109528661,0 17.9283852875,-30.411529541,0 17.9283839464,-30.4115670919,0 17.928378582,-30.411914438,0 17.9284121096,-30.4121558368,0 17.9284456372,-30.4123020172,0 17.9284724593,-30.4123878479,0 17.9286910594,-30.4128599167,0 17.9287326336,-30.412914902,0 17.9289619625,-30.4132542014,0 17.9292851686,-30.4135586321,0 17.929636538,-30.413838923,0 17.9300133884,-30.4142265022,0 17.9301394522,-30.4143324494,0 17.9302896559,-30.4145134985,0 17.9303245246,-30.414571166,0 17.9304800928,-30.4148380458,0 17.9304908216,-30.414866209,0 17.9305793345,-30.4150955379,0 17.9306128621,-30.4151813686,0 17.930687964,-30.4154066741,0 17.9307281971,-30.415610522,0 17.930740267,-30.4158090055,0 17.9307872057,-30.4165318608,0 17.9307979345,-30.4167062044,0 17.9308086634,-30.4168832302,0 17.9308274388,-30.4169596732,0 17.9308569431,-30.4171769321,0 17.9309025407,-30.4173834622,0 17.9309387505,-30.4175403714,0 17.9310943186,-30.4179185629,0 17.931252569,-30.4182229936,0 17.9312860966,-30.4182672501,0 17.9313692451,-30.4184214771,0 17.9315382242,-30.4186186194,0 17.9315972328,-30.4187004268,0 17.9338301718,-30.4212270677,0 17.9349191487,-30.4224662483,0 17.9360845685,-30.4237832129,0 17.9362387955,-30.4239870608,0 17.9365110397,-30.4243464768,0 17.9366156459,-30.4244832695,0 17.9367135465,-30.4246120155,0 17.9370059073,-30.425017029,0 17.9371722043,-30.4252946377,0 17.9373572767,-30.4256527126,0 17.9375812411,-30.4261288047,0 17.9376335442,-30.4262307286,0 17.9409112036,-30.4338334501,0 17.9410533607,-30.4341928661,0 17.9413443804,-30.4349304736,0 17.9414315522,-30.4352040589,0 17.9415884614,-30.4357405007,0 17.9417292774,-30.4363171756,0 17.9418928921,-30.4372385144,0 17.9421141744,-30.4384750128,0 17.9422241449,-30.4391629994,0 17.9424387217,-30.4403834045,0 17.9427149892,-30.4419498146,0 17.9430113733,-30.44354707,0 17.9431079328,-30.4442042112,0 17.9431588948,-30.4444080591,0 17.9432420433,-30.4449163377,0 17.9433976114,-30.4456941783,0 17.9435330629,-30.4463687539,0 17.9435893893,-30.4465645552,0 17.9436564445,-30.4468971491,0 17.9436819255,-30.4469883442,0 17.9438468814,-30.4477031529,0 17.9439863563,-30.4483240843,0 17.9441781342,-30.4490925372,0 17.9442572594,-30.4493956268,0 17.9443055391,-30.4496772587,0 17.9443900287,-30.4499790072,0 17.9445952177,-30.4508453608,0 17.9447735846,-30.4515722394,0 17.9449854791,-30.4525056481,0 17.9450914264,-30.4529857635,0 17.9457056522,-30.4555593431,0 17.9457995296,-30.4559656978,0 17.9461039603,-30.4571834207,0 17.946203202,-30.4575924575,0 17.9462756217,-30.4578647017,0 17.9463279247,-30.4580819607,0 17.9463788867,-30.4582898319,0 17.9464754462,-30.4585929215,0 17.9466967285,-30.4591937363,0 17.9469515383,-30.4596483707,0 17.9469770193,-30.4597167671,0 17.9471553862,-30.4600480199,0 17.9472345114,-30.4601995647,0 17.9472948611,-30.4602867365,0 17.9474665225,-30.4607199132,0 17.9475590587,-30.4609532654,0 17.9476247728,-30.4613368213,0 17.9476703703,-30.4616010189,0 17.9476878047,-30.4622071981,0 17.947601974,-30.4625853896,0 17.9472841322,-30.4642832279,0 17.9472345114,-30.4651281238,0 17.9472479224,-30.4653668404,0 17.9472278059,-30.466068238,0 17.9472224414,-30.4667629302,0 17.9472224414,-30.4671397805,0 17.9471741617,-30.4683172703,0 17.9471164942,-30.4724143445,0 17.9471164942,-30.4736213386,0 17.9471164942,-30.4736280441,0 17.9470990598,-30.4743294418,0 17.94706285,-30.4753500223,0 17.9470427334,-30.4759776592,0 17.9470400512,-30.47671929,0 17.9470199347,-30.4775199294,0 17.9469823837,-30.4787684977,0 17.9468777776,-30.4795610905,0 17.9467731714,-30.4802839458,0 17.9466672242,-30.4807922244,0 17.9465049505,-30.4813219607,0 17.9462246597,-30.4821842909,0 17.945998013,-30.4827971756,0 17.9456707835,-30.4836246371,0 17.9449479282,-30.4852983356,0 17.9442733526,-30.4868835211,0 17.9441137612,-30.4872643948,0 17.9436966777,-30.4882970452,0 17.943520993,-30.4886524379,0 17.9433654249,-30.489064157,0 17.9432326555,-30.4893685877,0 17.943097204,-30.4896877706,0 17.9427216947,-30.4907418787,0 17.9426077008,-30.4911884665,0 17.942532599,-30.4916042089,0 17.9424789548,-30.4918697476,0 17.9423139989,-30.492656976,0 17.9422147572,-30.4931464791,0 17.9421155155,-30.4935823381,0 17.9419961572,-30.4940785468,0 17.9419693351,-30.4942072928,0 17.9418969154,-30.49455598,0 17.9417359829,-30.4952037334,0 17.9416528344,-30.495634228,0 17.9413940012,-30.4968506098,0 17.9413484037,-30.4970557988,0 17.9412934184,-30.4973199964,0 17.9412424564,-30.4976056516,0 17.9411163926,-30.4981152713,0 17.9410922527,-30.4982252419,0 17.9410895705,-30.498239994,0 17.9409246147,-30.4990272224,0 17.9408374429,-30.4993759096,0 17.9406456649,-30.5002382398,0 17.9403184354,-30.5017188191,0 17.9402473569,-30.5021761358,0 17.940197736,-30.5025140941,0 17.9401776195,-30.5028118193,0 17.9400783777,-30.5037251115,0 17.9400649667,-30.5039557815,0 17.9400649667,-30.5041354895,0 17.9400408268,-30.5048798025,0 17.9400408268,-30.5049093068,0 17.9400461912,-30.5053786933,0 17.9400515556,-30.50583601,0 17.9400756955,-30.5068847537,0 17.9401105642,-30.507619679,0 17.9402312636,-30.5176953971,0 17.9403224587,-30.5187763274,0 17.9404136539,-30.5193154514,0 17.9406872392,-30.5204379559,0 17.9407663643,-30.5206216872,0 17.9408615828,-30.5209475756,0 17.9409635067,-30.5212385952,0 17.9414986074,-30.5224080384,0 17.9418070614,-30.5229780078,0 17.9421973228,-30.5236954987,0 17.9426197708,-30.5244921148,0 17.9427833855,-30.5247737467,0 17.9463507235,-30.5313451588,0 17.9466846585,-30.5319593847,0 17.9473176599,-30.5331261456,0 17.9473270476,-30.53314358,0 17.9473417997,-30.5331730843,0 17.9474960268,-30.533516407,0 17.9475483298,-30.5336344242,0 17.947614044,-30.5338074267,0 17.9476810992,-30.5339589715,0 17.9477669299,-30.534209758,0 17.947858125,-30.5345530808,0 17.947922498,-30.5347850919,0 17.9480713606,-30.535325557,0 17.948770076,-30.5378682911,0 17.9487995803,-30.5379340053,0 17.9489578307,-30.5383390188,0 17.9490664601,-30.5385173857,0 17.9490959644,-30.5385965109,0 17.9492408037,-30.5387923121,0 17.9492689669,-30.5388352275,0 17.9493615031,-30.5389733613,0 17.9496055841,-30.5392844975,0 17.9498040676,-30.5395030975,0 17.9500763118,-30.5398008227,0 17.9502680898,-30.5399791896,0 17.9504290223,-30.5401575565,0 17.9510352015,-30.5408267677,0 17.9512658715,-30.5410842597,0 17.9515475035,-30.5413860083,0 17.9519417882,-30.5418325961,0 17.9523548484,-30.5422858894,0 17.9524111748,-30.5423475802,0 17.9526230693,-30.5425930023,0 17.9530723393,-30.543102622,0 17.9532051086,-30.5432085693,0 17.9534626007,-30.5434834957,0 17.953543067,-30.5435451865,0 17.9536476731,-30.5436256528,0 17.9538984597,-30.5437704921,0 17.9540781677,-30.5438737571,0 17.9545408487,-30.5440749228,0 17.9549646378,-30.5441701412,0 17.9552958906,-30.5442331731,0 17.9554957151,-30.5442103744,0 17.9555936158,-30.5442170799,0 17.95609653,-30.5441808701,0 17.9564572871,-30.5441191792,0 17.9570567608,-30.544052124,0 17.9570688307,-30.544052124,0 17.9572083056,-30.5440574884,0 17.95767501,-30.5440749228,0 17.9580894113,-30.5441567302,0 17.9584729671,-30.5442868173,0 17.9590885341,-30.5446247756,0 17.959317863,-30.5448098481,0 17.9594868422,-30.5449908972,0 17.9595163465,-30.5450190604,0 17.9596424103,-30.5451531708,0 17.9597738385,-30.5453382432,0 17.9598382115,-30.5454817414,0 17.9598636925,-30.5455420911,0 17.95993343,-30.5456627905,0 17.9600192606,-30.5459015071,0 17.9600568116,-30.5460222065,0 17.9601453245,-30.546310544,0 17.9602324963,-30.5466082692,0 17.9603303969,-30.546939522,0 17.9604229331,-30.5471178889,0 17.9606080055,-30.5474692583,0 17.9607984424,-30.5477535725,0 17.9608225822,-30.5477844179,0 17.9609714448,-30.5480177701,0 17.9611766338,-30.5482269824,0 17.9612571001,-30.5483114719,0 17.9613147676,-30.5483651161,0 17.961448878,-30.5484724045,0 17.9616071284,-30.5485998094,0 17.9617077112,-30.5486722291,0 17.9618740082,-30.5487929285,0 17.9619826376,-30.5488666892,0 17.9620228708,-30.5488854647,0 17.9623393714,-30.5490678549,0 17.9625177383,-30.5491442978,0 17.9625499249,-30.54915905,0 17.9626478255,-30.5492033064,0 17.9628503323,-30.549287796,0 17.9628637433,-30.5492931604,0 17.9629200697,-30.5493092537,0 17.9631306231,-30.5493682623,0 17.9632405937,-30.5493977666,0 17.9633264244,-30.5494219065,0 17.9634699225,-30.5494621396,0 17.9635477066,-30.5494782329,0 17.9635933042,-30.5494862795,0 17.9637770355,-30.549518466,0 17.9638199508,-30.5495251715,0 17.963848114,-30.5495265126,0 17.9639191926,-30.5495345592,0 17.964039892,-30.5495466292,0 17.9640761018,-30.5495452881,0 17.9642316699,-30.5495667458,0 17.9643242061,-30.5495667458,0 17.9644006491,-30.5495734513,0 17.9644703865,-30.5495707691,0 17.964682281,-30.5495734513,0 17.9647520185,-30.5495774746,0 17.9648458958,-30.5495734513,0 17.9650738835,-30.5495640635,0 17.9652696848,-30.5495466292,0 17.9654306173,-30.5495131016,0 17.9655741155,-30.5494916439,0 17.9657055438,-30.5494594574,0 17.9657846689,-30.5494447052,0 17.9659737647,-30.5493924022,0 17.9660984874,-30.5493588746,0 17.9661521316,-30.5493360758,0 17.9662983119,-30.5492770672,0 17.9663385451,-30.5492609739,0 17.9667891562,-30.5490906537,0 17.9674690962,-30.5488613248,0 17.9676045477,-30.5488331616,0 17.9676997662,-30.5488009751,0 17.968005538,-30.5487594008,0 17.9681409895,-30.5487312376,0 17.9683421552,-30.5487138033,0 17.9683944583,-30.5487044156,0 17.9685607553,-30.5486990511,0 17.9686586559,-30.5486936867,0 17.9688195884,-30.5486856401,0 17.9691146314,-30.5486869812,0 17.9692018032,-30.5487017334,0 17.969275564,-30.5487124622,0 17.9695089161,-30.5487298965,0 17.9698106647,-30.5487768352,0 17.9699769616,-30.5488090217,0 17.970251888,-30.5488559604,0 17.9703752697,-30.5488693714,0 17.9705536366,-30.5489015579,0 17.9706582427,-30.5489216745,0 17.9709707201,-30.5489820242,0 17.9715970159,-30.5490504205,0 17.9719054699,-30.5490960181,0 17.9722474515,-30.5490960181,0 17.9724566638,-30.5490893126,0 17.9726243019,-30.549082607,0 17.9728938639,-30.5490624905,0 17.9730950296,-30.5490021408,0 17.9734048247,-30.5489350855,0 17.9734356701,-30.5489203334,0 17.9736354947,-30.5488318205,0 17.9739359021,-30.5487325788,0 17.9744535685,-30.5484978855,0 17.9746346176,-30.5484241247,0 17.9749377072,-30.5482900143,0 17.9752595723,-30.5481411517,0 17.9756551981,-30.5479842424,0 17.9759797454,-30.5478796363,0 17.9767951369,-30.5477589369,0 17.9770217836,-30.5477589369,0 17.9771760106,-30.5477508903,0 17.9778344929,-30.5477522314,0 17.9778546095,-30.5477562547,0 17.9782381654,-30.5478058755,0 17.9787759483,-30.547939986,0 17.9788443446,-30.547953397,0 17.9815533757,-30.5489686131,0 17.9818685353,-30.5490759015,0 17.9821313918,-30.5491831899,0 17.9822789133,-30.5492180586,0 17.9824411869,-30.5492515862,0 17.9828985035,-30.5493105948,0 17.9831197858,-30.5493454635,0 17.9834698141,-30.549352169,0 17.9837715626,-30.5493320525,0 17.9839324951,-30.5493360758,0 17.9855123162,-30.5491778255,0 17.985984385,-30.5491295457,0 17.98654899,-30.5490624905,0 17.9873375595,-30.548992753,0 17.988063097,-30.5490249395,0 17.9882763326,-30.549069196,0 17.988512367,-30.5491027236,0 17.9888315499,-30.5491831899,0 17.9889710248,-30.5492113531,0 17.989731431,-30.549505055,0 17.9897998273,-30.5495452881,0 17.990192771,-30.549762547,0 17.9904462397,-30.5499328673,0 17.9905642569,-30.5500026047,0 17.9911288619,-30.5504532158,0 17.9912723601,-30.5505672097,0 17.9921977222,-30.5513101816,0 17.9923465848,-30.5514295399,0 17.9928079247,-30.5517996848,0 17.993439585,-30.5524004996,0 17.9938030243,-30.5528430641,0 17.9941731691,-30.5534277856,0 17.9942053556,-30.5534760654,0 17.9943944514,-30.5538368225,0 17.9944615066,-30.5539776385,0 17.9946036637,-30.5543813109,0 17.9947511852,-30.5548922718,0 17.9948182404,-30.5552758276,0 17.994838357,-30.555537343,0 17.9948987067,-30.5559879541,0 17.9949429631,-30.5563808978,0 17.9949657619,-30.5565418303,0 17.9952943325,-30.5588364601,0 17.9953399301,-30.559155643,0 17.9954364896,-30.5599415302,0 17.9956457019,-30.5613657832,0 17.9957328737,-30.5619518459,0 17.9958964884,-30.5630367994,0 17.9959581792,-30.563467294,0 17.9960627854,-30.564199537,0 17.996082902,-30.5643416941,0 17.9962679744,-30.5651624501,0 17.9963417351,-30.5654923618,0 17.9964490235,-30.5657954514,0 17.996660918,-30.5664217472,0 17.996801734,-30.5667985976,0 17.9968553782,-30.5669514835,0 17.9970525205,-30.567381978,0 17.9974199831,-30.5681571364,0 17.9977230728,-30.5688022077,0 17.9979711771,-30.5693668127,0 17.9981549084,-30.5697785318,0 17.9984083772,-30.5703082681,0 17.9988053441,-30.5711960793,0 17.9989810288,-30.5715876818,0 17.9994423687,-30.5725935102,0 17.9997400939,-30.5732667446,0 18.0001169443,-30.5740647018,0 18.0078577995,-30.5909398198,0 18.0090621114,-30.5935616791,0 18.011469394,-30.5988040566,0 18.0118435621,-30.5995631218,0 18.0118650198,-30.5995966494,0 18.0121868849,-30.600130409,0 18.0123397708,-30.6003677845,0 18.0124470592,-30.6005099416,0 18.0126965046,-30.6008385122,0 18.0129848421,-30.6011684239,0 18.013151139,-30.6013306975,0 18.0132718384,-30.6014701724,0 18.0135628581,-30.6017397344,0 18.0136312544,-30.6017866731,0 18.0137720704,-30.601927489,0 18.0139397085,-30.6020629406,0 18.0144144595,-30.6024599075,0 18.0146867037,-30.6026946008,0 18.0152580142,-30.6031519175,0 18.0156442523,-30.6034630537,0 18.0159942806,-30.6037728488,0 18.0162598193,-30.6040263176,0 18.0164569616,-30.6041926146,0 18.016743958,-30.6045024097,0 18.0169250071,-30.6046780944,0 18.0173018575,-30.6050871313,0 18.0174896121,-30.6053097546,0 18.0176532269,-30.6054961681,0 18.018013984,-30.6059615314,0 18.0183050036,-30.6063584983,0 18.0185584724,-30.6067420542,0 18.0191297829,-30.607663393,0 18.0193068087,-30.6079611182,0 18.0195066333,-30.6082883477,0 18.0195227265,-30.6083124876,0 18.0199223757,-30.6089441478,0 18.0199787021,-30.6090205908,0 18.0200578272,-30.6091694534,0 18.0202066898,-30.6094779074,0 18.0202670395,-30.609613359,0 18.0203340948,-30.6098078191,0 18.0203944445,-30.6100559235,0 18.0204279721,-30.6103254855,0 18.0204547942,-30.6105937064,0 18.0204682052,-30.6108096242,0 18.0204547942,-30.6109571457,0 18.0204480886,-30.6113299727,0 18.02040115,-30.6115351617,0 18.0203957856,-30.6115673482,0 18.0203408003,-30.61188519,0 18.0202402174,-30.6123425066,0 18.0201128125,-30.6128333509,0 18.0201114714,-30.6128400564,0 18.0200444162,-30.6131565571,0 18.0200108886,-30.613283962,0 18.0199719965,-30.613579005,0 18.019977361,-30.6138753891,0 18.019990772,-30.6141248345,0 18.0200310051,-30.6143394113,0 18.0200645328,-30.6144332886,0 18.0201610923,-30.6148396432,0 18.0202791095,-30.6151092052,0 18.0203448236,-30.6152620912,0 18.0206505954,-30.6157784164,0 18.0207981169,-30.6159728765,0 18.0209590495,-30.6161954999,0 18.0211079121,-30.6163363159,0 18.0215035379,-30.6166997552,0 18.0217596889,-30.6168875098,0 18.0218736827,-30.6169813871,0 18.0221700668,-30.6171771884,0 18.0225522816,-30.6174387038,0 18.0230163038,-30.6177552044,0 18.0231584609,-30.6178557873,0 18.0233663321,-30.6180100143,0 18.0235661566,-30.618121326,0 18.0238370597,-30.6183332205,0 18.0247181654,-30.6189380586,0 18.0255845189,-30.6195428967,0 18.0260753632,-30.619879514,0 18.0268357694,-30.6204307079,0 18.0272930861,-30.6207337976,0 18.0276082456,-30.6209684908,0 18.0289332569,-30.6218697131,0 18.0293369293,-30.6221446395,0 18.0303695798,-30.6227897108,0 18.0312278867,-30.6233154237,0 18.0320298672,-30.623729825,0 18.0346409976,-30.6248617172,0 18.0356293917,-30.6253606081,0 18.0367492139,-30.6260284781,0 18.0379468203,-30.6269015372,0 18.0389070511,-30.6277316809,0 18.0397170782,-30.6285618246,0 18.0460725725,-30.6353116035,0 18.0492161214,-30.6386522949,0 18.0496519804,-30.6391619146,0 18.0500932038,-30.6397761405,0 18.0504660308,-30.640425235,0 18.0507718027,-30.6410984695,0 18.0517695844,-30.6440354884,0 18.0519492924,-30.644621551,0 18.0522349477,-30.6456179917,0 18.0526305735,-30.6470945477,0 18.0527150631,-30.6474633515,0 18.052944392,-30.6483699381,0 18.0531536043,-30.649420023,0 18.0533467233,-30.650318563,0 18.0534861982,-30.6510172784,0 18.0536672473,-30.6520646811,0 18.0537946522,-30.6529256701,0 18.0539757013,-30.6542117894,0 18.054073602,-30.6552015245,0 18.0541366339,-30.6561295688,0 18.0547548831,-30.664511472,0 18.0547897518,-30.6649889052,0 18.0549184978,-30.6660282612,0 18.0551840365,-30.6674431264,0 18.0598068237,-30.6842954457,0 18.0600334704,-30.6851282716,0 18.0603003502,-30.6857559085,0 18.0604290962,-30.686071068,0 18.0605739355,-30.6863969564,0 18.0608247221,-30.6869494915,0 18.0611975491,-30.6876066327,0 18.0615288019,-30.688136369,0 18.0617621541,-30.6884622574,0 18.0622677505,-30.6891609728,0 18.0625292659,-30.6894573569,0 18.0629423261,-30.6899280846,0 18.0636933446,-30.6907260418,0 18.0648627877,-30.6919571757,0 18.0654796958,-30.6926867366,0 18.0663071573,-30.6938320398,0 18.0668006837,-30.6946581602,0 18.0668127537,-30.6946769357,0 18.0668275058,-30.69470644,0 18.0672834814,-30.6956022978,0 18.0677609146,-30.6967194378,0 18.0813597143,-30.7267333567,0 18.0817352235,-30.7276654243,0 18.0819296837,-30.7282689214,0 18.0821576715,-30.729200989,0 18.0823735893,-30.7301196456,0 18.0854567885,-30.7438766956,0 18.0868072808,-30.749887526,0 18.0868555605,-30.7502751052,0 18.0868823826,-30.7504977286,0 18.0870513618,-30.7515397668,0 18.0871801078,-30.7532429695,0 18.0872270465,-30.7538585365,0 18.087298125,-30.7545787096,0 18.0873075128,-30.754648447,0 18.0873169005,-30.754789263,0 18.0873759091,-30.7554920018,0 18.0874295533,-30.7560606301,0 18.0874845386,-30.7566520572,0 18.0875261128,-30.7570999861,0 18.0876924098,-30.7588917017,0 18.0906951427,-30.7721109688,0 18.090839982,-30.7723215222,0 18.0948740244,-30.7771481574,0 18.095882535,-30.77819556,0 18.0965450406,-30.7787628472,0 18.0975696445,-30.7795406878,0 18.0984936655,-30.7801280916,0 18.0996416509,-30.7807463408,0 18.1006555259,-30.7812090218,0 18.101516515,-30.7815349102,0 18.1027986109,-30.7819251716,0 18.1039063632,-30.782186687,0 18.1050355732,-30.7823784649,0 18.1100150943,-30.7828639448,0 18.1107366085,-30.7829765975,0 18.1115345657,-30.7831965387,0 18.1121058762,-30.7834178209,0 18.1127361953,-30.7837383449,0 18.1133235991,-30.7841219008,0 18.1140598655,-30.7847549021,0 18.1146687269,-30.7854965329,0 18.1171752512,-30.789848417,0 18.1177049875,-30.7906235754,0 18.1185311079,-30.7915395498,0 18.1207077205,-30.7934868336,0 18.1210979819,-30.7940112054,0 18.1213755906,-30.7945717871,0 18.1214681268,-30.7948252559,0 18.1215338409,-30.7951068878,0 18.1215794384,-30.7952919602,0 18.1216049194,-30.7954823971,0 18.1216210127,-30.7957935333,0 18.1216102839,-30.7961690426,0 18.1214010715,-30.7969522476,0 18.1212025881,-30.7974269986,0 18.1206218898,-30.7986809313,0 18.1199835241,-30.8000636101,0 18.1193263829,-30.8015307784,0 18.1188502908,-30.8026398718,0 18.1185083091,-30.8034995198,0 18.1181287766,-30.804746747,0 18.1170035899,-30.8089792728,0 18.1166562438,-30.8103203773,0 18.1158073246,-30.8133043349,0 18.1156490743,-30.814011097,0 18.1156088412,-30.8146776259,0 18.1156799197,-30.8156432211,0 18.1160782278,-30.8169038594,0 18.1166227162,-30.8185440302,0 18.1151354313,-30.8200728893,0 18.115156889,-30.8200903237,0 18.1154277921,-30.8203156292,0 18.1157670915,-30.8206696808,0 18.1160701811,-30.8210317791,0 18.1163544953,-30.8214274049,0 18.1169244647,-30.82219854,0 18.1175212562,-30.823020637,0 18.1178149581,-30.8234658837,0 18.1179665029,-30.8236791193,0 18.1180979311,-30.8238655329,0 18.1181515753,-30.8239419758,0 18.1184493005,-30.8244019747,0 18.1185699999,-30.8244931698,0 18.1189951301,-30.8257296681,0 18.1198118627,-30.8283314109,0 18.120161891,-30.8292768896,0 18.1206862628,-30.8303578198,0 18.1210000813,-30.8309090137,0 18.1212253869,-30.8312939107,0 18.1214573979,-30.831618458,0 18.1216035783,-30.8318370581,0 18.1219871342,-30.8323413134,0 18.1223720312,-30.8328013122,0 18.1230787933,-30.8335791528,0 18.1252017617,-30.8355680108,0 18.1390969455,-30.8486652374,0 18.1397500634,-30.8492781222,0 18.1404836476,-30.8500009775,0 18.1410120428,-30.8506245911,0 18.1417308748,-30.8515687287,0 18.1421023607,-30.8521574736,0 18.1425261497,-30.8529125154,0 18.1437452137,-30.8549845219,0 18.1461887062,-30.8591406047,0 18.1470564008,-30.8604857326,0 18.1478060782,-30.8614861965,0 18.1491351128,-30.8629734814,0 18.1510408223,-30.8648349345,0 18.159698993,-30.8733040094,0 18.1601603329,-30.8737197518,0 18.1608510017,-30.8742924035,0 18.1615792215,-30.8747966588,0 18.1621170044,-30.8751346171,0 18.1631080806,-30.8756375313,0 18.1638792157,-30.8759821951,0 18.1651116908,-30.8764140308,0 18.1679239869,-30.8773675561,0 18.1718815863,-30.8792035282,0 18.1722597778,-30.879483819,0 18.1728002429,-30.8799518645,0 18.1736156344,-30.8808530867,0 18.1759545207,-30.8844392002,0 18.1788834929,-30.8889989555,0 18.1812290847,-30.8925676346,0 18.1818245351,-30.8933374286,0 18.1826023757,-30.8941943944,0 18.1844705343,-30.8961054683,0 18.1884683669,-30.9001904726,0 18.1899301708,-30.9016777575,0 18.1956902146,-30.907535702,0 18.1958699226,-30.907740891,0 18.1969293952,-30.9088942409,0 18.1978869438,-30.9100784361,0 18.1982892752,-30.9106765687,0 18.1984676421,-30.9109152853,0 18.1987063587,-30.9112666547,0 18.1988659501,-30.9115442634,0 18.1989316642,-30.9116582572,0 18.2026398182,-30.9176100791,0 18.209130764,-30.9279808402,0 18.2110659778,-30.9311029315,0 18.2114683092,-30.931738615,0 18.213365972,-30.9347346425,0 18.2138246298,-30.9354937077,0 18.2146373391,-30.9368415177,0 18.2149122655,-30.9373471141,0 18.2154393196,-30.9383060038,0 18.2159167528,-30.9392139316,0 18.2166731358,-30.9406529367,0 18.2171559334,-30.9416668117,0 18.2187464833,-30.944814384,0 18.2188215852,-30.9449605644,0 18.2191380858,-30.9455439448,0 18.2198140025,-30.9468689561,0 18.220987469,-30.9491287172,0 18.2215104997,-30.9501828253,0 18.2280980051,-30.9630440176,0 18.2290327549,-30.9648491442,0 18.2303188741,-30.9674106538,0 18.2305307686,-30.9677526355,0 18.230663538,-30.96796453,0 18.2309143245,-30.9683212638,0 18.2314185798,-30.9688456357,0 18.231908083,-30.9693163633,0 18.2323801517,-30.9696422517,0 18.2329152524,-30.9699225426,0 18.2354217768,-30.9711161256,0 18.2358308136,-30.9713172913,0 18.2362760603,-30.9716016054,0 18.2369452715,-30.9721755981,0 18.2374481857,-30.9727495909,0 18.2378102839,-30.9732994437,0 18.2379457355,-30.9735448658,0 18.2384097576,-30.9744393826,0 18.2392586768,-30.9761533141,0 18.2403315604,-30.9783165157,0 18.2409484684,-30.9794819355,0 18.2416659594,-30.9805910289,0 18.2420749962,-30.9811328351,0 18.243188113,-30.9823518991,0 18.2459051907,-30.9847980738,0 18.2465811074,-30.9853881598,0 18.2478404045,-30.9864677489,0 18.2487617433,-30.9872630239,0 18.2541033626,-30.991935432,0 18.2551266253,-30.9928500652,0 18.2559219003,-30.9936520457,0 18.2564690709,-30.994348079,0 18.2570028305,-30.9950762987,0 18.2571221888,-30.9952627122,0 18.2571852207,-30.995361954,0 18.2574574649,-30.9958125651,0 18.2578222454,-30.9964482486,0 18.2580944896,-30.9970316291,0 18.2591284811,-30.9993048012,0 18.2599653304,-31.0012976825,0 18.2603247464,-31.0021130741,0 18.2606975734,-31.0033281147,0 18.2619233429,-31.0094583035,0 18.2632751763,-31.0160122812,0 18.2633140683,-31.0161691904,0 18.2635273039,-31.0169403255,0 18.2638585567,-31.0182988644,0 18.2654061913,-31.0246838629,0 18.2654558122,-31.0248863697,0 18.2657441497,-31.026019603,0 18.2659319043,-31.0268524289,0 18.2659935951,-31.027109921,0 18.2660163939,-31.0271944106,0 18.2660700381,-31.027418375,0 18.2665152848,-31.0292476416,0 18.2668170333,-31.0304908454,0 18.2727822661,-31.0458371043,0 18.2732744515,-31.0463802516,0 18.2752431929,-31.0485461354,0 18.2755315304,-31.0488626361,0 18.2759124041,-31.0492824018,0 18.2761377096,-31.0495372117,0 18.2799437642,-31.0553602874,0 18.2800899446,-31.055495739,0 18.2803125679,-31.0556700826,0 18.2807296515,-31.0559906065,0 18.2814565301,-31.0565377772,0 18.2819071412,-31.056804657,0 18.2823577523,-31.0570755601,0 18.2827694714,-31.0573330522,0 18.2832227647,-31.0576535761,0 18.2847771049,-31.0572646558,0 18.2850721478,-31.0572753847,0 18.2854892313,-31.0572351515,0 18.2863301039,-31.0571064055,0 18.2864642143,-31.0570715368,0 18.3219404519,-31.0849276185,0 18.3225077391,-31.0847854614,0 18.3229382336,-31.0846781731,0 18.3371539414,-31.0957315564,0 18.3387538791,-31.0972121358,0 18.3403243124,-31.0986632109,0 18.3419685066,-31.1002336442,0 18.3435121179,-31.1016122997,0 18.3439359069,-31.1020562053,0 18.3443489671,-31.1025671661,0 18.3446520567,-31.1029842496,0 18.3450959623,-31.1038063467,0 18.3454070985,-31.1044621468,0 18.3454553783,-31.1046284437,0 18.3474241197,-31.1113741994,0 18.348621726,-31.1154766381,0 18.3497817814,-31.1195093393,0 18.3500191569,-31.1202885211,0 18.350327611,-31.1214096844,0 18.3503946662,-31.1216443777,0 18.3509136736,-31.1237566173,0 18.3517545462,-31.1263650656,0 18.3522360027,-31.1282587051,0 18.3523955941,-31.1288098991,0 18.3529494703,-31.1305385828,0 18.3533129096,-31.1318662763,0 18.3536843956,-31.133159101,0 18.3548726141,-31.1373259127,0 18.3576393127,-31.1416630447,0 18.3592996001,-31.1431583762,0 18.3610658348,-31.1447489262,0 18.36112082,-31.144798547,0 18.3607627451,-31.1450842023,0 18.3610577881,-31.1453846097,0 18.3614198864,-31.1457373202,0 18.3618208766,-31.1461088061,0 18.362185657,-31.1464762688,0 18.3624498546,-31.1467216909,0 18.3629313111,-31.1471642554,0 18.3634221554,-31.1476255953,0 18.3639612794,-31.1481070518,0 18.3643005788,-31.1484034359,0 18.3645057678,-31.1485844851,0 18.3645687997,-31.1486394703,0 18.3650113642,-31.148994863,0 18.365624249,-31.1494857073,0 18.3662357926,-31.1499899626,0 18.3667548001,-31.1504164338,0 18.3674401045,-31.1509649456,0 18.3680020273,-31.1514115334,0 18.3685478568,-31.1518661678,0 18.3690319955,-31.1522698402,0 18.3694852889,-31.152652055,0 18.3698500693,-31.1529296637,0 18.3702993393,-31.1532716453,0 18.3705997467,-31.1534942687,0 18.3711160719,-31.1538791656,0 18.3715358377,-31.1541983485,0 18.3721205592,-31.1546543241,0 18.3725403249,-31.1549252272,0 18.3729802072,-31.1552524567,0 18.3736413717,-31.1557365954,0 18.3743011951,-31.1561536789,0 18.3746753633,-31.1563669145,0 18.374966383,-31.1565090716,0 18.3754116297,-31.1566767097,0 18.3757026494,-31.1567933857,0 18.376300782,-31.157028079,0 18.3767111599,-31.1571970582,0 18.3769659698,-31.1573258042,0 18.3771859109,-31.1574451625,0 18.3773951232,-31.1575846374,0 18.3775439858,-31.1576879025,0 18.3777089417,-31.1578394473,0 18.3779087663,-31.1580137908,0 18.3781810105,-31.1582270265,0 18.3786329627,-31.1585918069,0 18.3791305125,-31.1589793861,0 18.3795569837,-31.1593160033,0 18.380100131,-31.1597304046,0 18.3801698685,-31.1597840488,0 18.380600363,-31.1601099372,0 18.3812427521,-31.1605618894,0 18.381510973,-31.1607375741,0 18.3819280565,-31.1609990895,0 18.3824028075,-31.1612699926,0 18.3829580247,-31.1615931988,0 18.3831967413,-31.161711216,0 18.3832101524,-31.1617179215,0 18.383589685,-31.1618775129,0 18.3911025524,-31.166138202,0 18.3911186457,-31.1661864817,0 18.3912031353,-31.1664265394,0 18.3913291991,-31.1666531861,0 18.3914968371,-31.1669656634,0 18.3916698396,-31.167331785,0 18.3917731047,-31.167626828,0 18.4222014248,-31.1802586913,0 18.42228055,-31.1803016067,0 18.4234043956,-31.1809171736,0 18.4241983294,-31.181397289,0 18.4252752364,-31.182089299,0 18.426297158,-31.1827249825,0 18.4282109141,-31.18391186,0 18.4289471805,-31.1843664944,0 18.4297706187,-31.1848667264,0 18.4314577281,-31.1858980358,0 18.4330563247,-31.1868770421,0 18.4349754453,-31.1880639195,0 18.4362588823,-31.1888296902,0 18.4375664592,-31.1888176203,0 18.4415280819,-31.1911551654,0 18.4424051642,-31.1916916072,0 18.4433144331,-31.1922320724,0 18.4463520348,-31.1940304935,0 18.4470105171,-31.1944234371,0 18.4480512142,-31.1950349808,0 18.4486064315,-31.1953648925,0 18.4501084685,-31.1962580681,0 18.4526592493,-31.1977815628,0 18.45952034,-31.2014709413,0 18.4600554407,-31.2016586959,0 18.460174799,-31.2016868591,0 18.4607340395,-31.2018612027,0 18.4609526396,-31.2019175291,0 18.4632486105,-31.2024539709,0 18.4636254609,-31.202545166,0 18.4640425444,-31.2026524544,0 18.4650939703,-31.2028898299,0 18.4658275545,-31.2030681968,0 18.4663411975,-31.2031835318,0 18.468041718,-31.2035965919,0 18.4689791501,-31.2038071454,0 18.4695263207,-31.2039372325,0 18.4708513319,-31.2042631209,0 18.4717525542,-31.2044683099,0 18.4719268978,-31.2045004964,0 18.4723506868,-31.2046077847,0 18.4734356403,-31.2048491836,0 18.473918438,-31.2049739063,0 18.4751804173,-31.205278337,0 18.4755532444,-31.2053507566,0 18.477139771,-31.2057182193,0 18.4781549871,-31.2059797347,0 18.4790790081,-31.2061862648,0 18.4799158573,-31.2063927948,0 18.4823231399,-31.2069573998,0 18.483363837,-31.2072041631,0 18.484069258,-31.2073691189,0 18.4845413268,-31.2074804306,0 18.4898386896,-31.2087263167,0 18.4898588061,-31.20873034,0 18.4906366467,-31.2089127302,0 18.4909933805,-31.2089918554,0 18.491152972,-31.2090320885,0 18.4918865561,-31.2092064321,0 18.4924860299,-31.2093378603,0 18.4942750633,-31.2098099291,0 18.4964329004,-31.2104858458,0 18.4968151152,-31.2106266618,0 18.4969773889,-31.2106870115,0 18.4975808859,-31.2109284103,0 18.498160243,-31.211155057,0 18.4982152283,-31.2111751735,0 18.4994450212,-31.2117022276,0 18.5008102655,-31.2123781443,0 18.5015290976,-31.2127536535,0 18.5021594167,-31.2130594254,0 18.509940505,-31.2169164419,0 18.5103951395,-31.2171417475,0 18.5126307607,-31.2182494998,0 18.5131068528,-31.2184788287,0 18.5138176382,-31.2188328803,0 18.5142762959,-31.219072938,0 18.5142950714,-31.2190823257,0 18.5147818923,-31.2193250656,0 18.5174185038,-31.2206192315,0 18.5178811848,-31.2208592892,0 18.5188776255,-31.2213554978,0 18.5208262503,-31.2223063409,0 18.5208450258,-31.2223157287,0 18.5213010013,-31.2225463986,0 18.5220949352,-31.2229272723,0 18.5224959254,-31.223141849,0 18.5228218138,-31.2233121693,0 18.5232898593,-31.2235696614,0 18.5234561563,-31.2236729264,0 18.5241736472,-31.2241128087,0 18.5242219269,-31.2241476774,0 18.5244485736,-31.2242925167,0 18.5244807601,-31.2243166566,0 18.5247503221,-31.2245164812,0 18.5250426829,-31.2247525156,0 18.5254999995,-31.2251119316,0 18.5260109603,-31.2255813181,0 18.5262255371,-31.225771755,0 18.5267418623,-31.2263001502,0 18.5276779532,-31.227375716,0 18.527905941,-31.2276814878,0 18.5286663473,-31.2288160622,0 18.5292644799,-31.2297427654,0 18.5295984149,-31.2302604318,0 18.5321384668,-31.234293133,0 18.532332927,-31.2345908582,0 18.532512635,-31.2348845601,0 18.5336244106,-31.2366212904,0 18.5354737937,-31.2395220995,0 18.5355609655,-31.2396763265,0 18.5362797976,-31.2408001721,0 18.5384202003,-31.2442025542,0 18.5385167599,-31.244354099,0 18.5403688252,-31.2472602725,0 18.5405914485,-31.2476170063,0 18.541020602,-31.2482996285,0 18.541341126,-31.2488038838,0 18.5415369272,-31.2491096556,0 18.5422812402,-31.250281781,0 18.5434305668,-31.252092272,0 18.5436840355,-31.2524972856,0 18.5439629853,-31.2529304624,0 18.5451605916,-31.2548308074,0 18.546334058,-31.2566667795,0 18.5487748682,-31.2605170906,0 18.5490484536,-31.2609502673,0 18.549489677,-31.2616369128,0 18.549811542,-31.2621411681,0 18.5503748059,-31.2630236149,0 18.5504378378,-31.2631188333,0 18.5508790612,-31.2638524175,0 18.5519586504,-31.2655489147,0 18.5533091426,-31.2676356733,0 18.5533171892,-31.2676490843,0 18.5538563132,-31.2685020268,0 18.5544142127,-31.2693858147,0 18.5561804473,-31.2721712887,0 18.5566806793,-31.2729477882,0 18.5571755469,-31.2737296522,0 18.5577012599,-31.2745691836,0 18.5580646992,-31.2751431763,0 18.5582283139,-31.2753993273,0 18.5584415495,-31.2757278979,0 18.5590316355,-31.2766720355,0 18.5604760051,-31.2789425254,0 18.5606731474,-31.2792523205,0 18.561398685,-31.2804016471,0 18.5618667305,-31.281132549,0 18.5625600815,-31.2822242081,0 18.5894612968,-31.323119849,0 18.5915882885,-31.3259884715,0 18.5931265354,-31.3280953467,0 18.5961614549,-31.3321736455,0 18.5973161459,-31.3337306678,0 18.5983528197,-31.3351522386,0 18.5997703671,-31.3370619714,0 18.6007708311,-31.3384057581,0 18.603823185,-31.3425055146,0 18.6052501202,-31.3443978131,0 18.6066810787,-31.3461613655,0 18.6079229414,-31.3476419449,0 18.6155618727,-31.3567131758,0 18.6194738746,-31.361348033,0 18.6210148036,-31.3631612062,0 18.6219589412,-31.3642434776,0 18.6289206147,-31.3699941337,0 18.6366494,-31.3759110868,0 18.637907356,-31.3768833876,0 18.6383204162,-31.377197206,0 18.6392055452,-31.3778758049,0 18.6399257183,-31.3784256577,0 18.6414036155,-31.3795548677,0 18.6428010464,-31.3806197047,0 18.6436459422,-31.3812728226,0 18.6446101964,-31.3820104301,0 18.6465507746,-31.3834883273,0 18.6471730471,-31.3839831948,0 18.6484242976,-31.384935379,0 18.6502857506,-31.3863489032,0 18.6511065066,-31.3869832456,0 18.6522491276,-31.387860328,0 18.6534655094,-31.3887749612,0 18.6538007855,-31.3890351355,0 18.6543640494,-31.3894709945,0 18.6544163525,-31.3895112276,0 18.654872328,-31.3898599148,0 18.6552532017,-31.3901589811,0 18.6554557085,-31.3903091848,0 18.656360954,-31.3910025358,0 18.6569322646,-31.3914397359,0 18.659080714,-31.3930745423,0 18.6594159901,-31.3933360577,0 18.6598210037,-31.3936418295,0 18.6614598334,-31.3948997855,0 18.6634795368,-31.3964514434,0 18.6639529467,-31.3968162239,0 18.6642064154,-31.397010684,0 18.6650432646,-31.3976544142,0 18.6656118929,-31.3980902731,0 18.6680996418,-31.3999839127,0 18.6690397561,-31.4007094502,0 18.6699007452,-31.4013652503,0 18.6709052324,-31.402143091,0 18.6723308265,-31.4032226801,0 18.6732508242,-31.4039482176,0 18.6747917533,-31.4051163197,0 18.67906183,-31.4087118208,0 18.6794534326,-31.4091584086,0 18.6795379221,-31.409252286,0 18.6798812449,-31.4096948504,0 18.6802862585,-31.4102983475,0 18.6807113886,-31.4110037684,0 18.6809259653,-31.4113377035,0 18.6817587912,-31.4127297699,0 18.6818821728,-31.4129309356,0 18.6822710931,-31.4136229455,0 18.6830489337,-31.4149291813,0 18.683231324,-31.4152215421,0 18.6836591363,-31.4159685373,0 18.6848339438,-31.4179493487,0 18.6849653721,-31.4181505144,0 18.6860248446,-31.4199368656,0 18.6870722473,-31.4217057824,0 18.6873337626,-31.4221470058,0 18.6880525947,-31.4233808219,0 18.6893065274,-31.4254890382,0 18.6917580664,-31.4296102524,0 18.6923092604,-31.4305490255,0 18.6932466924,-31.4321435988,0 18.6959758401,-31.4367234707,0 18.6960871518,-31.4369098842,0 18.696384877,-31.4374248683,0 18.6968971789,-31.4382992685,0 18.6974926293,-31.439306438,0 18.6976991594,-31.4396591485,0 18.6980478466,-31.4402465522,0 18.6994895339,-31.4426618814,0 18.7000152469,-31.443516165,0 18.7007193267,-31.444721818,0 18.7007850409,-31.4448317885,0 18.7011310458,-31.4454567432,0 18.7013174593,-31.4458107948,0 18.7017264962,-31.4465524256,0 18.701749295,-31.4466355741,0 18.7021368742,-31.4475435019,0 18.7023916841,-31.4484031498,0 18.702468127,-31.4486633241,0 18.7025754154,-31.4491125941,0 18.7026585639,-31.4495283365,0 18.7027296424,-31.4499373734,0 18.7027551234,-31.450189501,0 18.7028208375,-31.4507594705,0 18.7028449774,-31.4511242509,0 18.7028490007,-31.451588273,0 18.7028476596,-31.4516486228,0 18.7028409541,-31.4522708952,0 18.7028369308,-31.4523728192,0 18.7028288841,-31.4529776573,0 18.7028194964,-31.4535047114,0 18.7028127909,-31.454116255,0 18.7027926743,-31.4546889067,0 18.702737689,-31.4570841193,0 18.7027336657,-31.4578901231,0 18.7027215958,-31.4582790434,0 18.7027215958,-31.4585526288,0 18.7040814757,-31.4673368633,0 18.7040935457,-31.4673663676,0 18.7042638659,-31.4678451419,0 18.7044194341,-31.4682555199,0 18.7045669556,-31.4686524868,0 18.7049196661,-31.4695698023,0 18.7051302195,-31.4701572061,0 18.7052442133,-31.4704267681,0 18.7054038048,-31.4708036184,0 18.7056143582,-31.4712958038,0 18.7057806551,-31.4717718959,0 18.7062446773,-31.4729936421,0 18.706510216,-31.4736802876,0 18.7066818774,-31.4741013944,0 18.7069715559,-31.474879235,0 18.7071378529,-31.4752802253,0 18.7073202431,-31.4756409824,0 18.7076340616,-31.476264596,0 18.707844615,-31.4766253531,0 18.7079679966,-31.4768090844,0 18.7082925439,-31.4773280919,0 18.7086774409,-31.4778913558,0 18.7096658349,-31.4791882038,0 18.7117324769,-31.4818100631,0 18.7126122415,-31.4829339087,0 18.7129032612,-31.4832986891,0 18.7135818601,-31.4842012525,0 18.7137535214,-31.4844292402,0 18.7140069902,-31.484760493,0 18.7141384184,-31.4849790931,0 18.7141518295,-31.4850206673,0 18.7143851817,-31.485427022,0 18.7145555019,-31.4857448637,0 18.7146654725,-31.4859902859,0 18.7147378922,-31.486145854,0 18.7147901952,-31.4862678945,0 18.7148478627,-31.4864422381,0 18.7149806321,-31.4867761731,0 18.7151040137,-31.4872294664,0 18.7151871622,-31.4876224101,0 18.7152475119,-31.4880555868,0 18.715338707,-31.4886899292,0 18.7153816223,-31.4889769256,0 18.7153936923,-31.4891351759,0 18.7154218554,-31.4893376827,0 18.7154312432,-31.4894101024,0 18.7154701352,-31.4897212386,0 18.7157946825,-31.4921915531,0 18.716160804,-31.4949059486,0 18.716352582,-31.4963114262,0 18.7164196372,-31.4969108999,0 18.7165094912,-31.4974553883,0 18.7168863416,-31.5002126992,0 18.7173463404,-31.5035882592,0 18.7179940939,-31.508461833,0 18.7186485529,-31.5131248534,0 18.7193660438,-31.5183953941,0 18.7200285494,-31.5233145654,0 18.7205824256,-31.5274706483,0 18.7211282551,-31.5311425924,0 18.7217210233,-31.5358284116,0 18.7220321596,-31.537848115,0 18.7224693596,-31.5408347547,0 18.7227737904,-31.5429778397,0 18.7229682505,-31.5446555614,0 18.7236388028,-31.5495975316,0 18.7243643403,-31.5549619496,0 18.7250187993,-31.5597805381,0 18.7256424129,-31.5644046664,0 18.7257295847,-31.5650376678,0 18.7261962891,-31.5684279799,0 18.7267112732,-31.5723413229,0 18.7273657322,-31.5771907568,0 18.727927655,-31.5810745955,0 18.7279987335,-31.5815748274,0 18.7281449139,-31.5825940669,0 18.7285740674,-31.5860715508,0 18.7290112674,-31.5891239047,0 18.7292137742,-31.5905320644,0 18.7299071252,-31.5955223143,0 18.7301257253,-31.5972134471,0 18.7301887572,-31.5977230668,0 18.7302196026,-31.5979778767,0 18.7302665412,-31.5985397995,0 18.7303054333,-31.5991392732,0 18.7303201854,-31.5998098254,0 18.7303201854,-31.6004414856,0 18.730314821,-31.6005286574,0 18.73028934,-31.6009175777,0 18.7302584946,-31.6016028821,0 18.7301954627,-31.6023525596,0 18.7301176786,-31.6029828787,0 18.7297515571,-31.6052600741,0 18.7296737731,-31.6058743,0 18.730353713,-31.6059722006,0 18.7305736542,-31.6060204804,0 18.7307117879,-31.6060861945,0 18.7307935953,-31.6061840951,0 18.7308754027,-31.6062900424,0 18.7309075892,-31.6063959897,0 18.7309317291,-31.6065180302,0 18.7309156358,-31.6066816449,0 18.7308324873,-31.6072703898,0 18.7307091057,-31.6081407666,0 18.7312482297,-31.6082024574,0 18.7315432727,-31.6082413495,0 18.7320823967,-31.6083110869,0 18.7322607636,-31.6083338857,0 18.7337882817,-31.6085645556,0 18.7339358032,-31.60858199,0 18.7365321815,-31.6088810563,0 18.7366273999,-31.6083084047,0 18.7366448343,-31.6082386672,0 18.7366850674,-31.6080307961,0 18.7367467582,-31.6077075899,0 18.736808449,-31.6074192524,0 18.7368513644,-31.6072529554,0 18.7369009852,-31.607079953,0 18.7369559705,-31.606913656,0 18.737257719,-31.6062739491,0 18.7374012172,-31.6060164571,0
            </coordinates>
        </LineString>
        </Placemark>
  </Folder>
        </Document>
    </kml>
    