<?xml version="1.0" encoding="UTF-8"?>
    <kml xmlns="http://www.opengis.net/kml/2.2">
    <Document>
        <name>Colored Path</name>
        <Folder>
            <name>Day 2</name>
            <open>1</open>
            <Style id="blackLine">
            <LineStyle>
                <color>ff000000</color>
                <width>4</width>
            </LineStyle>
            </Style>
            <Style id="redLine">
            <LineStyle>
                <color>ff0000ff</color>
                <width>4</width>
            </LineStyle>
            </Style>
        <Placemark>
        <name>Segment 1 (True)</name>
        <styleUrl>#blackLine</styleUrl>
        <LineString>
            <tessellate>1</tessellate>
            <coordinates>
            26.6889466345,-25.6605058908,0 26.6891089082,-25.6602953374,0 26.6893006861,-25.6600043178,0 26.689453572,-25.6596891582,0 26.6895340383,-25.6594504416,0 26.6895970702,-25.6592063606,0 26.68964535,-25.6589341164,0 26.6896641254,-25.6586712599,0 26.6896493733,-25.658107996,0 26.6895514727,-25.6572309136,0 26.6895447671,-25.6571745872,0 26.6894575953,-25.6565093994,0 26.6894428432,-25.6563927233,0 26.6894026101,-25.6560882926,0 26.689375788,-25.6557959318,0 26.6893556714,-25.6555826962,0 26.6893462837,-25.6552433968,0 26.6893489659,-25.6551924348,0 26.6893623769,-25.6549738348,0 26.689363718,-25.6549590826,0 26.68941468,-25.6545419991,0 26.6894562542,-25.6542281806,0 26.6895192862,-25.6537681818,0 26.6895340383,-25.6536541879,0 26.6896855831,-25.6527395546,0 26.6897633672,-25.6522648036,0 26.6898961365,-25.6514628232,0 26.6899001598,-25.6513300538,0 26.6898947954,-25.6512482464,0 26.6898331046,-25.650832504,0 26.689825058,-25.6507775187,0 26.6897164285,-25.6504261494,0 26.6896212101,-25.6504368782,0 26.6895648837,-25.6504409015,0 26.6894870996,-25.6504462659,0 26.6894321144,-25.6504556537,0 26.6891263425,-25.6505012512,0 26.6888715327,-25.6505428255,0 26.6885174811,-25.6506125629,0 26.6883391142,-25.6506474316,0 26.6881714761,-25.6506863236,0 26.6873520613,-25.6508781016,0 26.6870704293,-25.6509424746,0 26.6862376034,-25.6511315703,0 26.6860605776,-25.6511811912,0 26.6852787137,-25.6513997912,0 26.6848227382,-25.6515271962,0 26.6847167909,-25.6515660882,0 26.6840784252,-25.651794076,0 26.6830457747,-25.6522044539,0 26.6816926003,-25.6527248025,0 26.6813573241,-25.6528535485,0 26.6797479987,-25.6533806026,0 26.6795361042,-25.65345034,0 26.6793590784,-25.6535080075,0 26.6789674759,-25.6536367536,0 26.6786268353,-25.6537467241,0 26.6784511507,-25.6538057327,0 26.6775070131,-25.6541141868,0 26.6754148901,-25.6548048556,0 26.6733495891,-25.6555357575,0 26.6727554798,-25.6557650864,0 26.6717067361,-25.6561687589,0 26.6707210243,-25.656542927,0 26.6703186929,-25.656697154,0 26.6702744365,-25.6567132473,0 26.6702502966,-25.656722635,0 26.6699646413,-25.6568312645,0 26.6699230671,-25.6568473577,0 26.6689172387,-25.6572255492,0 26.6684438288,-25.6573985517,0 26.6676083207,-25.6578572094,0 26.6670933366,-25.6580355763,0 26.6622331738,-25.659815222,0 26.6577216983,-25.6614688039,0 26.6563001275,-25.6619529426,0 26.6556349397,-25.662112534,0 26.6549000144,-25.6622520089,0 26.6544292867,-25.6623257697,0 26.653880775,-25.6624116004,0 26.6508243978,-25.6628756225,0 26.6417089105,-25.6642730534,0 26.6323801875,-25.6656758487,0 26.6301861405,-25.6660044193,0 26.6293492913,-25.6660956144,0 26.6284105182,-25.6661103666,0 26.627638042,-25.6660620868,0 26.627009064,-25.6659574807,0 26.6264498234,-25.6658394635,0 26.6260086,-25.6657214463,0 26.6255056858,-25.6655605137,0 26.6249638796,-25.6653727591,0 26.6218927503,-25.6642261147,0 26.6206897795,-25.6637714803,0 26.6206213832,-25.6637741625,0 26.6183066368,-25.6629104912,0 26.6180156171,-25.6628005207,0 26.6159677505,-25.6620267034,0 26.6159301996,-25.6619864702,0 26.6153588891,-25.6617705524,0 26.6146856546,-25.6615452468,0 26.6138622165,-25.6613186002,0 26.6130146384,-25.661098659,0 26.6122636199,-25.660918951,0 26.6110244393,-25.6606413424,0 26.6103485227,-25.660546124,0 26.6095532477,-25.6604428589,0 26.6093426943,-25.6604334712,0 26.6090033948,-25.6604160368,0 26.6089497507,-25.6604133546,0 26.6082577407,-25.6604428589,0 26.6079854965,-25.6604616344,0 26.6073739529,-25.6605018675,0 26.6067020595,-25.6605930626,0 26.6050203145,-25.6608223915,0 26.6040077806,-25.6609229743,0 26.6037274897,-25.6609551609,0 26.6035893559,-25.6609712541,0 26.602063179,-25.6611509621,0 26.6016434133,-25.6612059474,0 26.601035893,-25.6612850726,0 26.6007944942,-25.6613092124,0 26.5995526314,-25.6614540517,0 26.5990564227,-25.6615130603,0 26.5976321697,-25.6616847217,0 26.596480161,-25.6618241966,0 26.5943706036,-25.6620897353,0 26.5940406919,-25.6621608138,0 26.5935203433,-25.6622667611,0 26.5931394696,-25.662368685,0 26.5925480425,-25.6625846028,0 26.5907979012,-25.6632229686,0 26.5895935893,-25.6635408103,0 26.5892073512,-25.66361323,0 26.5888157487,-25.6636816263,0 26.5884509683,-25.6637245417,0 26.5853382647,-25.6637835503,0 26.5831723809,-25.663818419,0 26.5828129649,-25.6638935208,0 26.582185328,-25.6640142202,0 26.5816891193,-25.6641764939,0 26.5812385082,-25.6643360853,0 26.580170989,-25.6648765504,0 26.5799215436,-25.6649918854,0 26.5793448687,-25.665242672,0 26.5789586306,-25.6653660536,0 26.5786099434,-25.6654559076,0 26.5783712268,-25.665486753,0 26.5780319273,-25.6655229628,0 26.5776899457,-25.6655310094,0 26.5773278475,-25.6655082107,0 26.576834321,-25.665447861,0 26.5764856339,-25.6653808057,0 26.5762120485,-25.6653150916,0 26.5759465098,-25.665230602,0 26.5757399797,-25.6651434302,0 26.5754449368,-25.6650052965,0 26.5752276778,-25.664883256,0 26.5749809146,-25.6647115946,0 26.5748548508,-25.6646968424,0 26.5734735131,-25.6637057662,0 26.572432816,-25.6629668176,0 26.5714484453,-25.6624156237,0 26.5713894367,-25.6623418629,0 26.5711641312,-25.6622332335,0 26.5706223249,-25.6619851291,0 26.5701368451,-25.6617772579,0 26.5694770217,-25.6615157425,0 26.568363905,-25.6611000001,0 26.5621747077,-25.6588040292,0 26.5617321432,-25.6586404145,0 26.5570355952,-25.6569519639,0 26.5541307628,-25.6559662521,0 26.5523149073,-25.6553252041,0 26.5515075624,-25.6550569832,0 26.5502294898,-25.6546077132,0 26.5493242443,-25.6542912126,0 26.548935324,-25.6541383266,0 26.548704654,-25.6540511549,0 26.5483345091,-25.6538888812,0 26.5480743349,-25.6537507474,0 26.5475513041,-25.6534744799,0 26.5446008742,-25.6516639888,0 26.5429808199,-25.6506608427,0 26.5422914922,-25.6502585113,0 26.5409503877,-25.6495383382,0 26.5386356413,-25.6482897699,0 26.538182348,-25.648060441,0 26.5376780927,-25.6478257477,0 26.5371389687,-25.6476125121,0 26.5367688239,-25.6474918127,0 26.5364657342,-25.6474046409,0 26.5361197293,-25.6473174691,0 26.5357334912,-25.6472356617,0 26.5351782739,-25.6471431255,0 26.5337325633,-25.6469231844,0 26.5304227173,-25.6464028358,0 26.527775377,-25.6459924579,0 26.5270940959,-25.6458811462,0 26.5261499584,-25.6456799805,0 26.5249054134,-25.6453125179,0 26.5216331184,-25.6443120539,0 26.520781517,-25.6440652907,0 26.5185686946,-25.6433840096,0 26.5179531276,-25.6432364881,0 26.5175293386,-25.6431573629,0 26.5170921385,-25.6431077421,0 26.5166173875,-25.6430795789,0 26.5164886415,-25.6430715322,0 26.5159830451,-25.6430648267,0 26.515481472,-25.6431144476,0 26.5144380927,-25.6433008611,0 26.5115694702,-25.6439352036,0 26.5106588602,-25.644094795,0 26.5105167031,-25.6441189349,0 26.5096074343,-25.6442812085,0 26.5075434744,-25.6446942687,0 26.5070351958,-25.6447841227,0 26.5066234767,-25.6448216736,0 26.5058027208,-25.644852519,0 26.5056592226,-25.6448552012,0 26.5054687858,-25.6448578835,0 26.5043784678,-25.6447680295,0 26.5034946799,-25.6446352601,0 26.5027007461,-25.6444555521,0 26.5019497275,-25.6442758441,0 26.5013931692,-25.6441122293,0 26.5011611581,-25.6440371275,0 26.500864774,-25.6439271569,0 26.5004087985,-25.6437407434,0 26.5000909567,-25.6436039507,0 26.4996899664,-25.6434027851,0 26.4992393553,-25.6431426108,0 26.4984990656,-25.6427040696,0 26.4977037907,-25.6422373652,0 26.4966094494,-25.6416285038,0 26.4934793115,-25.6398542225,0 26.4933532476,-25.6398421526,0 26.4924868941,-25.6392909586,0 26.4919504523,-25.6389047205,0 26.4918284118,-25.6388242543,0 26.4916983247,-25.6387008727,0 26.4911189675,-25.6381429732,0 26.4907541871,-25.637743324,0 26.4904457331,-25.6373423338,0 26.4903330803,-25.6371679902,0 26.4903277159,-25.6370835006,0 26.4888015389,-25.6348022819,0 26.4873531461,-25.6326457858,0 26.4855828881,-25.6300145388,0 26.4847755432,-25.6288129091,0 26.4842578769,-25.6281101704,0 26.4839601517,-25.6277681887,0 26.4835846424,-25.627373904,0 26.4831447601,-25.6269581616,0 26.4827504754,-25.6266188622,0 26.4819967747,-25.6260797381,0 26.4812994003,-25.6256492436,0 26.4803794026,-25.6251074374,0 26.4785273373,-25.6240560114,0 26.47235021,-25.6205222011,0 26.4706791937,-25.6195552647,0 26.467948705,-25.6179875135,0 26.4622154832,-25.6147380173,0 26.4616280794,-25.6143906713,0 26.4602480829,-25.6136114895,0 26.4598470926,-25.613399595,0 26.4591859281,-25.6131273508,0 26.4585126936,-25.6128805876,0 26.4556869864,-25.6118948758,0 26.4545953274,-25.6114979088,0 26.4499953389,-25.6098242104,0 26.4490753412,-25.609484911,0 26.4436948299,-25.6075000763,0 26.4424918592,-25.6070682406,0 26.4414082468,-25.6066793203,0 26.4401435852,-25.606226027,0 26.4378140867,-25.605288595,0 26.4377255738,-25.6052429974,0 26.4371998608,-25.6049694121,0 26.4364917576,-25.6045563519,0 26.4357943833,-25.6040883064,0 26.4355248213,-25.6039072573,0 26.4339664578,-25.6027686596,0 26.4325167239,-25.6017078459,0 26.4321103692,-25.6014114618,0 26.4305439591,-25.6002701819,0 26.4302650094,-25.600066334,0 26.4270986617,-25.5977019668,0 26.4266507328,-25.5973787606,0 26.4259372652,-25.5968476832,0 26.4258085191,-25.5967524648,0 26.4253659546,-25.5964453518,0 26.4250695705,-25.5962321162,0 26.4247208834,-25.5959813297,0 26.4247168601,-25.5959786475,0 26.4240154624,-25.5954730511,0 26.422970742,-25.5947595835,0 26.4215907454,-25.5938208103,0 26.4214579761,-25.5937282741,0 26.4203207195,-25.5929423869,0 26.4196783304,-25.5924984813,0 26.4195549488,-25.5924126506,0 26.4185357094,-25.5917085707,0 26.4177806675,-25.591224432,0 26.4170604944,-25.5908475816,0 26.4164704084,-25.5905753374,0 26.4160479605,-25.5903956294,0 26.4158923924,-25.5903285742,0 26.4150555432,-25.590018779,0 26.4149066806,-25.5900160968,0 26.4134649932,-25.589454174,0 26.4130519331,-25.5893240869,0 26.4128802717,-25.589261055,0 26.4123491943,-25.5890773237,0 26.4119200408,-25.5889391899,0 26.4118543267,-25.5888815224,0 26.4117349684,-25.5888412893,0 26.4110483229,-25.5886119604,0 26.4107841253,-25.5885140598,0 26.410446167,-25.588414818,0 26.4102329314,-25.5883638561,0 26.4100062847,-25.5883195996,0 26.4096321166,-25.5882659554,0 26.4093464613,-25.58824718,0 26.4090621471,-25.5882431567,0 26.4088408649,-25.5882538855,0 26.4087603986,-25.5882619321,0 26.4087121189,-25.5882941186,0 26.4085377753,-25.5883142352,0 26.4083486795,-25.5883464217,0 26.4081072807,-25.5883960426,0 26.4078176022,-25.5884724855,0 26.4075681567,-25.588555634,0 26.4072181284,-25.5886910856,0 26.4068506658,-25.5888520181,0 26.4064925909,-25.5890451372,0 26.4058542252,-25.58937639,0 26.4055913687,-25.5894984305,0 26.4048631489,-25.5898404121,0 26.4044849575,-25.5900067091,0 26.4041617513,-25.5901381373,0 26.4039176702,-25.5902373791,0 26.4036078751,-25.5903500319,0 26.4032846689,-25.5904600024,0 26.4025618136,-25.5906799436,0 26.4024317265,-25.5907188356,0 26.402336508,-25.5907443166,0 26.4020682871,-25.5908194184,0 26.4009350538,-25.5911238492,0 26.3999573886,-25.5913800001,0 26.3999117911,-25.5913679302,0 26.3995684683,-25.5914591253,0 26.3991969824,-25.5915610492,0 26.3984553516,-25.5917555094,0 26.3968674839,-25.5922114849,0 26.3962519169,-25.5923804641,0 26.3954861462,-25.5925896764,0 26.3952447474,-25.592648685,0 26.3947512209,-25.5927707255,0 26.3935482502,-25.5930872262,0 26.3928696513,-25.5932937562,0 26.3921964169,-25.5935163796,0 26.3912495971,-25.5938382447,0 26.3911986351,-25.5938825011,0 26.3900184631,-25.5942901969,0 26.389427036,-25.5944900215,0 26.3890354335,-25.5946241319,0 26.388835609,-25.5946938694,0 26.3872557878,-25.5952437222,0 26.3871726394,-25.5952437222,0 26.3861882687,-25.5955857038,0 26.384691596,-25.5961181223,0 26.3824050128,-25.5969160795,0 26.3818605244,-25.597102493,0 26.38118729,-25.5973304808,0 26.3801841438,-25.5976657569,0 26.379403621,-25.5979084969,0 26.3788108528,-25.5980680883,0 26.3781403005,-25.5982343853,0 26.3775233924,-25.5983577669,0 26.3769628108,-25.598462373,0 26.3764370978,-25.5985401571,0 26.3748277724,-25.5987721682,0 26.3735349476,-25.5989290774,0 26.3714294136,-25.5992093682,0 26.3676984608,-25.5996961892,0 26.3649384677,-25.6000676751,0 26.3627175987,-25.6003533304,0 26.3596759737,-25.6007435918,0 26.357524842,-25.6010265648,0 26.3564197719,-25.6011714041,0 26.3547554612,-25.6013551354,0 26.3536772132,-25.6014852226,0 26.3530616462,-25.6015455723,0 26.3524715602,-25.6015911698,0 26.3510365784,-25.6016542017,0 26.3496445119,-25.6016716361,0 26.3492944837,-25.6016689539,0 26.346860379,-25.6016917527,0 26.3452215493,-25.6017065048,0 26.3435250521,-25.601746738,0 26.3434419036,-25.6017829478,0 26.3432916999,-25.60178563,0 26.3422295451,-25.6017923355,0 26.3414785266,-25.6018044055,0 26.3412719965,-25.6018017232,0 26.3402956724,-25.6018191576,0 26.339147687,-25.6018164754,0 26.3390725851,-25.6017762423,0 26.3365459442,-25.6017816067,0 26.3347421587,-25.6017775834,0 26.3340689242,-25.6017695367,0 26.3331851363,-25.6017400324,0 26.3318574429,-25.6016474962,0 26.3310608268,-25.6015911698,0 26.3288962841,-25.6013886631,0 26.3281881809,-25.6012921035,0 26.3273566961,-25.6011365354,0 26.3264608383,-25.6009340286,0 26.3253852725,-25.6006188691,0 26.3249775767,-25.6004619598,0 26.3241863251,-25.6001400948,0 26.3235077262,-25.5998182297,0 26.3229122758,-25.5995057523,0 26.3222980499,-25.5991369486,0 26.3215443492,-25.5986568332,0 26.3208469748,-25.5981901288,0 26.318923831,-25.5968691409,0 26.3167110085,-25.5953067541,0 26.314778477,-25.5939602852,0 26.3131839037,-25.5928458273,0 26.3126863539,-25.592494458,0 26.3117770851,-25.5918520689,0 26.3113023341,-25.5915234983,0 26.3109080493,-25.5912807584,0 26.3105593622,-25.5910930037,0 26.31031394,-25.5909790099,0 26.3101033866,-25.5908918381,0 26.3097909093,-25.5907644331,0 26.3094824553,-25.5906625092,0 26.3092236221,-25.5905820429,0 26.3089647889,-25.5905176699,0 26.3087059557,-25.590468049,0 26.3081400096,-25.5903956294,0 26.3072428107,-25.5903312564,0 26.305488646,-25.5902427435,0 26.3047403097,-25.5901971459,0 26.3023705781,-25.5900523067,0 26.3006365299,-25.5899812281,0 26.2999740243,-25.5899704993,0 26.2999069691,-25.5900040269,0 26.2996038795,-25.5899865925,0 26.2993450463,-25.5899718404,0 26.2990084291,-25.5899530649,0 26.298391521,-25.5899021029,0 26.2978376448,-25.5898350477,0 26.297492981,-25.5897934735,0 26.2970973551,-25.5897331238,0 26.2969538569,-25.5897116661,0 26.2966668606,-25.5896674097,0 26.2959855795,-25.5895614624,0 26.2959346175,-25.5895158648,0 26.2933838367,-25.5890505016,0 26.2921848893,-25.5888158083,0 26.2910985947,-25.5885636806,0 26.2901343405,-25.5883356929,0 26.2884633243,-25.5879172683,0 26.2870551646,-25.5875176191,0 26.2849536538,-25.5868725479,0 26.2842683494,-25.5866740644,0 26.2837533653,-25.5865480006,0 26.2833698094,-25.586463511,0 26.2830305099,-25.5863964558,0 26.2826536596,-25.586334765,0 26.2817336619,-25.5862154067,0 26.2811100483,-25.5861496925,0 26.2799781561,-25.5860303342,0 26.2789803743,-25.5859284103,0 26.27805233,-25.5858264863,0 26.2774032354,-25.5857406557,0 26.2768560648,-25.5856387317,0 26.2764081359,-25.5855368078,0 26.2761117518,-25.5854402483,0 26.2757134438,-25.5852900445,0 26.2753406167,-25.5851344764,0 26.2749610841,-25.5849507451,0 26.2746472657,-25.5848045647,0 26.274381727,-25.5846610665,0 26.2740544975,-25.5844773352,0 26.2738935649,-25.5843780935,0 26.273752749,-25.584269464,0 26.2732511759,-25.5838282406,0 26.2728314102,-25.5834339559,0 26.272046864,-25.5826762319,0 26.2714487314,-25.5820794404,0 26.2697683275,-25.5804285407,0 26.269403547,-25.5801106989,0 26.2691192329,-25.5798639357,0 26.2689100206,-25.5797123909,0 26.2686578929,-25.5795568228,0 26.2683789432,-25.5794119835,0 26.2680329382,-25.5792523921,0 26.2677244842,-25.5791410804,0 26.2673811615,-25.5790512264,0 26.26700297,-25.5789841712,0 26.2666971982,-25.5789425969,0 26.2664155662,-25.5789278448,0 26.2661392987,-25.5789238214,0 26.2658576667,-25.5789452791,0 26.2653641403,-25.5790190399,0 26.2649510801,-25.579123646,0 26.2646077573,-25.5792564154,0 26.2641584873,-25.5794213712,0 26.2638272345,-25.5795232952,0 26.2635093927,-25.5796225369,0 26.2631137669,-25.5797378719,0 26.2627650797,-25.5798009038,0 26.262357384,-25.5798505247,0 26.2619282305,-25.5798827112,0 26.2615929544,-25.5798827112,0 26.261190623,-25.5798625946,0 26.2608526647,-25.5798169971,0 26.2605763972,-25.5797593296,0 26.2603081763,-25.5796895921,0 26.2598307431,-25.5795635283,0 26.2590233982,-25.5792725086,0 26.2536750734,-25.5772729218,0 26.2533277273,-25.5771388113,0 26.2511095405,-25.5763019621,0 26.2495900691,-25.5757212639,0 26.2477581203,-25.5750265718,0 26.2468676269,-25.5746765435,0 26.2455265224,-25.5741414428,0 26.2450142205,-25.5739215016,0 26.244725883,-25.5738021433,0 26.2444268167,-25.5736599863,0 26.2441854179,-25.5735446513,0 26.2439627945,-25.5734319985,0 26.2433753908,-25.5731128156,0 26.2427946925,-25.5727681518,0 26.2419497967,-25.5722598732,0 26.2406945229,-25.5714686215,0 26.2401352823,-25.5711373687,0 26.2396390736,-25.5708570778,0 26.2390235066,-25.570537895,0 26.2387003005,-25.5703622103,0 26.2381115556,-25.5700698495,0 26.2352094054,-25.5687408149,0 26.2342223525,-25.5682365596,0 26.2333291769,-25.5677323043,0 26.2330529094,-25.567574054,0 26.2328222394,-25.5674305558,0 26.2326022983,-25.5672870576,0 26.2324735522,-25.5671945214,0 26.2319934368,-25.5668216944,0 26.2310560048,-25.5660237372,0 26.2304860353,-25.565534234,0 26.22976318,-25.5649025738,0 26.2293179333,-25.5645163357,0 26.2283040583,-25.5636808276,0 26.2279754877,-25.5634099245,0 26.2277179956,-25.5632315576,0 26.2273907661,-25.5630223453,0 26.2272566557,-25.5629499257,0 26.2269669771,-25.5627903342,0 26.2258337438,-25.5621412396,0 26.2257438898,-25.5621345341,0 26.224603951,-25.5615310371,0 26.2241359055,-25.5612829328,0 26.2236866355,-25.5610401928,0 26.2220035493,-25.5601295829,0 26.2219592929,-25.5600638688,0 26.2202346325,-25.559155941,0 26.2201568484,-25.559168011,0 26.2182819843,-25.558180958,0 26.2179467082,-25.5580039322,0 26.217340529,-25.557653904,0 26.217174232,-25.5575573444,0 26.2166592479,-25.5572234094,0 26.2166324258,-25.557128191,0 26.216289103,-25.5569162965,0 26.215814352,-25.5565944314,0 26.213837564,-25.5551406741,0 26.2130664289,-25.554586798,0 26.2126104534,-25.5542528629,0 26.2118326128,-25.5536922812,0 26.2106658518,-25.5528339744,0 26.210205853,-25.5524919927,0 26.209436059,-25.5518884957,0 26.208896935,-25.5514352024,0 26.2083819509,-25.5509792268,0 26.2069389224,-25.5496475101,0 26.2054999173,-25.5483010411,0 26.2045450509,-25.54740116,0 26.2030752003,-25.5460399389,0 26.2026500702,-25.5456671119,0 26.2024381757,-25.5454820395,0 26.2022209167,-25.545296967,0 26.2017475069,-25.5449308455,0 26.2013813853,-25.5446518958,0 26.2011654675,-25.5444788933,0 26.2006773055,-25.5441100895,0 26.2001864612,-25.543718487,0 26.1997412145,-25.54334566,0 26.1995199323,-25.5431592464,0 26.1993174255,-25.5429808795,0 26.1991082132,-25.5427756906,0 26.1989378929,-25.542601347,0 26.1986643076,-25.5423116684,0 26.1983799934,-25.5420072377,0 26.1980581284,-25.5416209996,0 26.1977416277,-25.5412226915,0 26.1974237859,-25.5408109725,0 26.1960531771,-25.5389522016,0 26.1950151622,-25.5375574529,0 26.1943392456,-25.5366361141,0 26.1936727166,-25.5357429385,0 26.1926172674,-25.5343106389,0 26.1922766268,-25.533837229,0 26.1919252574,-25.5333061516,0 26.1917965114,-25.5331130326,0 26.1916516721,-25.5328756571,0 26.1915336549,-25.5326557159,0 26.1914558709,-25.5325108767,0 26.1913834512,-25.532360673,0 26.1913137138,-25.5321930349,0 26.191252023,-25.5320428312,0 26.1911635101,-25.5317679048,0 26.1910669506,-25.5314768851,0 26.190970391,-25.5310678482,0 26.1908040941,-25.5304026604,0 26.1906887591,-25.5299694836,0 26.1906002462,-25.5297106504,0 26.1905305088,-25.5295242369,0 26.1904473603,-25.5293405056,0 26.1903655529,-25.5291567743,0 26.19027704,-25.5289703608,0 26.1901724339,-25.5287718773,0 26.1900745332,-25.5285988748,0 26.1899766326,-25.5284392834,0 26.189892143,-25.5283145607,0 26.1898089945,-25.5282059312,0 26.1897432804,-25.5281053483,0 26.1896815896,-25.5280208588,0 26.1895984411,-25.52799806,0 26.1890941858,-25.5275528133,0 26.1886113882,-25.5272121727,0 26.1877959967,-25.5267669261,0 26.1875545979,-25.5266194046,0 26.1870718002,-25.5263793468,0 26.1865541339,-25.5260816216,0 26.1864951253,-25.5260574818,0 26.1864414811,-25.5259461701,0 26.1862161756,-25.5258227885,0 26.1859372258,-25.5256712437,0 26.1849997938,-25.5251589417,0 26.1836828291,-25.5244494975,0 26.1811602116,-25.5231003463,0 26.1802643538,-25.5226282775,0 26.1777484417,-25.5212603509,0 26.1771892011,-25.5209626257,0 26.1762598157,-25.5204798281,0 26.1757850647,-25.5202424526,0 26.1753840744,-25.5200520158,0 26.1749884486,-25.5198575556,0 26.1748503149,-25.519798547,0 26.1747148633,-25.519746244,0 26.1745686829,-25.519695282,0 26.174402386,-25.51964432,0 26.174210608,-25.5195893347,0 26.1740040779,-25.5195356905,0 26.1731792986,-25.5193090439,0 26.1715807021,-25.5188933015,0 26.1712749302,-25.5188168585,0 26.1710268259,-25.5187511444,0 26.1705265939,-25.5186210573,0 26.1693665385,-25.5183179677,0 26.1684451997,-25.5180698633,0 26.1674527824,-25.5178378522,0 26.1670772731,-25.5177587271,0 26.1668010056,-25.5177091062,0 26.1665247381,-25.5176836252,0 26.1661975086,-25.5176688731,0 26.1659373343,-25.5176688731,0 26.1656476557,-25.5176755786,0 26.1653526127,-25.5176970363,0 26.1650173366,-25.5177412927,0 26.1647517979,-25.5177949369,0 26.1645130813,-25.51784724,0 26.1642502248,-25.5179156363,0 26.1640195549,-25.5179974437,0 26.1637915671,-25.5180819333,0 26.1635608971,-25.5181771517,0 26.1633597314,-25.5182589591,0 26.1631880701,-25.5183394253,0 26.1630325019,-25.5184239149,0 26.1629091203,-25.5184963346,0 26.1627361178,-25.5185969174,0 26.1625738442,-25.5186921358,0 26.1623860896,-25.5188181996,0 26.1620615423,-25.5190435052,0 26.1607861519,-25.5199795961,0 26.1601236463,-25.520490557,0 26.1595268548,-25.5209438503,0 26.1587530375,-25.521504432,0 26.1577793956,-25.5222085118,0 26.1568915844,-25.52281335,0 26.1549577117,-25.5240780115,0 26.1530962586,-25.5252863467,0 26.1520300806,-25.5259649456,0 26.1513474584,-25.5263954401,0 26.1505615711,-25.5268929899,0 26.1493089795,-25.5276533961,0 26.1480590701,-25.5283749104,0 26.1469513178,-25.529011935,0 26.1464135349,-25.5293096602,0 26.146080941,-25.5294840038,0 26.145670563,-25.5297012627,0 26.145439893,-25.5298219621,0 26.1452521384,-25.5299185216,0 26.1450000107,-25.5300445855,0 26.1447894573,-25.5301451683,0 26.1445896327,-25.5302350223,0 26.1442449689,-25.5303758383,0 26.1438453197,-25.5305300653,0 26.1432874203,-25.5307365954,0 26.1414393783,-25.5313695967,0 26.1396570504,-25.5319690704,0 26.1380691826,-25.5325135589,0 26.1379216611,-25.5325604975,0 26.1378867924,-25.5325712264,0 26.1376266181,-25.5326557159,0 26.1358885467,-25.533233732,0 26.1343301833,-25.5337540805,0 26.1339385808,-25.5338855088,0 26.1332170665,-25.5341590941,0 26.1329756677,-25.5342489481,0 26.132710129,-25.5343548954,0 26.1324258149,-25.5344836414,0 26.1321870983,-25.5346043408,0 26.1320020258,-25.5347009003,0 26.1318035424,-25.5348068476,0 26.1315621436,-25.5349543691,0 26.1311195791,-25.535236001,0 26.1300118268,-25.5359883606,0 26.129180342,-25.5365100503,0 26.1288785934,-25.5366870761,0 26.1286666989,-25.536814481,0 26.1284199357,-25.5369459093,0 26.128244251,-25.5370397866,0 26.1280940473,-25.5371189117,0 26.1279036105,-25.5372154713,0 26.1277520657,-25.5372838676,0 26.1273698509,-25.5374528468,0 26.1267153919,-25.5377317965,0 26.1256438494,-25.5381596088,0 26.1254306138,-25.5382494628,0 26.125216037,-25.5383393168,0 26.1250886321,-25.5383956432,0 26.1249652505,-25.5384519696,0 26.1248324811,-25.5385190248,0 26.1245132983,-25.5386719108,0 26.1242115498,-25.5388355255,0 26.1235141754,-25.5392338336,0 26.1230313778,-25.5395154655,0 26.1216232181,-25.5403536558,0 26.1213965714,-25.5404904485,0 26.1211484671,-25.5406259,0 26.120877564,-25.5407787859,0 26.120724678,-25.5408579111,0 26.1204886436,-25.5409812927,0 26.1201922596,-25.5411274731,0 26.119722873,-25.5413299799,0 26.1194841564,-25.5414225161,0 26.1192347109,-25.5415150523,0 26.1190214753,-25.5415821075,0 26.1187559366,-25.5416706204,0 26.1184930801,-25.5417497456,0 26.11808002,-25.5418503284,0 26.1177527905,-25.5419321358,0 26.1173531413,-25.5420058966,0 26.117054075,-25.5420394242,0 26.1168193817,-25.5420675874,0 26.116540432,-25.5420877039,0 26.1163124442,-25.542101115,0 26.1160884798,-25.5421091616,0 26.1156472564,-25.5421292782,0 26.1152999103,-25.5421252549,0 26.1150048673,-25.5421158671,0 26.1147299409,-25.5420970917,0 26.114512682,-25.5420716107,0 26.1141224205,-25.5420139432,0 26.1130803823,-25.5418610573,0 26.1129543185,-25.5418395996,0 26.1126619577,-25.5417913198,0 26.1123870313,-25.5417470634,0 26.1117647588,-25.5416437984,0 26.1115448177,-25.5416129529,0 26.1112900078,-25.541575402,0 26.1109882593,-25.5415338278,0 26.1106529832,-25.5415029824,0 26.1103257537,-25.541485548,0 26.1098523438,-25.5414694548,0 26.1096538603,-25.5414694548,0 26.1094097793,-25.5414734781,0 26.1091026664,-25.5414909124,0 26.1087271571,-25.5415123701,0 26.1084589362,-25.5415338278,0 26.108173281,-25.5415593088,0 26.1077736318,-25.5416022241,0 26.1074490845,-25.5416384339,0 26.1068120599,-25.5417256057,0 26.1065706611,-25.5417591333,0 26.1055769026,-25.541895926,0 26.1055675149,-25.5418972671,0 26.1052416265,-25.5419415236,0 26.1043471098,-25.5420716107,0 26.1039957404,-25.5421185493,0 26.1027364433,-25.5422875285,0 26.1024454236,-25.5423250794,0 26.1023421586,-25.5423384905,0 26.1020430923,-25.5423760414,0 26.1018486321,-25.5424028635,0 26.1013162136,-25.5424672365,0 26.1005356908,-25.5425718427,0 26.100166887,-25.5426134169,0 26.0998664796,-25.5426496267,0 26.0996545851,-25.5426724255,0 26.0993729532,-25.5426952243,0 26.0991020501,-25.542691201,0 26.0988163948,-25.5426844954,0 26.0985602438,-25.5426603556,0 26.0983684659,-25.5426308513,0 26.0981324315,-25.5425785482,0 26.0979151726,-25.5425262451,0 26.0976523161,-25.5424390733,0 26.097369343,-25.5423344672,0 26.0971494019,-25.5422499776,0 26.09686777,-25.5421453714,0 26.0966236889,-25.5420354009,0 26.0958431661,-25.5417256057,0 26.0956446826,-25.5416478217,0 26.0954971611,-25.541600883,0 26.095316112,-25.541561991,0 26.0951176286,-25.5415311456,0 26.0949003696,-25.5415230989,0 26.0946442187,-25.5415324867,0 26.0943625867,-25.5415700376,0 26.0940018296,-25.5416370928,0 26.0932092369,-25.5418154597,0 26.0924501717,-25.5419978499,0 26.0915677249,-25.54221645,0 26.0912646353,-25.5422915518,0 26.0906276107,-25.5424498022,0 26.0899583995,-25.5426120758,0 26.0892020166,-25.5427904427,0 26.0885676742,-25.5429393053,0 26.0872010887,-25.5432772636,0 26.0868228972,-25.5433751643,0 26.0863025486,-25.5434985459,0 26.0859565437,-25.5435803533,0 26.0844437778,-25.5439384282,0 26.0830101371,-25.5443005264,0 26.0829564929,-25.5443152785,0 26.0828532279,-25.5443394184,0 26.0824844241,-25.5444252491,0 26.0822094977,-25.5444869399,0 26.0819023848,-25.5445580184,0 26.0815657675,-25.5446344614,0 26.0813310742,-25.5446907878,0 26.0800556839,-25.5449858308,0 26.0790391266,-25.5452218652,0 26.0789318383,-25.544859767,0 26.0787387192,-25.5442093313,0 26.0784597695,-25.5432638526,0 26.0781848431,-25.5423223972,0 26.0779045522,-25.5413621664,0 26.0776376724,-25.5404421687,0 26.0773640871,-25.5394886434,0 26.0783927143,-25.5392673612,0 26.078491956,-25.5395878851,0 26.0786810517,-25.5401913822,0 26.0789613426,-25.5411274731,0 26.0792389512,-25.5420783162,0 26.0806377232,-25.5417443812,0 26.0807718337,-25.5417121947,0 26.0820485651,-25.5413970351,0 26.0821129382,-25.5414251983,0 26.0821156204,-25.5414305627,0
            </coordinates>
        </LineString>
        </Placemark>
  </Folder>
        </Document>
    </kml>
    