<?xml version="1.0" encoding="UTF-8"?>
    <kml xmlns="http://www.opengis.net/kml/2.2">
    <Document>
        <name>Colored Path</name>
        <Folder>
            <name>Day 8</name>
            <open>1</open>
            <Style id="blackLine">
            <LineStyle>
                <color>ff000000</color>
                <width>4</width>
            </LineStyle>
            </Style>
            <Style id="redLine">
            <LineStyle>
                <color>ff0000ff</color>
                <width>4</width>
            </LineStyle>
            </Style>
        <Placemark>
        <name>Segment 1 (True)</name>
        <styleUrl>#blackLine</styleUrl>
        <LineString>
            <tessellate>1</tessellate>
            <coordinates>
            18.899627924,-32.1728490293,0 18.8994079828,-32.1727149189,0 18.8991867006,-32.1725217998,0 18.8990150392,-32.1723675728,0 18.8983042538,-32.1715977788,0 18.8982385397,-32.1715307236,0 18.8981567323,-32.1714797616,0 18.8980762661,-32.1714422107,0 18.897973001,-32.171420753,0 18.8978630304,-32.1714274585,0 18.8977369666,-32.1714502573,0 18.897203207,-32.1716943383,0 18.8972595334,-32.1728248894,0 18.8972595334,-32.1730796993,0 18.8972434402,-32.1732969582,0 18.8972058892,-32.1734967828,0 18.8971602917,-32.1736858785,0 18.8971093297,-32.1738213301,0 18.8970637321,-32.1739219129,0 18.8969939947,-32.1740479767,0 18.8968411088,-32.1742665768,0 18.8967432082,-32.1743912995,0 18.8966305554,-32.1745119989,0 18.896355629,-32.1747413278,0 18.8961678743,-32.174859345,0 18.8960498571,-32.1749384701,0 18.8959519565,-32.1749907732,0 18.8958111405,-32.1750470996,0 18.8957092166,-32.1750833094,0 18.8955751061,-32.1751409769,0 18.8953149319,-32.1752107143,0 18.8947543502,-32.1753045917,0 18.8942608237,-32.1753904223,0 18.894097209,-32.1754159033,0 18.8937243819,-32.1754789352,0 18.8925643265,-32.1756854653,0 18.8921807706,-32.1757256985,0 18.8918830454,-32.1757726371,0 18.8917395473,-32.1757927537,0 18.8916000724,-32.1758075058,0 18.8914069533,-32.1758276224,0 18.891197741,-32.1758383512,0 18.8910502195,-32.175835669,0 18.8909174502,-32.1758235991,0 18.8908182085,-32.1758115292,0 18.8907457888,-32.1758008003,0 18.8906344771,-32.1757766604,0 18.8904601336,-32.1757377684,0 18.8902629912,-32.1756599844,0 18.8901114464,-32.1755929291,0 18.8900282979,-32.1755567193,0 18.8898512721,-32.1754789352,0 18.8894087076,-32.1752656996,0 18.8890600204,-32.1750980616,0 18.8874828815,-32.1743296087,0 18.8866969943,-32.1739031374,0 18.8863416016,-32.1737086773,0 18.8859862089,-32.1735008061,0 18.8850849867,-32.1729978919,0 18.8847362995,-32.1728047729,0 18.8838592172,-32.1723206341,0 18.8821265101,-32.1713604033,0 18.8817845285,-32.171176672,0 18.8810053468,-32.1707569063,0 18.8808014989,-32.1706683934,0 18.8805359602,-32.1705597639,0 18.8802596927,-32.1704658866,0 18.8799646497,-32.170367986,0 18.8796964288,-32.1702982485,0 18.879275322,-32.1702070534,0 18.879032582,-32.1701721847,0 18.878929317,-32.1701574326,0 18.8787093759,-32.1701440215,0 18.8785377145,-32.170137316,0 18.8781139255,-32.1701319516,0 18.8756516576,-32.1702633798,0 18.8753136992,-32.1702848375,0 18.8751152158,-32.1703156829,0 18.8748309016,-32.1703706682,0 18.8744392991,-32.1704658866,0 18.8741469383,-32.1705812216,0 18.873937726,-32.1706777811,0 18.8737794757,-32.1707636118,0 18.8736131787,-32.1708776057,0 18.8734415174,-32.1710130572,0 18.8732242584,-32.1711967885,0 18.873103559,-32.1713201702,0 18.872628808,-32.1717721224,0 18.8721781969,-32.1721529961,0 18.8719904423,-32.1723045409,0 18.8717141747,-32.1724936366,0 18.8715800643,-32.1725700796,0 18.8713574409,-32.1726880968,0 18.8711509109,-32.1727752686,0 18.8709497452,-32.1728637815,0 18.8706547022,-32.1729697287,0 18.8703328371,-32.1730569005,0 18.8700579107,-32.1731239557,0 18.8698661327,-32.17315346,0 18.8695093989,-32.1731829643,0 18.8691177964,-32.1731977165,0 18.8687717915,-32.1731883287,0 18.8686041534,-32.1731775999,0 18.8682313263,-32.1731521189,0 18.8682326674,-32.1735598147,0 18.8682326674,-32.173909843,0 18.8682326674,-32.1742303669,0 18.8682326674,-32.1747238934,0 18.8682380319,-32.1751557291,0 18.8682380319,-32.1754977107,0 18.8682420552,-32.175822258,0 18.8682474196,-32.1759898961,0 18.868252784,-32.176142782,0 18.8682675362,-32.1763144433,0 18.8682836294,-32.1764928102,0 18.868329227,-32.1768508852,0 18.8682876527,-32.1770574152,0 18.8684472442,-32.1773310006,0 18.8685075939,-32.1774342656,0 18.8685666025,-32.1775335073,0 18.8692827523,-32.1787901223,0 18.8698795438,-32.179838866,0 18.8703931868,-32.1807387471,0 18.8707096875,-32.1812725067,0 18.8710020483,-32.1818800271,0 18.8712179661,-32.1823292971,0 18.8713225722,-32.1825760603,0 18.8714043796,-32.1827839315,0 18.8714754581,-32.1828281879,0 18.8715103269,-32.182919383,0 18.8716310263,-32.1832734346,0 18.8717329502,-32.183636874,0 18.8718160987,-32.1839801967,0 18.8718938828,-32.1843087673,0 18.8719166815,-32.1844281256,0 18.8719663024,-32.184703052,0 18.8720199466,-32.1851509809,0 18.8720735908,-32.1856163442,0 18.8720816374,-32.1857705712,0 18.8720360398,-32.1858336031,0 18.8720548153,-32.1867093444,0 18.8720843196,-32.1874670684,0 18.8720883429,-32.1875824034,0 18.8721245527,-32.1881617606,0 18.8721393049,-32.1883334219,0 18.8721647859,-32.1886244416,0 18.8722211123,-32.1890482306,0 18.8723230362,-32.189643681,0 18.8724303246,-32.1901506186,0 18.8725429773,-32.1906173229,0 18.8733650744,-32.1938681602,0 18.8737285137,-32.1954077482,0 18.8737459481,-32.1955271065,0 18.8738250732,-32.195995152,0 18.8738666475,-32.1963894367,0 18.8738813996,-32.1967743337,0 18.873873353,-32.1968977153,0 18.8738559186,-32.197149843,0 18.8737995923,-32.197573632,0 18.8737083972,-32.19797194,0 18.8736051321,-32.1983340383,0 18.8734522462,-32.1987323463,0 18.873283267,-32.1990863979,0 18.8730338216,-32.1994847059,0 18.8727468252,-32.1998642385,0 18.8726891577,-32.1999272704,0 18.8724249601,-32.2002156079,0 18.8721902668,-32.2004261613,0 18.8717664778,-32.2007721663,0 18.8715063035,-32.2009558976,0 18.8713735342,-32.2010497749,0 18.8710825145,-32.2012268007,0 18.8707499206,-32.2014038265,0 18.8703006506,-32.2015982866,0 18.8698205352,-32.2017632425,0 18.8692881167,-32.2019188106,0 18.8685531914,-32.2020918131,0 18.8672979176,-32.2023238242,0 18.8673314452,-32.2024378181,0 18.8671168685,-32.2024807334,0 18.866725266,-32.202578634,0 18.8662679493,-32.2027033567,0 18.8661123812,-32.2027543187,0 18.8657677174,-32.2028535604,0 18.8653546572,-32.2029849887,0 18.8648933172,-32.2031714022,0 18.864710927,-32.2032397985,0 18.8645392656,-32.2032666206,0 18.8643971086,-32.2032491863,0 18.8642294705,-32.2030641139,0 18.8641342521,-32.2030989826,0 18.8637198508,-32.2032625973,0 18.8631780446,-32.2035174072,0 18.8628937304,-32.2036769986,0 18.8627435267,-32.2037641704,0 18.8623814285,-32.2039841115,0 18.8617269695,-32.2044561803,0 18.8615767658,-32.2045809031,0 18.861297816,-32.2048142552,0 18.86095047,-32.2051522136,0 18.8606339693,-32.2055156529,0 18.8602866232,-32.2059515119,0 18.8600412011,-32.2063189745,0 18.8597863913,-32.2067736089,0 18.8596174121,-32.2071062028,0 18.8594792783,-32.2074428201,0 18.8593357801,-32.2078451514,0 18.8592191041,-32.2082689404,0 18.8590501249,-32.2089515626,0 18.8585391641,-32.2115881741,0 18.8583701849,-32.2123499215,0 18.8582333922,-32.2128729522,0 18.8580952585,-32.2132873535,0 18.8578900695,-32.2138184309,0 18.857640624,-32.2143937647,0 18.857293278,-32.215089798,0 18.8570733368,-32.2154653072,0 18.8568641245,-32.2157818079,0 18.8565824926,-32.216168046,0 18.85620296,-32.2166883945,0 18.8557684422,-32.2171939909,0 18.8548310101,-32.2182762623,0 18.8530473411,-32.2205065191,0 18.8527804613,-32.2208404541,0 18.8526195288,-32.2210563719,0 18.8524961472,-32.2212508321,0 18.8523687422,-32.2214627266,0 18.852225244,-32.2217349708,0 18.852108568,-32.2219897807,0 18.8519757986,-32.2223263979,0 18.8518631458,-32.2226509452,0 18.8517960906,-32.2228842974,0 18.8517451286,-32.2231216729,0 18.8516941667,-32.2234207392,0 18.8516445458,-32.2238217294,0 18.8516123593,-32.2244399786,0 18.8515949249,-32.22529158,0 18.8515788317,-32.2254887223,0 18.8515627384,-32.2256322205,0 18.8515546918,-32.2258038819,0 18.8515359163,-32.2259809077,0 18.8514447212,-32.2263765335,0 18.8513669372,-32.226678282,0 18.8512730598,-32.2269813716,0 18.8511510193,-32.2272817791,0 18.8504764438,-32.2287771106,0 18.8503329456,-32.2291311622,0 18.8502082229,-32.2294583917,0 18.8500727713,-32.2298768163,0 18.8499855995,-32.2302255034,0 18.8499212265,-32.2305232286,0 18.8498702645,-32.2308437526,0 18.8498447835,-32.2311092913,0 18.8498367369,-32.2313708067,0 18.8498367369,-32.2316403687,0 18.8498394191,-32.2316873074,0 18.849850148,-32.2318764031,0 18.8498729467,-32.2321003675,0 18.8499064744,-32.232375294,0 18.849940002,-32.2326113284,0 18.8499721885,-32.2328111529,0 18.8500754535,-32.2333019972,0 18.8501492143,-32.2336372733,0 18.850197494,-32.23386392,0 18.8503181934,-32.2344754636,0 18.8504858315,-32.2353029251,0 18.8505783677,-32.2357280552,0 18.8506346941,-32.2359721363,0 18.8506628573,-32.2360914946,0 18.8507929444,-32.2366212308,0 18.8508747518,-32.2369618714,0 18.8510383666,-32.2376404703,0 18.8512703776,-32.238509506,0 18.8515587151,-32.2395166755,0 18.8520978391,-32.2414800525,0 18.8525551558,-32.2430773079,0 18.8529360294,-32.2443674505,0 18.8534617424,-32.2462892532,0 18.8536763191,-32.2469772398,0 18.8538452983,-32.2474211454,0 18.8539834321,-32.2477550805,0 18.8541470468,-32.24808231,0 18.854534626,-32.2488132119,0 18.8552708924,-32.2501261532,0 18.8557510078,-32.2509254515,0 18.8560929894,-32.2514364123,0 18.8563129306,-32.2517301142,0 18.8566911221,-32.2522437572,0 18.8569459319,-32.2525468469,0 18.8572020829,-32.2528351843,0 18.857523948,-32.253190577,0 18.857947737,-32.253626436,0 18.8585659862,-32.2542527318,0 18.8593062758,-32.2549836338,0 18.8597260416,-32.2553765774,0 18.8601350784,-32.2557601333,0 18.8605481386,-32.2561624646,0 18.8610483706,-32.2566600144,0 18.8614574075,-32.257065028,0 18.8618865609,-32.2574807703,0 18.862208426,-32.2577865422,0 18.8625718653,-32.2581365705,0 18.8630010188,-32.2585308552,0 18.8633577526,-32.2588406503,0 18.8636903465,-32.2590914369,0 18.8640792668,-32.2593811154,0 18.864390403,-32.2595849633,0 18.8649469614,-32.2599175572,0 18.8654324412,-32.2602058947,0 18.8658776879,-32.2604781389,0 18.8663591444,-32.2607289255,0 18.8671128452,-32.2611768544,0 18.8678357005,-32.2616891563,0 18.8681575656,-32.2619386017,0 18.868919313,-32.2626104951,0 18.8695067167,-32.263173759,0 18.8697937131,-32.2634446621,0 18.8706466556,-32.264277488,0 18.8709323108,-32.2645282745,0 18.8715291023,-32.2649735212,0 18.871948868,-32.2652310133,0 18.8727280498,-32.2656400502,0 18.8735340536,-32.2660370171,0 18.8737486303,-32.2661603987,0 18.874578774,-32.2665935755,0 18.8755872846,-32.2672010958,0 18.8762699068,-32.2676181793,0 18.87651667,-32.2677925229,0 18.8767942786,-32.2680231929,0 18.8773776591,-32.2684670985,0 18.8781367242,-32.2690947354,0 18.8787201047,-32.2696231306,0 18.8793477416,-32.2701863945,0 18.8799257576,-32.270693332,0 18.8806083798,-32.2713115811,0 18.8811649382,-32.271822542,0 18.8816075027,-32.2722288966,0 18.8819602132,-32.2725333273,0 18.8829807937,-32.2734197974,0 18.8836285472,-32.2739951313,0 18.8839544356,-32.2742727399,0 18.8844372332,-32.2747005522,0 18.8846410811,-32.2748963535,0 18.8850581646,-32.275274545,0 18.88599962,-32.2761194408,0 18.8866192102,-32.276673317,0 18.8870376348,-32.2770448029,0 18.8878811896,-32.2778427601,0 18.8882808387,-32.2782531381,0 18.8885772228,-32.2785696387,0 18.8887354732,-32.2787332535,0 18.8890090585,-32.2790269554,0 18.8891673088,-32.2791798413,0 18.889349699,-32.2793877125,0 18.8897520304,-32.2798490524,0 18.8904118538,-32.2806429863,0 18.8909952343,-32.2813645005,0 18.8917529583,-32.2824293375,0 18.8925509155,-32.2836081684,0 18.8929250836,-32.2842290998,0 18.8934655488,-32.2850739956,0 18.8944981992,-32.2866269946,0 18.89523983,-32.2877790034,0 18.8960069418,-32.2889712453,0 18.8968075812,-32.2902037203,0 18.8971160352,-32.2906985879,0 18.8974446058,-32.2911947966,0 18.8979488611,-32.2920048237,0 18.8980400562,-32.2921590507,0 18.8984692097,-32.2928269207,0 18.8992711902,-32.2940298915,0 18.8997633755,-32.2948278487,0 18.9003360271,-32.2957035899,0 18.9009073377,-32.2965753078,0 18.9011098444,-32.2969253361,0 18.9013512433,-32.2973062098,0 18.9019829035,-32.2982664406,0 18.9024697244,-32.2990228236,0 18.9030705392,-32.2999468446,0 18.9034675062,-32.3005758226,0 18.9044009149,-32.3020081222,0 18.904915899,-32.3027953506,0 18.90495345,-32.3028516769,0 18.9052592218,-32.3033224046,0 18.9056964219,-32.3039969802,0 18.9059217274,-32.3043429852,0 18.9061832428,-32.3047319055,0 18.9063629508,-32.3050296307,0 18.9065372944,-32.3052884638,0 18.9065654576,-32.3053273559,0 18.9067921042,-32.3056975007,0 18.9070884883,-32.3061427474,0 18.907250762,-32.3063988984,0 18.9077241719,-32.3071432114,0 18.9082700014,-32.3079773784,0 18.9085261524,-32.3083984852,0 18.9085865021,-32.3084802926,0 18.9088721573,-32.3089818656,0 18.9091108739,-32.3094297945,0 18.9092342556,-32.3096859455,0 18.909317404,-32.309858948,0 18.9099007845,-32.3112724721,0 18.9100939035,-32.3117606342,0 18.9104251564,-32.3125948012,0 18.9115302265,-32.3154969513,0 18.9120022953,-32.3167562485,0 18.9122115076,-32.3172189295,0 18.9123670757,-32.3175904155,0 18.9123952389,-32.3176507652,0 18.9125226438,-32.3178881407,0 18.9125816524,-32.3179994524,0 18.9126889408,-32.3182059824,0 18.9130148292,-32.3187303543,0 18.9131838083,-32.3189556599,0 18.9134788513,-32.3193700612,0 18.9137403667,-32.319726795,0 18.9139509201,-32.3199695349,0 18.9139924943,-32.3200124502,0 18.9141775668,-32.3202042282,0 18.9144591987,-32.3204939067,0 18.9148400724,-32.3208372295,0 18.9164091647,-32.3222561181,0 18.9176040888,-32.3233196139,0 18.9182893932,-32.3239177465,0 18.9200274646,-32.3254694045,0 18.9210802317,-32.3264189065,0 18.9211861789,-32.3265221715,0 18.9215482771,-32.3268467188,0 18.9217507839,-32.3270492256,0 18.9222469926,-32.3275977373,0 18.922830373,-32.3283460736,0 18.9231012762,-32.3288007081,0 18.9232715964,-32.3290555179,0 18.9235264063,-32.3295114934,0 18.9237289131,-32.329916507,0 18.923842907,-32.3301807046,0 18.9239542186,-32.3304529488,0 18.9242331684,-32.3312039673,0 18.924471885,-32.3320998251,0 18.9245805144,-32.3325316608,0 18.9247253537,-32.3331807554,0 18.9248165488,-32.3335750401,0 18.9248809218,-32.3338674009,0 18.9249815047,-32.3346224427,0 18.9249479771,-32.3353506625,0 18.924883604,-32.3356872797,0 18.924819231,-32.3360386491,0 18.9245697856,-32.3367038369,0 18.9244504273,-32.3369452357,0 18.9243860543,-32.3370847106,0 18.9241942763,-32.3375353217,0 18.9240735769,-32.3378705978,0 18.9239756763,-32.3383828998,0 18.9239488542,-32.3386216164,0 18.9239180088,-32.3389944434,0 18.923932761,-32.3390775919,0 18.9240293205,-32.3396354914,0 18.9241366088,-32.3399989307,0 18.9242237806,-32.3403167725,0 18.924305588,-32.3405072093,0 18.9244034886,-32.3406668007,0 18.9245778322,-32.3409484327,0 18.924946636,-32.3414567113,0 18.9252644777,-32.3418858647,0 18.9257700741,-32.3425604403,0 18.9277750254,-32.3453338444,0 18.9281854033,-32.3458769917,0 18.9283704758,-32.3461411893,0 18.9289498329,-32.3469096422,0 18.929810822,-32.3480093479,0 18.9304880798,-32.3489172757,0 18.9308783412,-32.3494416475,0 18.9318922162,-32.3508377373,0 18.9326070249,-32.3518207669,0 18.9330509305,-32.3524323106,0 18.9346173406,-32.3545901477,0 18.9349338412,-32.3550474644,0 18.9352610707,-32.3556415737,0 18.9356258512,-32.3562839627,0 18.9359155297,-32.356929034,0 18.9362253249,-32.3575754464,0 18.93630445,-32.3577390611,0 18.9364680648,-32.3580984771,0 18.9367054403,-32.3586201668,0 18.9374148846,-32.3600028455,0 18.9376160502,-32.3604212701,0 18.9379271865,-32.3610717058,0 18.9384488761,-32.3622183502,0 18.9385119081,-32.3622585833,0 18.93857494,-32.362395376,0 18.9388351142,-32.3629438877,0 18.9390711486,-32.3634763062,0 18.9391167462,-32.3635755479,0 18.9392669499,-32.3638960719,0 18.9394252002,-32.3642031848,0 18.9396451414,-32.3646457493,0 18.9397443831,-32.3648536205,0 18.9402191341,-32.3658782244,0 18.9402459562,-32.3659466207,0 18.9402365685,-32.3660002649,0 18.940577209,-32.3666855693,0 18.9406576753,-32.3669175804,0 18.9407247305,-32.3671348393,0 18.9407891035,-32.3673333228,0 18.9408829808,-32.3677933216,0 18.940936625,-32.3682399094,0 18.9409473538,-32.3684759438,0 18.9409446716,-32.3687656224,0 18.9409580827,-32.3690257967,0 18.9409714937,-32.3693154752,0 18.940987587,-32.3697915673,0 18.9409902692,-32.3702515662,0 18.9410117269,-32.3707155883,0 18.9410492778,-32.371006608,0 18.9410921931,-32.3712895811,0 18.9411941171,-32.3716557026,0 18.9413040876,-32.3719842732,0 18.9414462447,-32.3723651469,0 18.9416688681,-32.3729471862,0 18.9420390129,-32.3737719655,0 18.9422187209,-32.3741649091,0 18.9423689246,-32.3745390773,0 18.9425486326,-32.3749655485,0 18.942784667,-32.3755154014,0 18.9431521297,-32.3763079941,0 18.9435169101,-32.3771327734,0 18.9442008734,-32.3787246644,0 18.944683671,-32.3798324168,0 18.9448982477,-32.3803634942,0 18.9451020956,-32.3808342218,0 18.9454185963,-32.3815087974,0 18.9460730553,-32.3830403388,0 18.9466953278,-32.3844565451,0 18.9468804002,-32.3849138618,0 18.9471513033,-32.3855133355,0 18.9474892616,-32.3863112926,0 18.9479881525,-32.3874619603,0 18.9481276274,-32.3878468573,0 18.9483529329,-32.3885442317,0 18.9486694336,-32.3894414306,0 18.9488625526,-32.3900395632,0 18.9492380619,-32.3911446333,0 18.9496672153,-32.3924481869,0 18.9498871565,-32.3931992054,0 18.9499354362,-32.3933936656,0 18.9499649405,-32.3936069012,0 18.9499756694,-32.393771857,0 18.9500159025,-32.394541651,0 18.9500159025,-32.3946905136,0 18.9500159025,-32.3948715627,0 18.9500373602,-32.3950713873,0 18.9500588179,-32.3952390254,0 18.9501607418,-32.3957875371,0 18.9502251148,-32.3960450292,0 18.9503645897,-32.3964393139,0 18.9505362511,-32.3968470097,0 18.950638175,-32.3970468342,0 18.9510136843,-32.3975859582,0 18.9513167739,-32.3979882896,0 18.9515206218,-32.3982350528,0 18.9516600966,-32.3984026909,0 18.9518210292,-32.3985891044,0 18.9520221949,-32.3988291621,0 18.9522877336,-32.3991389573,0 18.9526417851,-32.399558723,0 18.9529073238,-32.3998725414,0 18.9531433582,-32.400148809,0 18.9533498883,-32.4003848433,0 18.9535403252,-32.4006061256,0 18.9537119865,-32.4008126557,0 18.9539372921,-32.4010567367,0 18.9541652799,-32.4013182521,0 18.9542403817,-32.4014134705,0 18.9543288946,-32.4015301466,0 18.954500556,-32.4017930031,0 18.9545702934,-32.4019083381,0 18.9546614885,-32.4020987749,0 18.954731226,-32.4022825062,0 18.9548009634,-32.4025091529,0 18.9548519254,-32.4026928842,0 18.9548707008,-32.4028511345,0 18.9548787475,-32.4029932916,0 18.9548867941,-32.4031434953,0 18.9549002051,-32.4035190046,0 18.9549055696,-32.4037483335,0 18.954910934,-32.4038971961,0 18.9549377561,-32.4041506648,0 18.9549833536,-32.4043679237,0 18.9550986886,-32.4046763778,0 18.955155015,-32.4048118293,0 18.9552488923,-32.4049888551,0 18.9554178715,-32.4052718282,0 18.9555519819,-32.4055024981,0 18.9558067918,-32.4058967829,0 18.9560160041,-32.4062092602,0 18.9562466741,-32.4065552652,0 18.9564746618,-32.4069066346,0 18.9567160606,-32.4072660506,0 18.956874311,-32.407515496,0 18.9570620656,-32.4078266323,0 18.9571586251,-32.4079848826,0 18.9572229981,-32.4081203341,0 18.9573061466,-32.408336252,0 18.9573946595,-32.4085870385,0 18.9574617147,-32.408824414,0 18.95752877,-32.4090966582,0 18.9576092362,-32.4094198644,0 18.9578291774,-32.4104189873,0 18.9581134915,-32.4117507041,0 18.9581939578,-32.412237525,0 18.9582234621,-32.4124588072,0 18.9582315087,-32.4127015471,0 18.9582046866,-32.4131387472,0 18.958145678,-32.4134673178,0 18.9580732584,-32.4137449265,0 18.9579901099,-32.4140265584,0 18.9578318596,-32.4144020677,0 18.9576682448,-32.4148955941,0 18.957542181,-32.415330112,0 18.9573544264,-32.4160274863,0 18.9571774006,-32.4166846275,0 18.9569655061,-32.41753757,0 18.9567442238,-32.4183931947,0 18.9565269649,-32.4191790819,0 18.9564357698,-32.4195572734,0 18.9563687146,-32.4197933078,0 18.9563392103,-32.4199461937,0 18.9563043416,-32.4202251434,0 18.9562962949,-32.4205040932,0 18.9562922716,-32.4206542969,0 18.9563190937,-32.4209064245,0 18.9563606679,-32.421245724,0 18.9564518631,-32.4216614664,0 18.9566369355,-32.4226203561,0 18.9567697048,-32.4233163893,0 18.9569158852,-32.424121052,0 18.9570406079,-32.4248184264,0 18.9571867883,-32.4255801737,0 18.9573061466,-32.4265283346,0 18.9573061466,-32.4269507825,0 18.9572753012,-32.4273262918,0 18.9572042227,-32.4277661741,0 18.9571170509,-32.4281027913,0 18.9569480717,-32.4285078049,0 18.9568769932,-32.4286794662,0 18.9567415416,-32.4289262295,0 18.9565967023,-32.429189086,0 18.9561957121,-32.4297791719,0 18.9561058581,-32.4299132824,0 18.9554674923,-32.4308533967,0 18.9552985132,-32.4311162531,0 18.9551603794,-32.4313884974,0 18.9550329745,-32.4316902459,0 18.9549511671,-32.4319879711,0 18.9548693597,-32.4323326349,0 18.9548076689,-32.4326692522,0 18.9547821879,-32.4330608547,0 18.9547728002,-32.4334618449,0 18.9548331499,-32.4339580536,0 18.9549203217,-32.4343121052,0 18.9550074935,-32.4346138537,0 18.9552167058,-32.4351489544,0 18.9559449255,-32.4366818368,0 18.9559529722,-32.436696589,0 18.95683676,-32.4384386837,0 18.9570714533,-32.4389174581,0 18.9572350681,-32.4392795563,0 18.957438916,-32.4397623539,0 18.9576078951,-32.4401968718,0 18.9577808976,-32.4407453835,0 18.9579445124,-32.4413099885,0 18.9581389725,-32.44212538,0 18.9582154155,-32.442651093,0 18.9583079517,-32.4433712661,0 18.9583589137,-32.4442724884,0 18.9584206045,-32.4464531243,0 18.9584608376,-32.4471907318,0 18.958517164,-32.4478197098,0 18.9585936069,-32.4484795332,0 18.9586700499,-32.4491219223,0 18.9587625861,-32.4497428536,0 18.9588966966,-32.4505488575,0 18.9591045678,-32.4517907202,0 18.9595672488,-32.4547089636,0 18.9597094059,-32.4554076791,0 18.9609566331,-32.4632169306,0 18.9618068933,-32.4686229229,0 18.9624774456,-32.4728661776,0 18.9625900984,-32.4734951556,0 18.9628717303,-32.4753364921,0 18.9631305635,-32.4770075083,0 18.9639379084,-32.4821613729,0 18.9642852545,-32.4843460321,0 18.9648471773,-32.4878771603,0 18.9649745822,-32.4887166917,0 18.9651368558,-32.4897104502,0 18.9658342302,-32.4940301478,0 18.9659455419,-32.4947234988,0 18.9665906131,-32.4987789989,0 18.966743499,-32.4997620285,0 18.9668601751,-32.5006243587,0 18.9669446647,-32.501231879,0 18.9669714868,-32.5016342103,0 18.967013061,-32.502015084,0 18.9670667052,-32.5028599799,0 18.9670921862,-32.5036217272,0 18.9671082795,-32.5042828918,0 18.9671297371,-32.5056038797,0 18.9671511948,-32.5071635842,0 18.9671713114,-32.5078569353,0 18.9671766758,-32.5082793832,0 18.9671820402,-32.508649528,0 18.9672195911,-32.5090572238,0 18.9672826231,-32.5097224116,0 18.9673778415,-32.5104680657,0 18.9673992991,-32.5106585026,0 18.9674408734,-32.5108650327,0 18.9674569666,-32.5110031664,0 18.9675146341,-32.5112459064,0 18.9676849544,-32.5118748844,0 18.9678217471,-32.5123241544,0 18.9679813385,-32.5128149986,0 18.9681704342,-32.5132709742,0 18.9682924747,-32.513576746,0 18.9684990048,-32.5141064823,0 18.9686264098,-32.5144055486,0 18.9687846601,-32.5148145854,0 18.9688785374,-32.5150573254,0 18.9690475166,-32.5154663622,0 18.9691977203,-32.5157748163,0 18.9695289731,-32.5163528323,0 18.9696161449,-32.5165043771,0 18.9697690308,-32.5167632103,0 18.9699541032,-32.51705423,0 18.9702129364,-32.5174927711,0 18.9705616236,-32.5180640817,0 18.970811069,-32.5184717774,0 18.9711812139,-32.5191637874,0 18.9713233709,-32.5194494426,0 18.9715191722,-32.5199148059,0 18.9716385305,-32.5201562047,0 18.9718021452,-32.5205746293,0 18.9719684422,-32.5210614502,0 18.9721293747,-32.5215563178,0 18.9722621441,-32.5220860541,0 18.9724177122,-32.5226962566,0 18.9725746214,-32.5235129893,0 18.9727033675,-32.5242237747,0 18.9729997516,-32.5257633626,0 18.9732585847,-32.5271956623,0 18.9733698964,-32.5277401507,0 18.9734919369,-32.5283382833,0 18.9735858142,-32.5289082527,0 18.9736555517,-32.529283762,0 18.9737668633,-32.5298282504,0 18.9738982916,-32.5304371119,0 18.9739613235,-32.530733496,0 18.9740431309,-32.5310003757,0 18.9741115272,-32.531221658,0 18.9741893113,-32.5315153599,0 18.9742738008,-32.5317849219,0 18.9743958414,-32.5321604311,0 18.9745956659,-32.532710284,0 18.9748236537,-32.5333084166,0 18.9750315249,-32.5338555872,0 18.9756242931,-32.5354461372,0 18.9759756625,-32.5363795459,0 18.9761137962,-32.5367282331,0 18.9765121043,-32.537830621,0 18.9767105877,-32.5383630395,0 18.9770713449,-32.539319247,0 18.9776305854,-32.5408159196,0 18.9780811965,-32.5420537591,0 18.9784137905,-32.5429147482,0 18.97874102,-32.5438039005,0 18.9788362384,-32.5440251827,0 18.9793498814,-32.5454051793,0 18.9798246324,-32.5466644764,0 18.9802846313,-32.547917068,0 18.9805608988,-32.5486305356,0 18.9807191491,-32.549059689,0 18.9809887111,-32.5497785211,0 18.9812958241,-32.5505872071,0 18.981718272,-32.5517244637,0 18.9823633432,-32.5534786284,0 18.9825591445,-32.553986907,0 18.9828595519,-32.5547634065,0 18.98324579,-32.5557893515,0 18.9836266637,-32.5568367541,0 18.9838385582,-32.5574094057,0 18.9840920269,-32.558093369,0 18.9842502773,-32.5585265458,0 18.9845949411,-32.5594867766,0 18.9846660197,-32.5595390797,0 18.9848510921,-32.5601050258,0 18.9849691093,-32.5604470074,0 18.9850696921,-32.5608050823,0 18.9851514995,-32.5610974431,0 18.9851970971,-32.5612583756,0 18.985234648,-32.5613898039,0 18.9854009449,-32.5620013475,0 18.9854317904,-32.5621341169,0 18.9855189621,-32.5625123084,0 18.9857067168,-32.563444376,0 18.9856731892,-32.5635074079,0 18.9857308567,-32.5638601184,0 18.9859588444,-32.5654292107,0 18.9860446751,-32.5660890341,0 18.9861063659,-32.5665450096,0 18.986299485,-32.5679558516,0 18.9863464236,-32.5683689117,0 18.9864362776,-32.5691360235,0 18.9865301549,-32.5698642433,0 18.9866039157,-32.5703765452,0 18.9867044985,-32.5711490214,0 18.9867983758,-32.5719054043,0 18.9868104458,-32.5720314682,0 18.9868694544,-32.5723600388,0 18.9869217575,-32.5727556646,0 18.986953944,-32.5731003284,0 18.9870746434,-32.5739988685,0 18.9871390164,-32.5744695961,0 18.9872020483,-32.5749564171,0 18.9872503281,-32.5753574073,0 18.9873763919,-32.57640481,0 18.9874447882,-32.5768916309,0 18.9875145257,-32.5774253905,0 18.9875990152,-32.5780449808,0 18.9876781404,-32.5786685944,0 18.9877465367,-32.5792077184,0 18.9878122509,-32.579793781,0 18.9878900349,-32.5803717971,0 18.9879637957,-32.5809323788,0 18.9880268276,-32.581423223,0 18.9881542325,-32.5823016465,0 18.9883258939,-32.5834040344,0 18.9885981381,-32.5856544077,0 18.9886651933,-32.5860983133,0 18.9887577295,-32.5867916644,0 18.9888422191,-32.5874367356,0 18.9889481664,-32.5883044302,0 18.9890272915,-32.589007169,0 18.9891533554,-32.590033114,0 18.9892539382,-32.5906889141,0 18.9893223345,-32.5912548602,0 18.9893974364,-32.5918623805,0 18.989534229,-32.5928252935,0 18.9896669984,-32.5938995183,0 18.9897407591,-32.594512403,0
            </coordinates>
        </LineString>
        </Placemark>
    <Placemark>
        <name>Segment 2 (False)</name>
        <styleUrl>#redLine</styleUrl>
        <LineString>
            <tessellate>1</tessellate>
            <coordinates>
            18.9897407591,-32.594512403,0 18.9898091555,-32.5950407982,0 18.9898373187,-32.5952929258,0 18.9899271727,-32.5961056352,0 18.9899405837,-32.5962290168,0 18.989956677,-32.5963872671,0 18.9899915457,-32.5967533886,0 18.9900559187,-32.5972375274,0 18.9900934696,-32.5972831249,0 18.9901793003,-32.5979845226,0 18.9902852476,-32.5987744331,0 18.9902959764,-32.5988803804,0 18.9903174341,-32.5990721583,0 18.9903402328,-32.5992639363,0 18.9903657138,-32.5994691253,0 18.9903965592,-32.59963274,0 18.9904274046,-32.5998392701,0 18.9904944599,-32.6002751291,0 18.9905105531,-32.6004159451,0 18.9905239642,-32.6005876064,0 18.9905266464,-32.6008102298,0 18.9905172586,-32.6009604335,0 18.9905038476,-32.6011025906,0 18.9904676378,-32.6012930274,0 18.9904032648,-32.6015397906,0 18.9903067052,-32.601826787,0 18.99023965,-32.6019904017,0 18.990188688,-32.602096349,0 18.9900250733,-32.6024021208,0 18.9898467064,-32.6027186215,0 18.9896227419,-32.6030619442,0 18.9896200597,-32.6030673087,0 18.9895288646,-32.6032054424,0 18.9893102646,-32.603520602,0 18.9891560376,-32.6037177444,0 18.9889776707,-32.6039282978,0 18.9887148142,-32.6042112708,0 18.9886732399,-32.6042515039,0 18.9885632694,-32.6043587923,0 18.9885257185,-32.60436818,0 18.9884103835,-32.604470104,0 18.9882065356,-32.6046256721,0 18.987930268,-32.6047959924,0 18.9876566827,-32.6049260795,0 18.9873723686,-32.6050306857,0 18.987159133,-32.6050856709,0 18.986928463,-32.6051272452,0 18.9867192507,-32.6051446795,0 18.9864872396,-32.6051433384,0 18.9861090481,-32.6051205397,0 18.9857791364,-32.6050910354,0 18.9854639769,-32.6050682366,0 18.9850710332,-32.605034709,0 18.9848430455,-32.6050306857,0 18.9847692847,-32.6050320268,0 18.984644562,-32.605034709,0 18.9844568074,-32.6050548255,0 18.9842610061,-32.6051071286,0 18.9841027558,-32.6051661372,0 18.9839445055,-32.6052546501,0 18.983759433,-32.6053807139,0 18.9836467803,-32.6054920256,0 18.9835824072,-32.6055684686,0 18.98347646,-32.6057173312,0 18.9833839238,-32.6058889925,0 18.9833021164,-32.606061995,0 18.9832055569,-32.6063476503,0 18.983130455,-32.606677562,0 18.9829427004,-32.6076485217,0 18.9828675985,-32.6079382002,0 18.9828206599,-32.6081192493,0 18.9827495813,-32.6082587242,0 18.9826744795,-32.6083941758,0 18.9825457335,-32.6085524261,0 18.9823740721,-32.6087146997,0 18.9821702242,-32.608846128,0 18.9819341898,-32.608935982,0 18.9817249775,-32.6089856029,0 18.9814889431,-32.6090084016,0 18.9812743664,-32.6089990139,0 18.9810705185,-32.6089628041,0 18.9807808399,-32.6088689268,0 18.9805930853,-32.6087737083,0 18.9803892374,-32.6086422801,0 18.9800405502,-32.6082989573,0 18.9797629416,-32.6080334187,0 18.9790695906,-32.6072354615,0 18.9786860347,-32.6068519056,0 18.9784473181,-32.6066185534,0 18.9782273769,-32.6064831018,0 18.9780074358,-32.6063878834,0 18.9778196812,-32.6063328981,0 18.9776158333,-32.6062966883,0 18.9774012566,-32.6062966883,0 18.9771866798,-32.6063248515,0 18.9769881964,-32.6063919067,0 18.9768379927,-32.6064643264,0 18.9767038822,-32.6065461338,0 18.9765536785,-32.606677562,0 18.9764410257,-32.6068130136,0 18.9763659239,-32.6069404185,0 18.9763270319,-32.6070396602,0 18.9762800932,-32.607228756,0 18.9762425423,-32.6074366271,0 18.9762465656,-32.6082520187,0 18.9762371778,-32.6085296273,0 18.9762210846,-32.6088005304,0 18.9761781693,-32.6089681685,0 18.9761245251,-32.6091358066,0 18.9760601521,-32.6092484593,0 18.9759743214,-32.6093704998,0 18.9758294821,-32.6095287502,0 18.975673914,-32.6096507907,0 18.9755290747,-32.6097232103,0 18.97534132,-32.6098036766,0 18.9751911163,-32.6098398864,0 18.9750409126,-32.6098667085,0 18.9748263359,-32.609885484,0 18.9746063948,-32.6098814607,0 18.9743381739,-32.6098532975,0 18.9739573002,-32.6097996533,0 18.97354424,-32.6097406447,0 18.9732760191,-32.6097366214,0 18.9730292559,-32.6097580791,0 18.9728415012,-32.6098130643,0 18.9726537466,-32.609885484,0 18.9724767208,-32.6099659503,0 18.9723426104,-32.6100571454,0 18.9722084999,-32.6102019846,0 18.9721226692,-32.6102824509,0 18.9720636606,-32.6103964448,0 18.9720261097,-32.6104970276,0 18.9719724655,-32.6105935872,0 18.9719469845,-32.610668689,0 18.9719215035,-32.6108014584,0 18.9718987048,-32.6110160351,0 18.9718933403,-32.6115471125,0 18.9718919992,-32.6117429137,0 18.9718705416,-32.6119226217,0 18.9718168974,-32.6121036708,0 18.9717417955,-32.6122887433,0 18.9716345072,-32.6124295592,0 18.9714735746,-32.6125958562,0 18.9712697268,-32.6127541065,0 18.9710175991,-32.6128681004,0 18.970797658,-32.6129485667,0 18.9705455303,-32.6130075753,0 18.9702022076,-32.6130571961,0 18.9696711302,-32.6130799949,0 18.9692151546,-32.613106817,0 18.9689791203,-32.6131430268,0 18.9686948061,-32.6131886244,0 18.9684104919,-32.613261044,0 18.9681208134,-32.6133602858,0 18.9678794146,-32.6134461164,0 18.9676272869,-32.6135641336,0 18.9672464132,-32.6137626171,0 18.9669406414,-32.6139248908,0 18.9666026831,-32.6140871644,0 18.9662915468,-32.6142279804,0 18.966050148,-32.6142950356,0 18.965819478,-32.6143580675,0 18.9655780792,-32.6143862307,0 18.9653849602,-32.6143996418,0 18.965100646,-32.6143942773,0 18.9647465944,-32.614376843,0 18.9643603563,-32.6143272221,0 18.964022398,-32.6142910123,0 18.9636951685,-32.6142776012,0 18.9634363353,-32.6143017411,0 18.9631855488,-32.6143419743,0 18.963059485,-32.6143755019,0 18.9629200101,-32.6144009829,0 18.9627416432,-32.6144881546,0 18.9626021683,-32.6145471632,0 18.9623647928,-32.6147456467,0 18.9620053768,-32.6149964333,0 18.9617586136,-32.6151493192,0 18.9616057277,-32.6152284443,0 18.9612650871,-32.6153478026,0 18.9612154663,-32.6153625548,0 18.9610666037,-32.6154068112,0 18.9608037472,-32.6154617965,0 18.9603316784,-32.6155690849,0 18.9597684145,-32.6156964898,0 18.9593070745,-32.6158413291,0 18.9588725567,-32.615994215,0 18.9585721493,-32.6161524653,0 18.9583200216,-32.6163241267,0 18.9581429958,-32.616455555,0 18.9579927921,-32.6165950298,0 18.9578586817,-32.6167264581,0 18.9577031136,-32.6169021428,0 18.9575314522,-32.6171274483,0 18.9573544264,-32.6173862815,0 18.9568501711,-32.61814937,0 18.9564210176,-32.618778348,0 18.9562708139,-32.6190076768,0 18.9559543133,-32.6194730401,0 18.9557021856,-32.6198445261,0 18.9553910494,-32.6203179359,0 18.9548921585,-32.6210461557,0 18.9545273781,-32.6215785742,0 18.954076767,-32.6222477853,0 18.9535349607,-32.6230792701,0 18.9532989264,-32.6234185696,0 18.9528000355,-32.624091804,0 18.9524513483,-32.6244847476,0 18.9523226023,-32.6246470213,0 18.9521415532,-32.6248294115,0 18.9517633617,-32.6251164079,0 18.9511102438,-32.625567019,0 18.9504826069,-32.6259116828,0 18.9496403933,-32.6264226437,0
            </coordinates>
        </LineString>
        </Placemark>
    <Placemark>
        <name>Segment 3 (True)</name>
        <styleUrl>#blackLine</styleUrl>
        <LineString>
            <tessellate>1</tessellate>
            <coordinates>
            18.9496403933,-32.6264226437,0 18.9494204521,-32.626580894,0 18.9492729306,-32.6266975701,0 18.9491254091,-32.6268517971,0 18.948969841,-32.6270636916,0 18.9488384128,-32.6273627579,0 18.94872576,-32.6276417077,0 18.9486131072,-32.6279917359,0 18.948533982,-32.6282572746,0 18.9484655857,-32.6284691691,0 18.9484119415,-32.6285912097,0 18.9483207464,-32.6287360489,0 18.9482241869,-32.6288580894,0 18.9481329918,-32.6289613545,0 18.9480310678,-32.6290337741,0 18.9478687942,-32.6291638613,0 18.9476126432,-32.6292738318,0 18.9474141598,-32.629327476,0 18.9471513033,-32.6293542981,0 18.946775794,-32.6293636858,0 18.9464700222,-32.6293770969,0 18.946158886,-32.6293770969,0 18.9459228516,-32.6294092834,0 18.9457404613,-32.6294401288,0 18.9455688,-32.6294991374,0 18.9454078674,-32.629571557,0 18.945273757,-32.629661411,0 18.94510746,-32.6297740638,0 18.9449626207,-32.6299510896,0 18.944849968,-32.6301401854,0 18.9447909594,-32.6303172112,0 18.9447373152,-32.6306243241,0 18.9447158575,-32.6309542358,0 18.9446890354,-32.6312479377,0 18.9446622133,-32.6314638555,0 18.9445924759,-32.631740123,0 18.9444905519,-32.6321330667,0 18.9444476366,-32.6324173808,0 18.9444261789,-32.6326078176,0 18.9444208145,-32.6327566803,0 18.9444261789,-32.6329149306,0 18.9444597065,-32.6330664754,0 18.9445012808,-32.6332260668,0 18.944619298,-32.633588165,0 18.9447185397,-32.6337853074,0 18.9450015128,-32.6342573762,0 18.9452174306,-32.6346248388,0 18.9453019202,-32.6347871125,0 18.9453998208,-32.6350003481,0 18.9454628527,-32.6352082193,0 18.9455285668,-32.6354201138,0 18.9455379546,-32.635461688,0 18.9456506073,-32.6359471679,0 18.9456613362,-32.6359887421,0 18.9457860589,-32.6364728808,0 18.9458987117,-32.6368363202,0 18.9461159706,-32.6372922957,0 18.9462192357,-32.6374948025,0 18.9462929964,-32.6377160847,0 18.9463292062,-32.63800174,0 18.9462889731,-32.638425529,0 18.9462836087,-32.6387500763,0 18.946287632,-32.6389217377,0 18.9462889731,-32.6390142739,0 18.9463359118,-32.639259696,0 18.946416378,-32.639554739,0 18.9465343952,-32.6398578286,0 18.9466872811,-32.6401796937,0 18.9468669891,-32.6406262815,0 18.9469528198,-32.6408837736,0 18.947006464,-32.6411131024,0 18.9470386505,-32.641248554,0 18.94713521,-32.6416642964,0 18.9471942186,-32.6419767737,0 18.947237134,-32.6421618462,0 18.9472961426,-32.6423415542,0 18.9473994076,-32.6426365972,0 18.9474932849,-32.6428645849,0 18.9476555586,-32.6432333887,0 18.9478835464,-32.6437819004,0 18.9480565488,-32.6441238821,0 18.9482188225,-32.6443639398,0 18.9484910667,-32.6448427141,0 18.9487190545,-32.6451806724,0 18.94894436,-32.6454569399,0 18.9491549134,-32.6456674933,0 18.9494204521,-32.6459155977,0 18.9497369528,-32.6461730897,0 18.9503163099,-32.6465754211,0 18.9505268633,-32.6467591524,0 18.9506542683,-32.6468771696,0 18.9507293701,-32.6469764113,0 18.9508312941,-32.6471346617,0 18.9509010315,-32.6473197341,0 18.9509493113,-32.6475638151,0 18.9509600401,-32.6478669047,0 18.9509828389,-32.6481445134,0 18.9510029554,-32.6482786238,0 18.9510405064,-32.6484368742,0 18.9510901272,-32.6485683024,0 18.9511625469,-32.6486970484,0 18.9513127506,-32.6489277184,0 18.9514482021,-32.6491181552,0 18.9516305923,-32.6493434608,0 18.9517432451,-32.6494976878,0 18.9518666267,-32.6496773958,0 18.9520007372,-32.6499536633,0 18.9521549642,-32.6502943039,0 18.9522475004,-32.650539726,0 18.9522944391,-32.6506590843,0 18.9524191618,-32.6508615911,0 18.9525961876,-32.6510828733,0 18.9527624846,-32.6512263715,0 18.9529770613,-32.6513537765,0 18.9532023668,-32.6514342427,0 18.9535242319,-32.6515120268,0 18.954039216,-32.6515750587,0 18.9544683695,-32.6516421139,0 18.9547848701,-32.6517306268,0 18.9549578726,-32.6518017054,0 18.9551389217,-32.6518955827,0 18.9553266764,-32.6520176232,0 18.9554876089,-32.6521664858,0 18.9556217194,-32.6523381472,0 18.9557236433,-32.6525460184,0 18.9557772875,-32.6527807117,0 18.9557880163,-32.6529885828,0 18.9557719231,-32.6531736553,0 18.9557129145,-32.6533855498,0 18.9555519819,-32.6537020504,0 18.9553749561,-32.6539689302,0 18.9548291266,-32.6546837389,0 18.9546641707,-32.6549425721,0 18.9545716345,-32.6551343501,0 18.9544455707,-32.6553918421,0 18.954385221,-32.6555581391,0 18.9543262124,-32.6558022201,0 18.9542926848,-32.6559872925,0 18.9542658627,-32.6563721895,0 18.9542859793,-32.6568683982,0 18.954424113,-32.6575429738,0 18.95459041,-32.6580539346,0 18.9546708763,-32.6585300267,0 18.9547231793,-32.658867985,0 18.9547406137,-32.6589752734,0 18.9547419548,-32.6591536403,0 18.9547164738,-32.6598872244,0 18.9546963573,-32.6603767276,0 18.9547030628,-32.6606422663,0 18.9547258615,-32.6608246565,0 18.9547795057,-32.6610057056,0 18.9549458027,-32.6614925265,0 18.9551791549,-32.6620383561,0 18.9553642273,-32.662499696,0 18.9554822445,-32.6628470421,0 18.9555734396,-32.6632547379,0 18.9555948973,-32.6635792851,0 18.9555841684,-32.6641076803,0 18.9554929733,-32.665002197,0 18.9553749561,-32.6663956046,0 18.9551442862,-32.6687814295,0 18.9550584555,-32.6693500578,0 18.9548707008,-32.6699924469,0 18.9546722174,-32.6704698801,0 18.9545381069,-32.6707273722,0 18.9543074369,-32.6711390913,0 18.9541947842,-32.6713013649,0 18.9534491301,-32.6722951233,0 18.9529824257,-32.6729093492,0 18.9519202709,-32.6743000746,0 18.9501982927,-32.6765343547,0 18.9475750923,-32.6799756289,0 18.9468938112,-32.6808701456,0 18.9460837841,-32.6819175482,0 18.945402503,-32.6828241348,0 18.9446675777,-32.6837642491,0 18.9397752285,-32.6901841164,0 18.938190043,-32.6922574639,0 18.9379003644,-32.6926356554,0 18.9368999004,-32.6939445734,0 18.9350438118,-32.6963639259,0 18.934083581,-32.6976285875,0 18.9325064421,-32.6996818185,0 18.9317044616,-32.7007640898,0 18.9289364219,-32.7043434978,0 18.9289189875,-32.7043649554,0 18.9270146191,-32.7068594098,0 18.925884068,-32.7083922923,0 18.9144283533,-32.7233308554,0 18.9104935527,-32.7285115421,0 18.9084389806,-32.7311588824,0 18.9102387428,-32.7341347933,0 18.9103849232,-32.7344311774,0 18.9105458558,-32.7347905934,0 18.9107604325,-32.7352532744,0 18.911075592,-32.7360726893,0 18.9112123847,-32.7364334464,0 18.9115785062,-32.7373212576,0 18.9120814204,-32.7385698259,0 18.9126808941,-32.7400839329,0 18.9130336046,-32.7409824729,0 18.9134989679,-32.7421277761,0 18.9136183262,-32.742421478,0 18.9138007164,-32.7428895235,0 18.9141574502,-32.7437786758,0 18.9145544171,-32.7448180318,0 18.9148561656,-32.7455408871,0 18.9151659608,-32.7463187277,0 18.915617913,-32.7474653721,0 18.9156970382,-32.7476638556,0 18.9163421094,-32.7493026853,0 18.9167095721,-32.750249505,0 18.9167712629,-32.7504104376,0 18.9172688127,-32.7516281605,0 18.9175142348,-32.7522316575,0 18.9178320765,-32.7530255914,0 18.9179299772,-32.7532924712,0 18.9183081686,-32.7542205155,0 18.9186836779,-32.755163312,0 18.9188218117,-32.7555026114,0 18.9192174375,-32.7565044165,0 18.9194829762,-32.7571642399,0 18.9196814597,-32.7576725185,0 18.9198330045,-32.7580453455,0 18.9199832082,-32.7584114671,0 18.9200140536,-32.7584905922,0 18.9201025665,-32.7587132156,0 18.9202903211,-32.7592000365,0 18.9205384254,-32.7597995102,0 18.9207851887,-32.7604191005,0 18.9208884537,-32.7606967092,0 18.9210306108,-32.7610547841,0 18.9211821556,-32.7614437044,0 18.9215268195,-32.7623127401,0 18.9219586551,-32.7633963525,0 18.9224119484,-32.7644987404,0 18.9224588871,-32.7646422386,0 18.9225701988,-32.7649278939,0 18.9227204025,-32.7652940154,0 18.9229591191,-32.7658720315,0 18.9231495559,-32.7663883567,0 18.9232769608,-32.766777277,0 18.9234271646,-32.7672372758,0 18.9234915376,-32.7674679458,0 18.9236497879,-32.768086195,0 18.9237289131,-32.76842013,0 18.9238093793,-32.7687849104,0 18.923920691,-32.7693843842,0 18.9240400493,-32.7698940039,0 18.9241339266,-32.77045995,0 18.924190253,-32.7707777917,0 18.9242371917,-32.7711814642,0 18.9242693782,-32.7714751661,0 18.9242854714,-32.7717541158,0 18.9243270457,-32.7724528313,0 18.9243632555,-32.7731730044,0 18.9243713021,-32.7737349272,0 18.9244021475,-32.7749539912,0 18.9244236052,-32.7760925889,0 18.9244383574,-32.7765740454,0 18.9244624972,-32.777389437,0 18.9244906604,-32.7788941562,0 18.9245134592,-32.780007273,0 18.9245375991,-32.7807059884,0 18.9245536923,-32.7813027799,0 18.9245805144,-32.7824158967,0 18.924626112,-32.783947438,0 18.9246408641,-32.7844624221,0 18.9246489108,-32.7851893008,0 18.9246730506,-32.786039561,0 18.9246891439,-32.7866242826,0 18.9246971905,-32.7870091796,0 18.924729377,-32.7880740166,0 18.9247508347,-32.7894191444,0 18.9247521758,-32.7894768119,0 18.924780339,-32.7905496955,0 18.9248071611,-32.7923226357,0 18.9248366654,-32.7941143513,0 18.9248634875,-32.7953669429,0 18.9248728752,-32.7958510816,0 18.9248876274,-32.7963607013,0 18.9249010384,-32.7968770266,0 18.9249251783,-32.7977178991,0 18.9249587059,-32.7992843091,0 18.9249747992,-32.8004443645,0 18.9250123501,-32.8014716506,0 18.9250458777,-32.8033639491,0 18.9250794053,-32.8043872118,0 18.9250968397,-32.8054989874,0 18.9251410961,-32.807263881,0 18.9251893759,-32.8091722727,0 18.9252202213,-32.8099112213,0 18.9252282679,-32.8107614815,0 18.9252604544,-32.812128067,0 18.9252953231,-32.814411968,0 18.9252953231,-32.8144334257,0 18.9253395796,-32.8157128394,0 18.9253556728,-32.8163485229,0 18.9253798127,-32.8169453144,0 18.9254026115,-32.8180812299,0 18.925434798,-32.8197589517,0 18.9254643023,-32.8218095005,0 18.9254683256,-32.8220817447,0 18.9255233109,-32.8239431977,0 18.9255595207,-32.8258609772,0 18.9256118238,-32.8278686106,0 18.9256493747,-32.8302691877,0 18.9256641269,-32.8309692442,0 18.9256882668,-32.8319549561,0 18.9257392287,-32.8338740766,0 18.9257834852,-32.8359366953,0 18.9258103073,-32.8371302783,0 18.9258277416,-32.8378880024,0 18.9258719981,-32.8398030996,0 18.9259189367,-32.841629684,0 18.925985992,-32.84469679,0 18.9260222018,-32.8465904295,0 18.926038295,-32.8479489684,0 18.9260530472,-32.8488555551,0 18.9260691404,-32.8493946791,0 18.9261066914,-32.8503106534,0 18.9261469245,-32.8520272672,0 18.9261804521,-32.8533858061,0 18.9261911809,-32.8538323939,0 18.9261965454,-32.854681313,0 18.9262381196,-32.8559151292,0 18.9262515306,-32.8563818336,0 18.9262595773,-32.8565320373,0 18.9262595773,-32.8568270802,0 18.9262649417,-32.8574480116,0 18.9263024926,-32.8592437506,0 18.9263400435,-32.8608396649,0 18.9263467491,-32.8614807129,0 18.9263950288,-32.8636613488,0 18.9263950288,-32.8644163907,0 18.9264540374,-32.8660967946,0 18.9264634252,-32.8666627407,0 18.9264835417,-32.8670074046,0 18.9265049994,-32.8673198819,0 18.9265345037,-32.8675827384,0 18.9265546203,-32.86771819,0 18.9265881479,-32.8679300845,0 18.9266565442,-32.8683900833,0 18.9267289639,-32.8686931729,0 18.9268241823,-32.8691062331,0 18.9268966019,-32.8693690896,0 18.9270468056,-32.8698451817,0 18.927205056,-32.87019521,0 18.9274679124,-32.8707745671,0 18.927642256,-32.8710776567,0 18.928013742,-32.8716543317,0 18.9291764796,-32.8734849393,0 18.9299798012,-32.8747174144,0 18.93090114,-32.8761322796,0 18.9316186309,-32.8772333264,0 18.9322422445,-32.8781975806,0 18.9322838187,-32.8782619536,0 18.9330857992,-32.8795024753,0 18.9340487123,-32.8809803724,0 18.9358484745,-32.8837698698,0 18.9358685911,-32.8838020563,0 18.9364720881,-32.8847233951,0 18.9371238649,-32.8857573867,0 18.9382208884,-32.8874418139,0 18.9391824603,-32.8889036179,0 18.9398503304,-32.8899376094,0 18.940295577,-32.8906282783,0 18.9409486949,-32.8916327655,0 18.9416702092,-32.8927432001,0 18.9420832694,-32.893370837,0 18.9428785443,-32.8945979476,0 18.9433854818,-32.8953798115,0 18.9442880452,-32.8967477381,0 18.9451758564,-32.8981237113,0 18.9461910725,-32.8996874392,0 18.9466135204,-32.900364697,0 18.9470185339,-32.9010164738,0 18.9474329352,-32.9016441107,0 18.9477561414,-32.9021349549,0 18.9483301342,-32.9030039907,0 18.9492917061,-32.9044979811,0 18.9500454068,-32.9056513309,0 18.9507937431,-32.9068180919,0 18.9512215555,-32.907448411,0 18.9517740905,-32.9083053768,0 18.9526055753,-32.9095767438,0 18.953101784,-32.9103277624,0 18.953115195,-32.9103478789,0 18.953447789,-32.9108856618,0 18.953474611,-32.9109272361,0 18.954000324,-32.9117372632,0 18.9544120431,-32.9123823345,0 18.9550866187,-32.9134391248,0 18.9555077255,-32.9140909016,0 18.9558644593,-32.9146394134,0 18.9560320973,-32.9149089754,0 18.9565430582,-32.9156720638,0 18.9567147195,-32.9159429669,0 18.9572122693,-32.9166939855,0 18.9574724436,-32.917073518,0 18.9577178657,-32.9174114764,0 18.9580826461,-32.9178728163,0 18.9584568143,-32.9183261096,0 18.958761245,-32.9186828434,0 18.95933792,-32.9193601012,0 18.9600299299,-32.9201392829,0 18.9613482356,-32.9216252267,0 18.9620389044,-32.9224124551,0 18.9630581439,-32.9235765338,0 18.9636066556,-32.924208194,0 18.9638695121,-32.9245099425,0 18.9642852545,-32.9249887168,0 18.965561986,-32.9264451563,0 18.9667528868,-32.9278412461,0 18.9674636722,-32.9286311567,0 18.9679478109,-32.9291796684,0 18.9683179557,-32.929598093,0 18.9693921804,-32.9308319092,0 18.9711087942,-32.9328167439,0 18.9713783562,-32.933126539,0 18.9724123478,-32.9343026876,0 18.9731352031,-32.9351368546,0 18.9739385247,-32.9360514879,0 18.9741370082,-32.9362727702,0 18.974622488,-32.9368118942,0 18.9748236537,-32.9370425642,0 18.9751468599,-32.93742612,0 18.9754714072,-32.9378150403,0 18.9762184024,-32.9387672246,0 18.9766569436,-32.9393680394,0 18.9774267375,-32.9404838383,0 18.9782354236,-32.9416412115,0 18.9789690077,-32.9427114129,0 18.9797025919,-32.943765521,0 18.9801384509,-32.9443904757,0 18.9804656804,-32.9448652267,0 18.9812421799,-32.9459930956,0 18.9819891751,-32.9470981658,0 18.982386142,-32.9476869106,0 18.9831975102,-32.9488630593,0 18.9835233986,-32.949308306,0 18.9840933681,-32.9500834644,0 18.9849919081,-32.9513642192,0 18.9858917892,-32.9526852071,0 18.9867018163,-32.9538626969,0 18.9871631563,-32.9545131326,0 18.9876526594,-32.9552426934,0 18.9879477024,-32.9556490481,0 18.9889186621,-32.9570330679,0 18.9892445505,-32.9574890435,0 18.9899338782,-32.9584667087,0 18.9904609323,-32.9592190683,0 18.9907358587,-32.9596361518,0 18.9908498526,-32.9598037899,0 18.9909316599,-32.9599446058,0 18.9911006391,-32.9602356255,0 18.9913755655,-32.9606969655,0 18.9915579557,-32.9610309005,0 18.9918194711,-32.9615861177,0 18.9919213951,-32.9618248343,0 18.9920528233,-32.9621748626,0 18.9920568466,-32.9621855915,0 18.9922459424,-32.9627287388,0 18.9923773706,-32.9631793499,0 18.9925034344,-32.9637251794,0 18.9925758541,-32.9640752077,0 18.9926818013,-32.9646626115,0 18.9927314222,-32.9649697244,0 18.9927797019,-32.9658696055,0 18.9928051829,-32.9664650559,0 18.9928373694,-32.9679697752,0 18.9928615093,-32.968891114,0 18.992869556,-32.969558984,0 18.9929929376,-32.9727306962,0 18.9930546284,-32.9748617113,0 18.9930519462,-32.9751460254,0 18.9930841327,-32.9767915606,0 18.9930988848,-32.9770852625,0 18.9931552112,-32.9787307978,0 18.9931713045,-32.9796762764,0 18.9932397008,-32.9814934731,0 18.9932410419,-32.9815216362,0 18.9933013916,-32.9835882783,0 18.9933617413,-32.9857327044,0 18.9933617413,-32.9859794676,0 18.9934127033,-32.9877765477,0 18.9934127033,-32.9878100753,0 18.9934408665,-32.9895401001,0 18.9934408665,-32.9899853468,0 18.9934703708,-32.9911842942,0 18.9934690297,-32.9915007949,0 18.9934663475,-32.9930832982,0 18.9934663475,-32.9931516945,0 18.9934542775,-32.995237112,0 18.9934596419,-32.9962845147,0 18.9934462309,-32.9972273111,0 18.9934489131,-32.9973627627,0 18.9934515953,-32.9979836941,0 18.9934515953,-32.9982237518,0 18.9934596419,-32.9990538955,0 18.9934623241,-32.9992040992,0 18.993460983,-32.9993261397,0 18.9934650064,-33.0000020564,0 18.9934650064,-33.0001804233,0 18.9934636652,-33.0003413558,0 18.9934569597,-33.0007061362,0 18.9934341609,-33.0015738308,0 18.9934234321,-33.0020405352,0 18.9933992922,-33.0028653145,0 18.9933992922,-33.0028747022,0 18.9934019744,-33.0034580827,0 18.9934033155,-33.0035157502,0 18.9934073389,-33.0042976141,0 18.9934073389,-33.0043512583,0 18.9934073389,-33.0044169724,0 18.9934073389,-33.0044746399,0 18.9933992922,-33.0064594746,0 18.9933979511,-33.0066244304,0 18.9933872223,-33.0080929399,0 18.9933805168,-33.00873667,0 18.9933791757,-33.0091175437,0 18.9933791757,-33.0092288554,0 18.9934207499,-33.0096097291,0 18.9934180677,-33.0097304285,0 18.9934676886,-33.0098229647,0 18.9934583008,-33.010160923,0 18.9934502542,-33.0105283856,0 18.9934569597,-33.0107107759,0 18.9934515953,-33.0109199882,0 18.9934529364,-33.0110889673,0 18.9934435487,-33.0117581785,0 18.9934073389,-33.0122329295,0 18.9934127033,-33.0126138031,0 18.9934194088,-33.0130670965,0 18.9934207499,-33.0132628977,0 18.9934234321,-33.013651818,0 18.9934247732,-33.0139267445,0 18.9934180677,-33.0141319335,0 18.9934127033,-33.0142660439,0 18.9934073389,-33.0151310563,0 18.9934046566,-33.015216887,0 18.9934006333,-33.0154676735,0 18.9933992922,-33.0157640576,0 18.9933604002,-33.0158619583,0 18.993357718,-33.0159518123,0 18.993357718,-33.0160792172,0 18.9933563769,-33.0161100626,0 18.9933563769,-33.0163058639,0 18.9933523536,-33.0170461535,0 18.9933510125,-33.0171896517,0 18.9933510125,-33.0177529156,0 18.9933429658,-33.0181190372,0 18.9933429658,-33.018540144,0 18.9933389425,-33.0190417171,0 18.9933362603,-33.0192643404,0 18.9933335781,-33.0195902288,0 18.9933268726,-33.0201615393,0 18.9933241904,-33.020337224,0 18.993318826,-33.0205826461,0 18.9933121204,-33.021632731,0 18.9933107793,-33.0217266083,0 18.9933148026,-33.0220015347,0 18.9933268726,-33.022904098,0 18.9933349192,-33.0232299864,0 18.9933308959,-33.0242103338,0 18.9933268726,-33.0249895155,0 18.9932960272,-33.0258961022,0 18.9932799339,-33.0260945857,0 18.9932584763,-33.0262970924,0 18.9932155609,-33.0267061293,0 18.9932021499,-33.0268375576,0 18.9931994677,-33.0268576741,0 18.9931404591,-33.0271433294,0 18.9931042492,-33.0273190141,0 18.9929540455,-33.0280257761,0 18.9928682148,-33.0283851922,0 18.99272874,-33.0289793015,0 18.992664367,-33.0292341113,0 18.992536962,-33.0298067629,0 18.9923223853,-33.0306838453,0 18.992164135,-33.0313517153,0 18.9920528233,-33.0318291485,0 18.9918932319,-33.0324929953,0 18.9916236699,-33.0335967243,0 18.9914010465,-33.0345435441,0 18.9910027385,-33.036237359,0 18.990637958,-33.0377930403,0 18.990431428,-33.0385802686,0 18.9902168512,-33.0394144356,0 18.9899539948,-33.0406147242,0 18.98957178,-33.0423085392,0 18.9893813431,-33.043051511,0 18.9893263578,-33.0432701111,0 18.9891828597,-33.0437421799,0 18.9890152216,-33.0443148315,0 18.9886665344,-33.0454440415,0 18.9882843196,-33.0467033386,0 18.9880509675,-33.0474825203,0 18.9877988398,-33.0482764542,0 18.9874742925,-33.0493144691,0 18.9874018729,-33.0495129526,0 18.9871712029,-33.0502358079,0 18.9869338274,-33.0509828031,0 18.9866387844,-33.0519363284,0 18.9864242077,-33.0525961518,0 18.9862981439,-33.0529917777,0 18.9861626923,-33.0534115434,0 18.986094296,-33.0536274612,0 18.9859414101,-33.0541075766,0 18.9857456088,-33.0547271669,0 18.9857429266,-33.054741919,0 18.9856101573,-33.0551496148,0 18.9854747057,-33.0555787683,0 18.985132724,-33.0566181242,0 18.9849771559,-33.0570982397,0 18.9847786725,-33.0576936901,0 18.9847759902,-33.0577003956,0 18.9846123755,-33.0582033098,0 18.9844742417,-33.0586431921,0 18.9841336012,-33.0597402155,0 18.9838090539,-33.0607903004,0 18.983630687,-33.0613642931,0 18.9835555851,-33.0616030097,0 18.9833718538,-33.0621930957,0 18.9832256734,-33.0627442896,0 18.9831036329,-33.0632311106,0 18.9830057323,-33.0636119843,0 18.9829078317,-33.0640693009,0 18.9828716218,-33.0642879009,0 18.9827764034,-33.0648551881,0 18.9827388525,-33.0650617182,0 18.9826905727,-33.0654224753,0 18.9826731384,-33.0655539036,0 18.9826329052,-33.065905273,0 18.9826329052,-33.0659133196,0 18.9826034009,-33.0662244558,0 18.9825926721,-33.0664671957,0 18.9825886488,-33.0665436387,0 18.9825631678,-33.0672048032,0 18.9825497568,-33.0676594377,0 18.9825631678,-33.0680175126,0 18.9825631678,-33.0684748292,0 18.9826382697,-33.0692473054,0 18.9827160537,-33.0700398982,0 18.9827267826,-33.0702638626,0 18.9827562869,-33.0705991387,0 18.9828273654,-33.0714212358,0 18.9829601347,-33.0729554594,0 18.9830003679,-33.0734543502,0 18.9830714464,-33.0743891001,0 18.9831331372,-33.075170964,0 18.9831626415,-33.0755156279,0 18.9831934869,-33.0762371421,0 18.9832095802,-33.0767695606,0 18.9831934869,-33.0777311325,0 18.9831478894,-33.0784794688,0 18.983142525,-33.0785639584,0 18.9830714464,-33.0796408653,0 18.9829936624,-33.0806829035,0 18.982911855,-33.0818322301,0 18.9828743041,-33.0824330449,0 18.9827764034,-33.0836091936,0 18.982745558,-33.0841067433,0 18.9826449752,-33.0856718123,0 18.9825430512,-33.0871242285,0 18.9824813604,-33.0879476666,0 18.9824210107,-33.0889025331,0 18.9823190868,-33.0902945995,0 18.9822077751,-33.091930747,0 18.9820347726,-33.0945418775,0 18.9819328487,-33.0961364508,0 18.9818376303,-33.0975995958,0 18.9817598462,-33.0986469984,0 18.9816699922,-33.099989444,0 18.9816686511,-33.0999974906,0 18.9814943075,-33.102517426,0 18.9814178646,-33.1037378311,0 18.9812394977,-33.1062591076,0 18.9811764657,-33.1072019041,0 18.9811255038,-33.1079623103,0 18.9809980989,-33.1096386909,0 18.9808452129,-33.1117857993,0 18.9807312191,-33.1133240461,0 18.980717808,-33.1135520339,0 18.9805917442,-33.1155985594,0 18.9805273712,-33.1163978577,0 18.9804267883,-33.1179226935,0 18.9803369343,-33.1193335354,0 18.9802993834,-33.1197533011,0 18.9800700545,-33.1229035556,0 18.9799815416,-33.1243519485,0 18.9798675478,-33.1259787083,0 18.9797146618,-33.1283296645,0 18.9796382189,-33.1293837726,0 18.979485333,-33.131518811,0 18.9793847501,-33.1330087781,0 18.9793847501,-33.1330141425,0 18.9792948961,-33.1344786286,0 18.9791554213,-33.1364353001,0 18.9791044593,-33.1371474266,0 18.9789314568,-33.1397478282,0 18.9789260924,-33.1398148835,0 18.9787356555,-33.1421148777,0 18.9786082506,-33.1439065933,0 18.9784432948,-33.1464225054,0 18.9783293009,-33.1482262909,0 18.9782783389,-33.1488874555,0 18.978150934,-33.1508561969,0 18.9780731499,-33.1520202756,0 18.9780651033,-33.1521356106,0 18.9780503511,-33.1523676217,0 18.9780248702,-33.1526854634,0 18.9779739082,-33.1534257531,0 18.9779323339,-33.1539662182,0 18.9778719842,-33.1550377607,0 18.9778062701,-33.1557807326,0 18.9777727425,-33.1563158333,0 18.9777298272,-33.1569769979,0 18.9777123928,-33.1579761207,0 18.9777003229,-33.1592555344,0 18.9776949584,-33.1603847444,0 18.9776533842,-33.1627236307,0 18.9776775241,-33.1652086973,0 18.9776708186,-33.1657129526,0 18.977676183,-33.1677004695,0 18.9776775241,-33.1678077579,0 18.9776520431,-33.1701278687,0 18.9776104689,-33.1724976003,0 18.9775729179,-33.174945116,0 18.9775675535,-33.1765034795,0 18.977560848,-33.1773322821,0 18.9775554836,-33.1790609658,0 18.9775179327,-33.1810283661,0 18.9774884284,-33.1831419468,0 18.9774937928,-33.1849806011,0 18.9774629474,-33.1871424615,0 18.9774508774,-33.1893955171,0 18.977432102,-33.1907352805,0 18.9774334431,-33.191203326,0 18.9774146676,-33.1929816306,0 18.977420032,-33.1934577227,0 18.9774388075,-33.1953205168,0 18.9774388075,-33.1958435476,0 18.9774294198,-33.1961882114,0 18.9773958921,-33.1974327564,0 18.9773516357,-33.1985981762,0 18.9772617817,-33.1991440058,0 18.9770431817,-33.2006661594,0 18.9769694209,-33.2011650503,0 18.9768849313,-33.2016223669,0 18.9767387509,-33.2026094198,0 18.9765308797,-33.2038874924,0 18.9763176441,-33.2052393258,0 18.9762613177,-33.2056067884,0 18.9760869741,-33.206744045,0 18.975867033,-33.2080167532,0 18.9756967127,-33.2090333104,0 18.9755505323,-33.2099398971,0 18.9754968882,-33.210297972,0 18.9754351974,-33.2107016444,0 18.9753319323,-33.2113467157,0 18.9751669765,-33.2123337686,0 18.9749778807,-33.2135635614,0 18.9749242365,-33.2139658928,0 18.9748182893,-33.21453318,0 18.974749893,-33.2150495052,0 18.9747297764,-33.2151514292,0 18.9746814966,-33.2154048979,0 18.9746305346,-33.2156650722,0 18.9745768905,-33.2159695029,0 18.9743877947,-33.2170584798,0 18.974263072,-33.2177866995,0 18.974263072,-33.217792064,0 18.9741893113,-33.2182185352,0 18.9741517603,-33.2184237242,0 18.9741249382,-33.2185685635,0 18.9741101861,-33.2186691463,0 18.9740806818,-33.2188515365,0 18.9740632474,-33.2189534605,0 18.9738513529,-33.2202368975,0 18.9737293124,-33.2210294902,0 18.9736689627,-33.2214733958,0 18.9735898376,-33.2218690217,0 18.9735415578,-33.2223625481,0 18.9735469222,-33.2225945592,0 18.9735549688,-33.2230558991,0 18.9735469222,-33.2233308256,0 18.9735777676,-33.2237760723,0 18.9736072719,-33.2239705324,0 18.9736260474,-33.2241287827,0 18.9736931026,-33.2245002687,0 18.9737789333,-33.224889189,0 18.9738513529,-33.2251882553,0 18.973942548,-33.2254256308,0 18.9740283787,-33.2256992161,0 18.9741678536,-33.2260103524,0 18.9742952585,-33.2262718678,0 18.9744481444,-33.2265642285,0 18.9746305346,-33.2269719243,0 18.9748317003,-33.2272951305,0 18.9750140905,-33.227532506,0 18.9751669765,-33.2277645171,0 18.9754351974,-33.2281051576,0 18.9757396281,-33.2284645736,0 18.9764517546,-33.2291834056,0 18.9767494798,-33.2294932008,0 18.9774629474,-33.2301932573,0 18.9779926836,-33.230753839,0 18.9788872004,-33.2316617668,0 18.979922533,-33.2327453792,0 18.9809940755,-33.2338169217,0 18.9816391468,-33.2344740629,0 18.9819650352,-33.2348066568,0 18.982681185,-33.235540241,0 18.9834912121,-33.2363677025,0 18.9845868945,-33.2375130057,0 18.9858408272,-33.2387803495,0 18.9868828654,-33.239851892,0 18.9873817563,-33.2403507829,0 18.9903469384,-33.24340716,0 18.9933617413,-33.2464769483,0 18.994859755,-33.2480232418,0 18.996168673,-33.2493683696,0 18.9977283776,-33.2509763539,0 18.999773562,-33.2530657947,0 19.0012165904,-33.2545021176,0 19.002148658,-33.2554650307,0 19.0039390326,-33.2572849095,0 19.0053579211,-33.2587520778,0 19.0063932538,-33.2597753406,0 19.0067526698,-33.2601226866,0 19.0076203644,-33.2610413432,0 19.0079194307,-33.2613940537,0 19.0083767474,-33.2618178427,0 19.0086221695,-33.2620592415,0 19.0099860728,-33.2632716,0 19.0116423368,-33.2645738125,0 19.01304245,-33.2657311857,0 19.0153317153,-33.2675215602,0 19.0195883811,-33.2708998024,0 19.0204882622,-33.2715985179,0 19.0208785236,-33.271920383,0 19.0213023126,-33.2722596824,0 19.0220184624,-33.2728672028,0 19.0229384601,-33.2736222446,0 19.0233702958,-33.2740983367,0 19.0236197412,-33.2743665576,0 19.0246121585,-33.2755896449,0 19.0254771709,-33.2767470181,0 19.0263475478,-33.2779285312,0 19.0270543098,-33.2788619399,0 19.0272729099,-33.2791516185,0 19.0282411873,-33.2805101573,0 19.0283699334,-33.2806831598,0 19.0286542475,-33.2810653746,0 19.0290391445,-33.2815816998,0 19.0299162269,-33.2827806473,0 19.0307812393,-33.2839259505,0 19.0318581462,-33.2853810489,0 19.0324549377,-33.2862648368,0 19.0327043831,-33.2866725326,0 19.0331013501,-33.2873243093,0 19.0345188975,-33.2898388803,0 19.0350969136,-33.290848732,0 19.0360142291,-33.2924513519,0 19.0360665321,-33.292542547,0 19.0364299715,-33.2931795716,0 19.036462158,-33.2932372391,0 19.0369677544,-33.2941505313,0 19.03739959,-33.2948935032,0 19.0375497937,-33.2951617241,0 19.0379172564,-33.2958188653,0 19.0381492674,-33.296135366,0 19.0384282172,-33.2964518666,0 19.0388117731,-33.2967750728,0 19.0394514799,-33.2971344888,0 19.0396955609,-33.297239095,0 19.0407724679,-33.2977004349,0 19.0417903662,-33.2981564105,0 19.0434224904,-33.2988698781,0 19.0445664525,-33.299356699,0 19.0447126329,-33.2994291186,0 19.0448065102,-33.2994760573,0 19.0448896587,-33.2995082438,0 19.0457506478,-33.2998850942,0 19.0460041165,-33.2999964058,0 19.0472821891,-33.3005623519,0 19.0480948985,-33.3009137213,0 19.0481713414,-33.3009472489,0 19.0501508117,-33.3018042147,0 19.0514114499,-33.3023580909,0 19.052208066,-33.3027121425,0 19.0530703962,-33.3030970395,0 19.0540507436,-33.3034819365,0 19.0541271865,-33.3035127819,0 19.0541633964,-33.3034591377,0 19.0541996062,-33.3034081757,0 19.0544275939,-33.3031372726,0 19.0547937155,-33.3026330173,0 19.0551316738,-33.3022427559,0 19.0553757548,-33.3019731939,0 19.0555018187,-33.3018350601,0 19.0555688739,-33.3018068969,0 19.0559014678,-33.3014917374,0 19.055968523,-33.3014421165,0 19.056250155,-33.3012288809,0 19.0564419329,-33.3011175692,0 19.0570159256,-33.3007863164,0 19.0571795404,-33.3007112145,0 19.0576717257,-33.3005516231,0 19.0578313172,-33.3005006611,0 19.0579426289,-33.3004657924,0 19.058226943,-33.3004121482,0 19.0587593615,-33.3003222942,0 19.0590155125,-33.3003048599,0 19.0597544611,-33.3003370464,0 19.0600427985,-33.3003477752,0 19.0606020391,-33.3004684746,0 19.0608729422,-33.3005355299,0 19.0612658858,-33.3006294072,0 19.0616467595,-33.300806433,0 19.0618774295,-33.3009311557,0 19.0623535216,-33.3012154698,0 19.0628685057,-33.3015225828,0 19.064668268,-33.3025981486,0 19.065092057,-33.302808702,0 19.0653200448,-33.3029066026,0 19.0655614436,-33.3029790223,0 19.0658189356,-33.3030433953,0 19.0661220253,-33.3031064272,0 19.0665028989,-33.3031627536,0 19.066940099,-33.3032271266,0 19.067299515,-33.3032767475,0 19.0675489604,-33.3033263683,0 19.0677393973,-33.3033746481,0 19.0680129826,-33.3034805954,0 19.0682516992,-33.3035972714,0 19.068442136,-33.3037206531,0 19.0685842931,-33.3038413525,0 19.0687264502,-33.3039821684,0 19.068916887,-33.3041779697,0 19.0690778196,-33.3043858409,0 19.0691636503,-33.3045548201,0 19.0692709386,-33.304836452,0 19.0693674982,-33.3051301539,0 19.0697215497,-33.3064578474,0 19.070097059,-33.307788223,0 19.0702754259,-33.3081918955,0 19.0704806149,-33.3085955679,0 19.0707179904,-33.3089992404,0 19.070982188,-33.3093559742,0 19.0711672604,-33.3095866442,0 19.0712799132,-33.3096925914,0 19.0717761219,-33.3102947474,0 19.0722723305,-33.3109036088,0 19.0731547773,-33.311906755,0 19.0733170509,-33.3120904863,0 19.073408246,-33.3121843636,0 19.0734645724,-33.3122353256,0 19.0735396743,-33.3122996986,0 19.0739125013,-33.3126161993,0 19.0741311014,-33.3128227293,0 19.0742437541,-33.3129273355,0 19.0743094683,-33.3129957318,0 19.0752536058,-33.3139586449,0 19.0764968097,-33.3150623739,0 19.078116864,-33.3162854612,0 19.0790368617,-33.3170324564,0 19.0796121955,-33.3174562454,0 19.0802800655,-33.3178330958,0 19.0809345245,-33.3182421327,0 19.0812577307,-33.3184084296,0 19.0815031528,-33.3184942603,0 19.0818330646,-33.3185599744,0 19.0821240842,-33.318580091,0 19.0824016929,-33.3185867965,0 19.0828120708,-33.3184942603,0 19.0829381347,-33.3184808493,0 19.0832747519,-33.3183950186,0 19.0835295618,-33.3182099462,0 19.0836623311,-33.3181375265,0 19.0843087435,-33.317732513,0 19.0848425031,-33.3173570037,0 19.0850450099,-33.317271173,0 19.0853320062,-33.3171316981,0 19.0858362615,-33.3170297742,0 19.0861044824,-33.3169828355,0 19.0864183009,-33.3169546723,0 19.0867455304,-33.3169868588,0 19.0872551501,-33.3170472085,0 19.087523371,-33.3171290159,0 19.0879189968,-33.3172792196,0 19.0881255269,-33.3173784614,0 19.0886445343,-33.3177137375,0 19.0889020264,-33.3178398013,0 19.0891340375,-33.317939043,0 19.0894773602,-33.3180047572,0 19.0896852314,-33.3180128038,0 19.0900057554,-33.3180047572,0 19.0904322267,-33.3178773522,0 19.0906105936,-33.3178237081,0 19.0908801556,-33.3177298307,0 19.091090709,-33.3175809681,0 19.0912891924,-33.3173958957,0 19.0914662182,-33.3171612024,0 19.0917854011,-33.3167038858,0 19.0921904147,-33.3161795139,0 19.0923781693,-33.3159179986,0 19.092528373,-33.315706104,0 19.0930393338,-33.3150717616,0 19.0931010246,-33.3149953187,0 19.0933960676,-33.3147311211,0 19.0934416652,-33.3146908879,0 19.0936589241,-33.314473629,0 19.0938051045,-33.3143381774,0 19.0942168236,-33.3139210939,0 19.0944756567,-33.3137212694,0 19.0947036445,-33.3135321736,0 19.095185101,-33.3131714165,0 19.0955512226,-33.3128884435,0 19.0961399674,-33.3125089109,0 19.0966147184,-33.3122192323,0 19.097302705,-33.3118209243,0 19.097584337,-33.3116640151,0 19.0983447433,-33.3112925291,0 19.0989388525,-33.3110497892,0 19.0992097557,-33.3109438419,0 19.1001498699,-33.310611248,0 19.1002544761,-33.3105817437,0 19.1005910933,-33.3104851842,0 19.1009572148,-33.3103765547,0 19.1040055454,-33.3095920086,0 19.1052876413,-33.3092620969,0 19.1059756279,-33.3090864122,0 19.106066823,-33.3090636134,0 19.1091312468,-33.3083045483,0 19.1098728776,-33.3081489801,0 19.1102510691,-33.3080846071,0 19.1104468703,-33.3080551028,0 19.1107459366,-33.3080376685,0 19.1112059355,-33.3080376685,0 19.1115063429,-33.3080591261,0 19.1117303073,-33.3080966771,0 19.1120159626,-33.3081449568,0 19.1123405099,-33.3082053065,0 19.1127669811,-33.3083367348,0 19.1128970683,-33.3083769679,0 19.1132242978,-33.3084909618,0 19.1146042943,-33.3090984821,0 19.1148094833,-33.3091937006,0 19.1148819029,-33.3092272282,0 19.115152806,-33.3093519509,0 19.1160526872,-33.3097676933,0 19.1161090136,-33.3097931743,0 19.1162726283,-33.3098696172,0 19.1173119843,-33.3103550971,0 19.1186490655,-33.3109679818,0 19.1199164093,-33.3115580678,0 19.1212078929,-33.3121521771,0 19.1224336624,-33.3127181232,0 19.1237318516,-33.3133175969,0 19.1248489916,-33.3138312399,0 19.1262021661,-33.3144561946,0 19.1273769736,-33.314999342,0 19.1286510229,-33.3155854046,0 19.1296796501,-33.3160574734,0 19.1306264699,-33.3164986968,0 19.1317033768,-33.3169855177,0 19.1327440739,-33.3174803853,0 19.1336600482,-33.317900151,0 19.1344848275,-33.3182796836,0 19.1355255246,-33.3187571168,0 19.136775434,-33.3193311095,0 19.1377732158,-33.3197924495,0 19.1389171779,-33.3203208447,0 19.1401429474,-33.3208854496,0 19.1413097084,-33.3214218915,0 19.1424281895,-33.3219435811,0 19.1435359418,-33.3224464953,0 19.1447094083,-33.3229883015,0 19.1458171606,-33.3234979212,0 19.1472306848,-33.3241483569,0 19.1473057866,-33.3241832256,0 19.1479106247,-33.3244635165,0 19.1482646763,-33.3246392012,0 19.1501583159,-33.3255149424,0 19.1522423923,-33.3265006542,0 19.1531221569,-33.3269043267,0 19.153316617,-33.3270277083,0 19.1533984244,-33.3270934224,0 19.1543036699,-33.3277867734,0 19.1548602283,-33.3282735944,0 19.1554503143,-33.3288355172,0 19.1559357941,-33.3293625712,0 19.1560591757,-33.329500705,0 19.1563005745,-33.3297930658,0 19.1568812728,-33.33052665,0 19.1570864618,-33.3308431506,0 19.1574405134,-33.3314117789,0 19.1576255858,-33.3317121863,0 19.157987684,-33.332426995,0 19.1580788791,-33.3326429129,0 19.1583967209,-33.3333845437,0 19.1586408019,-33.3341154456,0 19.1593207419,-33.3360747993,0 19.1595983505,-33.336918354,0 19.160027504,-33.338137418,0 19.1602836549,-33.3388763666,0 19.1604807973,-33.3394825459,0 19.1606779397,-33.3400565386,0 19.16083619,-33.3405125141,0 19.1611942649,-33.3415532112,0 19.161375314,-33.3420735598,0 19.1619466245,-33.3437392116,0 19.1621920466,-33.3444567025,0 19.1622805595,-33.344719559,0 19.1626721621,-33.3458809555,0 19.1635237634,-33.3483861387,0 19.163903296,-33.3494858444,0 19.1640776396,-33.3499981463,0 19.1643351316,-33.3507531881,0 19.1645778716,-33.3514626324,0 19.1648501158,-33.3522565663,0 19.1655649245,-33.3540013433,0 19.1662354767,-33.3555717766,0 19.1667638719,-33.356782794,0 19.1669864953,-33.3572857082,0 19.1671340168,-33.3576638997,0 19.1677643359,-33.3591096103,0 19.1683289409,-33.3604051173,0 19.1684992611,-33.3607645333,0 19.1687044501,-33.3611346781,0 19.1688157618,-33.3613398671,0 19.1692435741,-33.3619903028,0 19.1695681214,-33.3624368906,0 19.1695828736,-33.3624556661,0 19.1702480614,-33.3632831275,0 19.1704881191,-33.363596946,0 19.1706369817,-33.3637900651,0 19.1713316739,-33.3646255732,0 19.1713960469,-33.3647167683,0 19.1718479991,-33.3652813733,0 19.1729021072,-33.3666050434,0 19.1747219861,-33.3688808978,0 19.1760456562,-33.3705532551,0 19.1770152748,-33.3717441559,0 19.177929908,-33.3729082346,0 19.1784596443,-33.3735653758,0 19.1801400483,-33.3756615222,0 19.1813242435,-33.3771649003,0 19.1826412082,-33.3788171411,0 19.1828477383,-33.3790545166,0 19.1829697788,-33.3792127669,0 19.1831374168,-33.3794099092,0 19.1834445298,-33.3797800541,0 19.1846515238,-33.3812995255,0 19.1873015463,-33.3846268058,0 19.189427197,-33.3872915804,0 19.1900601983,-33.3880734444,0 19.1908420622,-33.3890484273,0 19.1911076009,-33.3893810213,0 19.1915327311,-33.3899281919,0 19.1921080649,-33.3906711638,0 19.193918556,-33.3929148316,0 19.1954581439,-33.3948634565,0 19.1961219907,-33.3956708014,0 19.1962198913,-33.3957888186,0 19.1964907944,-33.3961173892,0 19.1969963908,-33.396692723,0 19.1973316669,-33.3969958127,0 19.1977997124,-33.3973605931,0 19.1981966794,-33.3975885808,0 19.1986955702,-33.3978702128,0 19.2001493275,-33.3984804153,0 19.2009566724,-33.3987057209,0 19.2017559707,-33.3989350498,0 19.2025257647,-33.3991549909,0 19.2033746839,-33.3994044363,0 19.204094857,-33.3996552229,0 19.2047077417,-33.3998832107,0 19.2052924633,-33.4001326561,0 19.2061977088,-33.4005524218,0 19.2069675028,-33.400952071,0 19.2077815533,-33.4013798833,0 19.2086653411,-33.4018439054,0 19.2096497118,-33.402364254,0 19.2106756568,-33.4028993547,0 19.212102592,-33.4036624432,0 19.2130360007,-33.4041532874,0 19.213835299,-33.4046025574,0 19.2147472501,-33.4051524103,0 19.2159797251,-33.4059235454,0 19.2165590823,-33.4062856436,0 19.2168179154,-33.406445235,0 19.2171773314,-33.4066665173,0 19.2172430456,-33.4067067504,0 19.2181415856,-33.4072633088,0 19.2184245586,-33.4074443579,0 19.2190039158,-33.407818526,0 19.2196248472,-33.408203423,0 19.2201304436,-33.4085252881,0 19.2205877602,-33.4088310599,0 19.2209579051,-33.409101963,0 19.2213857174,-33.4094305336,0 19.2219342291,-33.4098516405,0 19.2225766182,-33.4104001522,0 19.2228622735,-33.4106455743,0 19.222972244,-33.4107394516,0 19.2239445448,-33.4115709364,0 19.224126935,-33.4117278457,0 19.2245614529,-33.412104696,0 19.2246888578,-33.4122160077,0 19.224871248,-33.4123688936,0 19.2254050076,-33.4128195047,0 19.2256745696,-33.4130555391,0 19.2259414494,-33.4132955968,0 19.2261211574,-33.4134431183,0 19.2262914777,-33.413579911,0 19.2266401649,-33.4138441086,0 19.2270357907,-33.4141029418,0 19.2271618545,-33.4141726792,0 19.2273214459,-33.4142464399,0 19.2274823785,-33.4143215418,0 19.2278391123,-33.4144717455,0 19.228258878,-33.4145991504,0 19.2286799848,-33.4146997333,0 19.2289240658,-33.4147520363,0 19.2292499542,-33.4148204327,0 19.2295369506,-33.4148794413,0 19.2302209139,-33.4150202572,0 19.230671525,-33.415119499,0 19.2310966551,-33.4152133763,0 19.2316840589,-33.4153300524,0 19.2321386933,-33.4154199064,0 19.2327086627,-33.4155446291,0 19.2332786322,-33.4156693518,0 19.2341838777,-33.4158490598,0 19.2344628274,-33.4159040451,0 19.235022068,-33.4160207212,0 19.2353546619,-33.4160904586,0 19.2364168167,-33.4163117409,0 19.2376720905,-33.416582644,0 19.2388482392,-33.4168320894,0 19.2392961681,-33.4169273078,0 19.2398460209,-33.417045325,0 19.241322577,-33.4173591435,0 19.2424276471,-33.4175804257,0 19.2425000668,-33.417596519,0 19.2434549332,-33.417801708,0 19.244530499,-33.4180229902,0 19.2448295653,-33.4181007743,0 19.245429039,-33.4182576835,0 19.2459923029,-33.4184212983,0 19.2460928857,-33.4184508026,0 19.2469337583,-33.418700248,0 19.247611016,-33.4189134836,0 19.2480227351,-33.4190355241,0 19.2493651807,-33.4194338322,0 19.2508551478,-33.4198924899,0 19.2512145638,-33.4200024605,0 19.2518422008,-33.4201928973,0 19.2521895468,-33.4202988446,0 19.2528158426,-33.4204919636,0 19.2531806231,-33.4205697477,0 19.253257066,-33.4205791354,0 19.2536862195,-33.4206274152,0 19.2541140318,-33.4206193686,0 19.2544855177,-33.4205764532,0 19.2547926307,-33.4205147624,0 19.2551359534,-33.420445025,0 19.2555396259,-33.4203632176,0 19.2563027143,-33.4202116728,0 19.2566862702,-33.4201352298,0 19.2571945488,-33.420034647,0 19.2582432926,-33.4197999537,0 19.2586563528,-33.4197637439,0 19.2591056228,-33.4198066592,0 19.2595052719,-33.4198991954,0 19.2598821223,-33.4200426936,0 19.2602536082,-33.4202559292,0 19.2606881261,-33.4206274152,0 19.2611373961,-33.4209479392,0 19.2614659667,-33.4210968018,0 19.2616295815,-33.4211397171,0 19.2620010674,-33.4211692214,0 19.2623993754,-33.4211477637,0 19.262663573,-33.4210900962,0 19.2628848553,-33.42099756,0 19.2632120848,-33.4208339453,0 19.2632268369,-33.4208258986,0 19.2636613548,-33.4205912054,0 19.2638893425,-33.4205120802,0 19.2640636861,-33.4204718471,0 19.2643104494,-33.4204128385,0 19.2652116716,-33.4202063084,0 19.2652451992,-33.4201996028,0 19.2659090459,-33.4201137722,0 19.2661853135,-33.4200923145,0 19.266820997,-33.42009902,0 19.2673118412,-33.4201486409,0 19.2676766217,-33.4201915562,0 19.2682184279,-33.4202706814,0 19.269194752,-33.4204061329,0 19.269644022,-33.420470506,0 19.2698653042,-33.420483917,0 19.2701429129,-33.4204624593,0 19.2704567313,-33.4204061329,0 19.2706927657,-33.4203270078,0 19.2709770799,-33.4201700985,0 19.2714048922,-33.4198643267,0 19.2716623843,-33.4197208285,0 19.2719399929,-33.4196148813,0 19.2721961439,-33.4195357561,0 19.2730598152,-33.4192863107,0 19.2739583552,-33.4190368652,0 19.2746074498,-33.418879956,0 19.275405407,-33.4187230468,0 19.2757621408,-33.4186734259,0 19.2760759592,-33.4186948836,0 19.2765748501,-33.4188008308,0 19.277972281,-33.4191226959,0 19.2793348432,-33.4194499254,0 19.2806249857,-33.419714123,0 19.2812740803,-33.4197999537,0 19.2822504044,-33.4198991954,0 19.2831422389,-33.4199850261,0 19.2836411297,-33.4200493991,0 19.2841400206,-33.4201057255,0 19.2844752967,-33.4201271832,0 19.2848105729,-33.4200775623,0 19.2850452662,-33.4200064838,0 19.2852450907,-33.4199072421,0 19.285466373,-33.4197637439,0 19.2856782675,-33.4195786715,0 19.2858083546,-33.4194646776,0 19.2864212394,-33.4188947082,0 19.2874056101,-33.4179961681,0 19.287904501,-33.4175173938,0 19.2883899808,-33.4169541299,0 19.2889103293,-33.4163345397,0 19.2894239724,-33.4156706929,0 19.2895661294,-33.4153997898,0 19.2896519601,-33.4151288867,0 19.28968817,-33.4147587419,0 19.2896519601,-33.4144301713,0 19.2895808816,-33.4141592681,0 19.2894306779,-33.413874954,0 19.2891664803,-33.4135463834,0 19.288854003,-33.4131963551,0 19.2888043821,-33.4131413698,0 19.2886327207,-33.4129469097,0 19.2883966863,-33.4126196802,0 19.2881686985,-33.4122696519,0 19.2878977954,-33.4118069708,0 19.2874056101,-33.4109795094,0 19.2872567475,-33.4106938541,0 19.2871132493,-33.410358578,0 19.2869134247,-33.4098744392,0 19.2867431045,-33.4093607962,0 19.286685437,-33.4091824293,0 19.2865929008,-33.4088404477,0 19.2865365744,-33.4085118771,0 19.286493659,-33.4080840647,0 19.2864507437,-33.4077635407,0 19.2864078283,-33.4074644744,0 19.2863367498,-33.4071224928,0 19.2861583829,-33.4064438939,0 19.2861007154,-33.4061810374,0 19.2860725522,-33.405995965,0 19.2860725522,-33.4057813883,0 19.2860873044,-33.4055037796,0 19.2861302197,-33.4051322937,0 19.2861436307,-33.4048265219,0 19.2861302197,-33.4044483304,0 19.2860229313,-33.4037777781,0 19.2859947681,-33.4035001695,0 19.2860014737,-33.4032359719,0 19.2860229313,-33.4028939903,0 19.2861503363,-33.4020665288,0 19.2863152921,-33.4008823335,0 19.2864722013,-33.400221169,0 19.2866787314,-33.3995291591,0 19.2868463695,-33.3990195394,0 19.2869348824,-33.3987526596,0 19.2870140076,-33.3984750509,0 19.2870274186,-33.3982041478,0 19.2869777977,-33.3979037404,0 19.2868490517,-33.3973833919,0 19.2867001891,-33.3968415856,0 19.2866425216,-33.3965344727,0 19.2866639793,-33.3961857855,0 19.2867431045,-33.3959497511,0 19.2868490517,-33.395743221,0 19.2870917916,-33.3954803646,0 19.2873707414,-33.3951665461,0 19.2875625193,-33.3949171007,0 19.2876979709,-33.3946663141,0 19.2877623439,-33.3944101632,0 19.287777096,-33.3941607177,0 19.2877556384,-33.393946141,0 19.2876416445,-33.3936470747,0 19.2874632776,-33.3933480084,0 19.2871427536,-33.3930060267,0 19.2868423462,-33.3926922083,0 19.286685437,-33.3924280107,0 19.2866076529,-33.3922496438,0 19.2865499854,-33.3919841051,0 19.2865419388,-33.3919358253,0 19.2865325511,-33.3917990327,0 19.2865137756,-33.3914718032,0 19.2864762247,-33.3909112215,0 19.2864762247,-33.3907677233,0 19.2865030468,-33.3905732632,0 19.2865513265,-33.3904083073,0 19.2866653204,-33.3901910484,0 19.2867659032,-33.3900529146,0 19.2868182063,-33.3899885416,0 19.2869147658,-33.3898799121,0 19.2870354652,-33.389775306,0 19.2874418199,-33.3895473182,0 19.2878977954,-33.3893045783,0 19.2881686985,-33.3891476691,0 19.2882987857,-33.3890229464,0 19.2883966863,-33.3888848126,0 19.2884892225,-33.3886487782,0 19.2884972692,-33.3884985745,0 19.2884677649,-33.3883067966,0 19.2883846164,-33.3880211413,0 19.2883591354,-33.3879782259,0 19.2883336544,-33.3878682554,0 19.2883269489,-33.3877743781,0 19.2883296311,-33.3876630664,0 19.2883752286,-33.3875142038,0 19.2884624004,-33.3873894811,0 19.2885670066,-33.3872902393,0 19.2887493968,-33.3871440589,0 19.2890886962,-33.3868798614,0 19.2894092202,-33.3866089582,0 19.2896023393,-33.3863675594,0 19.2896948755,-33.3861891925,0 19.2897444963,-33.3860389888,0 19.2897592485,-33.385682255,0 19.28968817,-33.3846630156,0 19.2896465957,-33.3839482069,0 19.2895808816,-33.3830228448,0 19.2895808816,-33.3825802803,0 19.2896586657,-33.3820894361,0 19.2897766829,-33.381652236,0 19.2898933589,-33.3813048899,0 19.2900234461,-33.3810473979,0 19.2903868854,-33.380548507,0 19.2906711996,-33.3801354468,0 19.2908576131,-33.3798927069,0 19.2910641432,-33.3796647191,0 19.2912425101,-33.3794930577,0 19.2914329469,-33.3793415129,0 19.2917910218,-33.3791282773,0 19.2922617495,-33.3788868785,0 19.2925608158,-33.3787380159,0 19.2929457128,-33.3786092699,0 19.2932139337,-33.3785422146,0 19.293423146,-33.3785113692,0 19.2936189473,-33.3784966171,0 19.2938885093,-33.3784912527,0 19.2941379547,-33.3785140514,0 19.29441154,-33.3785569668,0 19.2948044837,-33.3786360919,0 19.2951397598,-33.3786991239,0 19.2953811586,-33.3787366748,0 19.2955756187,-33.3787608147,0 19.2957673967,-33.3787795901,0 19.2960557342,-33.3787876368,0 19.2967826128,-33.3787876368,0 19.297400862,-33.3787876368,0 19.2975457013,-33.3787876368,0 19.2978662252,-33.3787447214,0 19.2981438339,-33.3786669374,0 19.2982725799,-33.3785998821,0 19.2983865738,-33.3785167336,0 19.298504591,-33.3784148097,0 19.2985931039,-33.3782954514,0 19.2986641824,-33.3781801164,0 19.2986856401,-33.3781157434,0 19.2987070978,-33.3780527115,0 19.2987433076,-33.3778461814,0 19.2987218499,-33.3775819838,0 19.2986226082,-33.3772614598,0 19.2985220253,-33.3769905567,0 19.2984724045,-33.3766633272,0 19.2984603345,-33.3764205873,0 19.2984576523,-33.3763629198,0 19.2985126376,-33.376082629,0 19.2986145616,-33.3757433295,0 19.2987325788,-33.3755528927,0 19.2987982929,-33.3754482865,0 19.2988908291,-33.3753235638,0 19.2989833653,-33.3751975,0 19.2990195751,-33.375146538,0 19.2991831899,-33.3749896288,0 19.2992904782,-33.3748863637,0 19.2993481457,-33.3748313785,0 19.2997062206,-33.3745738864,0 19.2998121679,-33.3745162189,0 19.3001702428,-33.374324441,0 19.3003633618,-33.3742386103,0 19.3007563055,-33.3740656078,0 19.3007710576,-33.3740589023,0 19.3008770049,-33.3740133047,0 19.3010674417,-33.3739261329,0 19.3012404442,-33.3738470078,0 19.3012994528,-33.3738215268,0 19.3013584614,-33.3737947047,0 19.3014979362,-33.3737303317,0 19.3025158346,-33.3732689917,0 19.3030147254,-33.373042345,0 19.3037134409,-33.3727043867,0 19.3040755391,-33.3725300431,0 19.3041479588,-33.3726359904,0 19.3048131466,-33.37361902,0 19.3053200841,-33.3743311465,0 19.3054126203,-33.3744612336,0 19.3051229417,-33.3745966852,0 19.3044658005,-33.374902457,0 19.3042592704,-33.3749976754,0
            </coordinates>
        </LineString>
        </Placemark>
  </Folder>
        </Document>
    </kml>
    