<?xml version="1.0" encoding="UTF-8"?>
    <kml xmlns="http://www.opengis.net/kml/2.2">
    <Document>
        <name>Colored Path</name>
        <Folder>
            <name>Day 5</name>
            <open>1</open>
            <Style id="blackLine">
            <LineStyle>
                <color>ff000000</color>
                <width>4</width>
            </LineStyle>
            </Style>
            <Style id="redLine">
            <LineStyle>
                <color>ff0000ff</color>
                <width>4</width>
            </LineStyle>
            </Style>
        <Placemark>
        <name>Segment 1 (True)</name>
        <styleUrl>#blackLine</styleUrl>
        <LineString>
            <tessellate>1</tessellate>
            <coordinates>
            21.2413519621,-28.4568563104,0 21.2423041463,-28.457673043,0 21.2426769733,-28.4579922259,0 21.2425374985,-28.4581249952,0 21.2425991893,-28.4581880271,0 21.2426179647,-28.4582282603,0 21.2426179647,-28.4582537413,0 21.2426152825,-28.4582912922,0 21.2425991893,-28.4583221376,0 21.2425750494,-28.4583503008,0 21.2425348163,-28.4583999217,0 21.2424919009,-28.4584616125,0 21.2424342334,-28.4585273266,0 21.2425509095,-28.458648026,0 21.2419098616,-28.4592367709,0 21.2408128381,-28.4602573514,0 21.2405432761,-28.4605027735,0 21.2403005362,-28.4607213736,0 21.2400886416,-28.4609131515,0 21.2399330735,-28.4610566497,0 21.2397828698,-28.461163938,0 21.2396769226,-28.4612256289,0 21.2394931912,-28.4613208473,0 21.2392759323,-28.4614160657,0 21.2390801311,-28.4614884853,0 21.2388682365,-28.4615716338,0 21.2386375666,-28.4616373479,0 21.2383961678,-28.4616775811,0 21.2382178009,-28.4617030621,0 21.2380260229,-28.4617030621,0 21.2377953529,-28.4616802633,0 21.2375324965,-28.4616534412,0 21.237218678,-28.4616279602,0 21.2370362878,-28.4616132081,0 21.2368029356,-28.461625278,0 21.2365615368,-28.4616869688,0 21.2363040447,-28.461779505,0 21.2359660864,-28.4619136155,0 21.2357260287,-28.4620249271,0 21.2355932593,-28.4620852768,0 21.2354645133,-28.4621523321,0 21.2352097034,-28.4622783959,0 21.2348690629,-28.4624741971,0 21.2345793843,-28.4626378119,0 21.2341971695,-28.462844342,0 21.2339490652,-28.4629690647,0 21.2337639928,-28.4630616009,0 21.2334099412,-28.4632131457,0 21.2333831191,-28.4632225335,0 21.2328600883,-28.463422358,0 21.232432276,-28.4635819495,0 21.2321224809,-28.4636932611,0 21.2319347262,-28.4637616575,0 21.2315914035,-28.4638863802,0 21.2313124537,-28.4639856219,0 21.2309101224,-28.4641318023,0 21.2306258082,-28.4642457962,0 21.2304165959,-28.464332968,0 21.2301108241,-28.4644643962,0 21.2298318744,-28.4646038711,0 21.2294134498,-28.4648345411,0 21.2289252877,-28.4651108086,0 21.2284827232,-28.4653629363,0 21.2278094888,-28.465745151,0 21.227157712,-28.4661152959,0 21.2266775966,-28.4663915634,0 21.2266212702,-28.4664237499,0 21.226323545,-28.4665846825,0 21.225425005,-28.4670956433,0 21.2251165509,-28.4672659636,0 21.2246954441,-28.4674872458,0 21.2243038416,-28.4676736593,0 21.2239712477,-28.4678345919,0 21.2235796452,-28.4680129588,0 21.2229761481,-28.4682637453,0 21.2226596475,-28.4684166312,0 21.2223941088,-28.468529284,0 21.2220266461,-28.4686942399,0 21.2217235565,-28.4688524902,0 21.2215545774,-28.4689369798,0 21.2211602926,-28.4691596031,0 21.2208598852,-28.46933797,0 21.2204790115,-28.4695753455,0 21.2202322483,-28.4697268903,0 21.2196689844,-28.4700782597,0 21.2192130089,-28.4703598917,0 21.2186604738,-28.4707018733,0 21.2182152271,-28.4709821641,0 21.2179684639,-28.4711283445,0 21.2177807093,-28.4712342918,0 21.2174212933,-28.4714059532,0 21.2171369791,-28.4715306759,0 21.2169384956,-28.4716084599,0 21.2166675925,-28.4717009962,0 21.2163805962,-28.4717854857,0 21.2160587311,-28.4718632698,0 21.2154632807,-28.4719960392,0 21.21491611,-28.4721113741,0 21.2145727873,-28.4721837938,0 21.2140309811,-28.4723071754,0 21.2137117982,-28.4723688662,0 21.213132441,-28.4724909067,0 21.2126067281,-28.4726035595,0 21.21222049,-28.4726840258,0 21.211796701,-28.4727859497,0 21.2115284801,-28.4728556871,0 21.211348772,-28.4729146957,0 21.211169064,-28.4729763865,0 21.210975945,-28.4730380774,0 21.2107747793,-28.4731131792,0 21.2105816603,-28.4731936455,0 21.2103375793,-28.4732969105,0 21.2098775804,-28.4735128284,0 21.2092673779,-28.4738105536,0 21.2086746097,-28.4740895033,0 21.2081193924,-28.4743630886,0 21.2077358365,-28.47453475,0 21.207459569,-28.4746554494,0 21.2071752548,-28.4747640789,0 21.2069499493,-28.4748445451,0 21.2066790462,-28.4749290347,0 21.2063893676,-28.4750135243,0 21.2060594559,-28.4750966728,0 21.2058502436,-28.475138247,0 21.2056544423,-28.4751717746,0 21.2054157257,-28.4752093256,0 21.2051877379,-28.4752428532,0 21.2049785256,-28.4752750397,0 21.2047210336,-28.4752964973,0 21.2044152617,-28.4753152728,0 21.2041416764,-28.4753219783,0 21.2038198113,-28.4753206372,0 21.2035274506,-28.4753152728,0 21.2032297254,-28.4752991796,0 21.202827394,-28.4752897918,0 21.2023365498,-28.4752696753,0 21.2021756172,-28.4752629697,0 21.2015144527,-28.4752441943,0 21.2007781863,-28.47521469,0 21.2003543973,-28.4751972556,0 21.1998152733,-28.4751878679,0 21.1991983652,-28.4751945734,0 21.198836267,-28.4752120078,0 21.198425889,-28.4752495587,0 21.1980557442,-28.4753018618,0 21.1976400018,-28.4753742814,0 21.1973047256,-28.4754426777,0 21.1969131231,-28.4755392373,0 21.1967736483,-28.4755794704,0 21.1963176727,-28.4757122397,0 21.195808053,-28.4758785367,0 21.1953306198,-28.4760475159,0 21.1948612332,-28.4762352705,0 21.1942201853,-28.4764820337,0 21.1936461926,-28.476742208,0 21.1931151152,-28.4770198166,0 21.1927610636,-28.4772370756,0 21.1925598979,-28.4773738682,0 21.1922889948,-28.4775575995,0 21.1917793751,-28.4779585898,0 21.1912402511,-28.4784159064,0 21.1907762289,-28.4788115323,0 21.1900547147,-28.4794270992,0 21.1892420053,-28.480117768,0 21.1872920394,-28.4817780554,0 21.1866053939,-28.4823721647,0 21.186016649,-28.4828777611,0 21.1857390404,-28.4831191599,0 21.1855271459,-28.4833270311,0 21.185272336,-28.4835912287,0 21.1849343777,-28.483980149,0 21.1847814918,-28.4841705859,0 21.1845454574,-28.4844750166,0 21.1843684316,-28.484736532,0 21.1841243505,-28.4851294756,0 21.1839473248,-28.4854580462,0 21.1837649345,-28.4858483076,0 21.1836817861,-28.48604545,0 21.1835262179,-28.4864504635,0 21.1833706498,-28.486957401,0 21.1832486093,-28.4873610735,0 21.182320565,-28.4904107451,0 21.1814716458,-28.4932887554,0 21.1812356114,-28.4940773249,0 21.1805784702,-28.4962807596,0 21.1804698408,-28.4966294467,0 21.1799615622,-28.4982763231,0 21.1796651781,-28.4992365539,0 21.1796611547,-28.499249965,0 21.1795833707,-28.4995530546,0 21.1794479191,-28.4999889135,0 21.1793553829,-28.5003080964,0 21.1778238416,-28.5053949058,0 21.1777541041,-28.5056175292,0 21.1776253581,-28.5060694814,0 21.1775100231,-28.5064584017,0 21.1772713065,-28.5072241724,0 21.1771345139,-28.5076063871,0 21.1769159138,-28.508091867,0 21.1767603457,-28.5083721578,0 21.1756056547,-28.510260433,0 21.1754581332,-28.5104911029,0 21.1749002337,-28.5113748908,0 21.1743932962,-28.5121741891,0 21.1739104986,-28.5129386187,0 21.173478663,-28.5136212409,0 21.1731702089,-28.5141120851,0 21.172773242,-28.5147450864,0 21.1721804738,-28.5156811774,0 21.1716413498,-28.5165341198,0 21.1713114381,-28.5170477629,0 21.1712068319,-28.5172154009,0 21.1708635092,-28.5177558661,0 21.1706033349,-28.5181702673,0 21.1702036858,-28.5188019276,0 21.1699649692,-28.5191841424,0 21.1696511507,-28.519680351,0 21.1693668365,-28.5201242566,0 21.1689323187,-28.5208122432,0 21.1684280634,-28.5216061771,0 21.1680418253,-28.5222217441,0 21.1675804853,-28.5229673982,0 21.1673256755,-28.523363024,0 21.1670990288,-28.5237143934,0 21.1668536067,-28.5240966082,0 21.1666631699,-28.5244104266,0 21.1663064361,-28.5249696672,0 21.166062355,-28.5253532231,0 21.1657887697,-28.525801152,0 21.1655285954,-28.5262034833,0 21.1653006077,-28.5265669227,0 21.1650109291,-28.5270242393,0 21.1646381021,-28.5276183486,0 21.164265275,-28.5282030702,0 21.1637368798,-28.529034555,0 21.1635196209,-28.5293993354,0 21.162942946,-28.5302884877,0 21.1625674367,-28.5308933258,0 21.1621946096,-28.5314753652,0 21.1619237065,-28.5319139063,0 21.161596477,-28.5324208438,0 21.1613497138,-28.5328231752,0 21.1610385776,-28.5333059728,0 21.1607059836,-28.5338410735,0 21.1602151394,-28.5346202552,0 21.1598208547,-28.5352438688,0 21.1596572399,-28.5355000198,0 21.1594024301,-28.53590101,0 21.159158349,-28.5362899303,0 21.1588954926,-28.5367003083,0 21.1584717035,-28.537376225,0 21.1581900716,-28.5378147662,0 21.1578708887,-28.5383230448,0 21.1574926972,-28.5389171541,0 21.1571520567,-28.5394616425,0 21.1568060517,-28.5400061309,0 21.1564788222,-28.5405237973,0 21.1558753252,-28.5414813459,0 21.1554461718,-28.5421612859,0 21.1550948024,-28.5427218676,0 21.1546012759,-28.5435184836,0 21.1541426182,-28.5442252457,0 21.1538529396,-28.5446865857,0 21.1537590623,-28.5448354483,0 21.1534720659,-28.5452860594,0 21.152908802,-28.5461738706,0 21.152535975,-28.5467773676,0 21.1523106694,-28.547128737,0 21.1519217491,-28.547732234,0 21.1515301466,-28.5483437777,0 21.1511734128,-28.5489043593,0 21.1508756876,-28.5493643582,0 21.1504143476,-28.5500966012,0 21.1502158642,-28.5504063964,0 21.1499449611,-28.5508529842,0 21.1496177316,-28.5513719916,0 21.1492609978,-28.5519486666,0 21.1492046714,-28.5520385206,0 21.1486548185,-28.5529008508,0 21.1474853754,-28.5547542572,0 21.1473190784,-28.5550090671,0 21.1470481753,-28.555444926,0 21.1467263103,-28.5559518635,0 21.1466646194,-28.5560551286,0 21.1464419961,-28.5564011335,0 21.1461576819,-28.5568423569,0 21.1459431052,-28.5571856797,0 21.1457124352,-28.5575611889,0 21.145452261,-28.5579608381,0 21.1449694633,-28.558729291,0 21.1442023516,-28.5599403083,0 21.1437946558,-28.5605974495,0 21.143604219,-28.5608401895,0 21.1433802545,-28.5611888766,0 21.1430034041,-28.561668992,0 21.1427298188,-28.5619774461,0 21.1423301697,-28.5624307394,0 21.142000258,-28.5627928376,0 21.1417749524,-28.5630382597,0 21.1414423585,-28.5633896291,0 21.1409434676,-28.5639233887,0 21.140409708,-28.5644933581,0 21.1397498846,-28.5652001202,0 21.1393046379,-28.5656815767,0 21.1388513446,-28.5661616921,0 21.1379849911,-28.5670870543,0 21.1366331577,-28.568534106,0 21.1365862191,-28.5685917735,0 21.1362227798,-28.5689739883,0 21.1357265711,-28.5695117712,0 21.1352786422,-28.5699824989,0 21.1348870397,-28.5704062879,0 21.1344096065,-28.5709199309,0 21.1338436604,-28.5715261102,0 21.1331838369,-28.57223019,0 21.1327144504,-28.5727250576,0 21.1321780086,-28.5733057559,0 21.1313720047,-28.5741734505,0 21.1310139298,-28.5745503008,0 21.1306920648,-28.5748936236,0 21.1303058267,-28.5753080249,0 21.1300590634,-28.5755722225,0 21.1297211051,-28.5759396851,0 21.1293187737,-28.5763715208,0 21.1289995909,-28.5767121613,0 21.1284068227,-28.5773465037,0 21.1277711391,-28.5780264437,0 21.127281636,-28.5785534978,0 21.1272695661,-28.5785655677,0 21.1266714334,-28.5791999102,0 21.1262986064,-28.5796076059,0 21.1259391904,-28.5799790919,0 21.125459075,-28.5804994404,0 21.1249789596,-28.5810104012,0 21.1243969202,-28.5816420615,0 21.1238524318,-28.5822173953,0 21.1230584979,-28.5830689967,0 21.1223772168,-28.5837905109,0 21.1219990253,-28.5841995478,0 21.1214464903,-28.5847963393,0 21.1207678914,-28.5855165124,0 21.1202180386,-28.5861106217,0 21.1196199059,-28.5867463052,0 21.1189225316,-28.5874906182,0 21.1174017191,-28.589117378,0 21.1173011363,-28.5892246664,0 21.1169913411,-28.5895639658,0 21.1163006723,-28.5903190076,0 21.1139577627,-28.592813462,0 21.1137726903,-28.5930065811,0 21.1135929823,-28.5932037234,0 21.1133784056,-28.5934089124,0 21.1131343246,-28.5936516523,0 21.1130605638,-28.5937227309,0 21.1129492521,-28.5938286781,0 21.1127185822,-28.5940258205,0 21.1124959588,-28.5942162573,0 21.1122760177,-28.5943932831,0 21.1120533943,-28.5945649445,0 21.1117422581,-28.5948050022,0 21.1114552617,-28.5950155556,0 21.1108973622,-28.5954031348,0 21.1103984714,-28.5957424343,0 21.1102724075,-28.5958255827,0 21.1096554995,-28.5962346196,0 21.1086885631,-28.596894443,0 21.1082339287,-28.5972055793,0 21.1079576612,-28.5973906517,0 21.1079522967,-28.597394675,0 21.10750705,-28.5976977646,0 21.1067640781,-28.598203361,0 21.1061954498,-28.5985895991,0 21.1055490375,-28.599037528,0 21.1051923037,-28.5992735624,0 21.104875803,-28.5994854569,0 21.1044546962,-28.5997697711,0 21.1039692163,-28.6000943184,0 21.103438139,-28.6004604399,0 21.102617383,-28.6010102928,0 21.1019173265,-28.6014823616,0 21.1012414098,-28.601950407,0 21.1005976796,-28.602386266,0 21.1000397801,-28.6027617753,0 21.0999619961,-28.6028140783,0 21.099691093,-28.6029937863,0 21.0993719101,-28.6032150686,0 21.0988381505,-28.603579849,0 21.0983124375,-28.6039379239,0 21.097869873,-28.604234308,0 21.0974541306,-28.6045226455,0 21.0969632864,-28.6048538983,0 21.0963758826,-28.6052495241,0 21.0956758261,-28.6057256162,0 21.095148772,-28.6060971022,0 21.0945868492,-28.6065074801,0 21.0942301154,-28.606775701,0 21.0937526822,-28.6071498692,0 21.0933423042,-28.6075025797,0 21.0930606723,-28.6077359319,0 21.0927066207,-28.6080470681,0 21.0921701789,-28.6085432768,0 21.0917544365,-28.6089321971,0 21.0912689567,-28.6094203591,0 21.0909846425,-28.6097113788,0 21.0906949639,-28.610009104,0 21.0904401541,-28.6102813482,0 21.0899224877,-28.6108097434,0 21.0895362496,-28.6112187803,0 21.0891151428,-28.6116492748,0 21.0886403918,-28.6121468246,0 21.0881924629,-28.6126108468,0 21.0875836015,-28.6132398248,0 21.0868111253,-28.6140418053,0 21.0864946246,-28.6143676937,0 21.0860788822,-28.6148075759,0 21.0856685042,-28.615231365,0 21.08494699,-28.6159797013,0 21.0844320059,-28.616514802,0 21.083919704,-28.6170445383,0 21.0835710168,-28.6173972487,0 21.0830694437,-28.6179229617,0 21.0825893283,-28.6184164882,0 21.0819590092,-28.6190709472,0 21.0814172029,-28.6196275055,0 21.0809987783,-28.62007007,0 21.0804542899,-28.620634675,0 21.0799983144,-28.6211054027,0 21.0790702701,-28.6220683157,0 21.0787162185,-28.6224290729,0 21.0783460736,-28.6228099465,0 21.0779196024,-28.623264581,0 21.0775494576,-28.623637408,0 21.0772195458,-28.6239901185,0 21.0768172145,-28.6243951321,0 21.0763156414,-28.6249262094,0 21.0761842132,-28.6250656843,0 21.075527072,-28.6257322133,0 21.0746607184,-28.6266320944,0 21.0745131969,-28.6267890036,0 21.0743495822,-28.6269593239,0 21.0742892325,-28.6270210147,0 21.0739338398,-28.6273898184,0 21.0735449195,-28.6278095841,0 21.0732445121,-28.6280952394,0 21.0730111599,-28.6283245683,0 21.072858274,-28.6284720898,0 21.0726571083,-28.6286450922,0 21.0723647475,-28.6288918555,0 21.0720536113,-28.6291480064,0 21.071908772,-28.6292633414,0 21.0717451572,-28.6293934286,0 21.0714179277,-28.6296240985,0 21.0713562369,-28.629668355,0 21.071010232,-28.6298950016,0 21.070715189,-28.6300881207,0 21.0702431202,-28.6303885281,0 21.069804579,-28.630656749,0 21.0696181655,-28.6307707429,0 21.0685881972,-28.6314104497,0 21.0680302978,-28.6317631602,0 21.067866683,-28.6318610609,0 21.0676172376,-28.6320206523,0 21.0673221946,-28.6322070658,0 21.0669332743,-28.6324444413,0 21.0665309429,-28.632696569,0 21.066198349,-28.632889688,0 21.0657396913,-28.6331900954,0 21.0648599267,-28.6337292194,0 21.063811183,-28.6343796551,0 21.0627490282,-28.6350461841,0 21.0624647141,-28.6352178454,0 21.0619577765,-28.635546416,0 21.0615313053,-28.6358106136,0 21.061078012,-28.6360855401,0 21.0604825616,-28.6364610493,0 21.0594391823,-28.6371074617,0 21.0587283969,-28.6375500262,0 21.0576206446,-28.6382380128,0 21.0571378469,-28.6385397613,0 21.0566067696,-28.6388683319,0 21.0557243228,-28.6394168437,0 21.0553340614,-28.6396595836,0 21.0542571545,-28.6403287947,0 21.0536912084,-28.6406815052,0 21.0531923175,-28.6409926414,0 21.0523635149,-28.6415076256,0 21.0518351197,-28.6418348551,0 21.0512852669,-28.6421848834,0 21.0506308079,-28.6425858736,0 21.0502579808,-28.6428205669,0 21.0496544838,-28.6431907117,0 21.0491421819,-28.6435112357,0 21.0486727953,-28.6438022554,0 21.0481765866,-28.6441107094,0 21.0476723313,-28.6444312334,0 21.0470178723,-28.6448308825,0 21.0461997986,-28.6453418434,0 21.045730412,-28.6456274986,0 21.0453414917,-28.6458648741,0 21.0449981689,-28.6460928619,0 21.0445985198,-28.6463302374,0 21.0438877344,-28.6467781663,0 21.0433700681,-28.6470986903,0 21.0427424312,-28.6474889517,0 21.0423669219,-28.6477343738,0 21.0419163108,-28.6480160058,0 21.0410472751,-28.6485980451,0 21.0393306613,-28.6497460306,0 21.0391911864,-28.6498385668,0 21.0386949778,-28.6501604319,0 21.0382014513,-28.6504930258,0 21.0375657678,-28.6509181559,0 21.0369300842,-28.6513446271,0 21.0364070535,-28.6516879499,0 21.0360530019,-28.6519239843,0 21.0356560349,-28.6521801353,0 21.035374403,-28.6523759365,0 21.0347896814,-28.6527594924,0 21.0343846679,-28.6530317366,0 21.033641696,-28.6535292864,0 21.0334888101,-28.6536312103,0 21.0328692198,-28.6540442705,0 21.0323140025,-28.6544157565,0 21.0316300392,-28.6548757553,0 21.0306617618,-28.65551278,0 21.0301360488,-28.6558587849,0 21.0296452045,-28.65618065,0 21.0288190842,-28.6567251384,0 21.0279071331,-28.6573179066,0 21.0277488828,-28.6574198306,0 21.0271453857,-28.6578248441,0 21.0265901685,-28.6582151055,0 21.0261127353,-28.6585356295,0 21.0257077217,-28.6588145792,0 21.0249862075,-28.6592879891,0 21.0245409608,-28.6595830321,0 21.024119854,-28.6598700285,0 21.0235404968,-28.6602509022,0 21.0228860378,-28.6606934667,0 21.0223898292,-28.6610206962,0 21.0218721628,-28.6613680422,0 21.0214993358,-28.6616107821,0 21.0213035345,-28.661750257,0 21.0206893086,-28.6621646583,0 21.0200938582,-28.662545532,0 21.0195440054,-28.6629250646,0 21.0191631317,-28.66317451,0 21.0185194016,-28.6635996401,0 21.0176610947,-28.6641722918,0 21.0166230798,-28.6648616195,0 21.016215384,-28.6651298404,0 21.0152041912,-28.6658003926,0 21.0144558549,-28.6663019657,0 21.0137906671,-28.666741848,0 21.0129672289,-28.667294383,0 21.0125488043,-28.6675719917,0 21.0120767355,-28.6678898335,0 21.0113176703,-28.6683887243,0 21.0106471181,-28.6688379943,0 21.0098665953,-28.6693663895,0 21.0092818737,-28.6697512865,0 21.0084155202,-28.6703279614,0 21.0079541802,-28.6706323922,0 21.0073372722,-28.6710387468,0 21.0064253211,-28.6716502905,0 21.0056099296,-28.672182709,0 21.0048776865,-28.6726748943,0 21.0041695833,-28.6731429398,0 21.0037833452,-28.673401773,0 21.0034266114,-28.6736364663,0 21.0028204322,-28.674044162,0 21.0021927953,-28.6744585633,0 21.0018065572,-28.674710691,0 21.0015946627,-28.6748635769,0 21.0012191534,-28.6751036346,0 21.000854373,-28.6753503978,0 21.0005700588,-28.6755569279,0 21.0004493594,-28.675648123,0 21.0002911091,-28.6757661402,0 21.0000443459,-28.675955236,0 20.9997627139,-28.6761832237,0 20.9993335605,-28.6765547097,0 20.9990090132,-28.6768376827,0 20.9988588095,-28.6769852042,0 20.998595953,-28.6772628129,0 20.9983223677,-28.6775484681,0 20.9980300069,-28.6778515577,0 20.997929424,-28.6779642105,0 20.9976089001,-28.6783182621,0 20.9971663356,-28.678805083,0 20.9969088435,-28.6790947616,0 20.9965413809,-28.6795011163,0 20.9960880876,-28.6799933016,0 20.9958708286,-28.6802360415,0 20.9955435991,-28.680588752,0 20.9951198101,-28.6810474098,0 20.9947121143,-28.6814926565,0 20.9942749143,-28.6819700897,0 20.9939906001,-28.6822731793,0 20.9938108921,-28.6824662983,0 20.9936526418,-28.6826406419,0 20.993411243,-28.6829209328,0 20.9932127595,-28.6831060052,0 20.9928935766,-28.6834587157,0 20.9926602244,-28.6837108433,0 20.9923785925,-28.6840286851,0 20.992115736,-28.6842902005,0 20.9919199347,-28.6845181882,0 20.9914585948,-28.6850117147,0 20.9910348058,-28.6854757369,0 20.9906700253,-28.6858592927,0 20.9904581308,-28.6861141026,0 20.9900397062,-28.6865486205,0 20.9894630313,-28.6871816218,0 20.9891331196,-28.6875396967,0 20.9887549281,-28.687942028,0 20.9884920716,-28.6882384121,0 20.9882828593,-28.6884596944,0 20.9879904985,-28.6887788773,0 20.9874889255,-28.6893045902,0 20.987124145,-28.6897136271,0 20.9867459536,-28.6901387572,0 20.9865126014,-28.6904190481,0 20.9862282872,-28.6908052862,0 20.9859412909,-28.6911955476,0 20.9857669473,-28.6914597452,0 20.9856033325,-28.6917158961,0 20.9855590761,-28.6917896569,0 20.9853485227,-28.6921437085,0 20.9851500392,-28.6924991012,0 20.9849703312,-28.692869246,0 20.984801352,-28.6932072043,0 20.9846283495,-28.6936175823,0 20.9844473004,-28.6940856278,0 20.9843292832,-28.6944195628,0 20.9842219949,-28.6947575212,0 20.9841281176,-28.6950901151,0 20.9840369225,-28.6954683065,0 20.9839510918,-28.6958572268,0 20.983902812,-28.6960503459,0 20.9838746488,-28.6962139606,0 20.9838598967,-28.6963038146,0 20.9837579727,-28.6970025301,0 20.9836426377,-28.6977817118,0 20.9835219383,-28.6986266077,0 20.9834709764,-28.6989860237,0 20.9833958745,-28.6994513869,0 20.9833046794,-28.7001246214,0 20.9831920266,-28.7008863688,0 20.983082056,-28.7016065419,0 20.982978791,-28.7024205923,0 20.9829506278,-28.702609688,0 20.9828393161,-28.7033580244,0 20.9828084707,-28.7036088109,0 20.9826877713,-28.704456389,0 20.9826394916,-28.7047916651,0 20.9826233983,-28.7048748136,0 20.9825965762,-28.7050196528,0 20.9825858474,-28.7051215768,0 20.9825590253,-28.7052811682,0 20.9825134277,-28.7056580186,0 20.9824410081,-28.7061475217,0 20.9823551774,-28.7067148089,0 20.9823149443,-28.7069629133,0 20.9822693467,-28.7072391808,0 20.9821848571,-28.7078735232,0 20.9821110964,-28.7084005773,0 20.981990397,-28.7092897296,0 20.9819045663,-28.7098194659,0 20.9818817675,-28.709961623,0 20.9818536043,-28.7101010978,0 20.9818308055,-28.7102204561,0 20.9817785025,-28.7103666365,0 20.9816578031,-28.71056512,0 20.9814539552,-28.7108159065,0 20.9812957048,-28.7110130489,0 20.9812527895,-28.711065352,0 20.9810368717,-28.7113751471,0 20.9809684753,-28.7114958465,0 20.9809322655,-28.7116782367,0 20.9804950655,-28.7116071582,0 20.9798620641,-28.7115173042,0 20.979450345,-28.7114462256,0 20.9789125621,-28.7112866342,0 20.9781092405,-28.7110559642,0 20.9776626527,-28.7109285593,0 20.9761659801,-28.7104967237,0 20.9755651653,-28.7103036046,0 20.9755128622,-28.7102848291,0 20.9751091897,-28.7101399899,0 20.9749013186,-28.710051477,0 20.9746170044,-28.7099160254,0 20.9743219614,-28.7097175419,0 20.9740537405,-28.7095150352,0 20.9736889601,-28.709295094,0 20.9735226631,-28.7092240155,0 20.9733402729,-28.7091623247,0 20.9731471539,-28.7091247737,0 20.9728038311,-28.7090831995,0 20.9724001586,-28.709025532,0 20.9721654654,-28.70897457,0 20.9718221426,-28.7088377774,0 20.9715794027,-28.7087331712,0 20.969940573,-28.7080465257,0 20.9693652391,-28.7077957392,0 20.9686329961,-28.7074913085,0 20.9683661163,-28.7073652446,0 20.9677183628,-28.7071064115,0 20.9673804045,-28.7069508433,0 20.9671872854,-28.7068904936,0 20.9669673443,-28.7068247795,0 20.9667152166,-28.7067630887,0 20.9665006399,-28.7067496777,0 20.9662485123,-28.7067496777,0 20.9659427404,-28.7067630887,0 20.9656906128,-28.7067912519,0 20.965154171,-28.7068288028,0 20.9642207623,-28.7068247795,0 20.9638291597,-28.7068194151,0 20.9634657204,-28.7068100274,0 20.9631425142,-28.7067872286,0 20.9628716111,-28.7067617476,0 20.9622466564,-28.7066826224,0 20.9616672993,-28.706626296,0 20.9613722563,-28.7066034973,0 20.9608706832,-28.7066034973,0 20.9603905678,-28.7066450715,0 20.9596717358,-28.7067818642,0 20.9589073062,-28.7069374323,0 20.9578411281,-28.7071305513,0 20.9575004876,-28.7071962655,0 20.9565657377,-28.7073759735,0 20.9558187425,-28.7075074017,0 20.9552648664,-28.7075476348,0 20.9546801448,-28.7075476348,0 20.9542885423,-28.7075154483,0 20.9541423619,-28.7074966729,0 20.9539036453,-28.7074671686,0 20.9534758329,-28.7073893845,0 20.9520609677,-28.7071318924,0 20.9515245259,-28.7070339918,0 20.9506125748,-28.7068609893,0 20.9503872693,-28.7068194151,0 20.950255841,-28.7067939341,0 20.949216485,-28.7065806985,0 20.9488476813,-28.7065055966,0 20.9483139217,-28.7063969672,0 20.9478901327,-28.7063151598,0 20.9470868111,-28.7061609328,0 20.945584774,-28.705868572,0 20.9450832009,-28.7057746947,0 20.9442678094,-28.7056204677,0 20.9422695637,-28.7052436173,0 20.9371143579,-28.7042458355,0 20.9354554117,-28.7039266527,0 20.9333753586,-28.7034881115,0 20.9313167632,-28.7030911446,0 20.9308473766,-28.7029972672,0 20.928748548,-28.7025788426,0 20.9286613762,-28.7025614083,0 20.9285326302,-28.7025359273,0 20.9284079075,-28.7025117874,0 20.925552696,-28.7019431591,0 20.9245669842,-28.7017138302,0 20.9227538109,-28.7013423443,0 20.9223568439,-28.7012672424,0 20.9219223261,-28.701197505,0 20.9215146303,-28.7011639774,0 20.921010375,-28.7011358142,0 20.9204953909,-28.7011452019,0 20.9200555086,-28.7011787295,0 20.9196424484,-28.7012296915,0 20.9192508459,-28.7012954056,0 20.9189021587,-28.7013664842,0 20.9186071157,-28.7014469504,0 20.9183120728,-28.7015354633,0 20.9179204702,-28.7016668916,0 20.9172552824,-28.7019404769,0 20.9160858393,-28.7024527788,0 20.9153133631,-28.7027920783,0 20.9141170979,-28.7033191323,0 20.9136503935,-28.7035122514,0 20.9130710363,-28.7037710845,0 20.9125721455,-28.7039829791,0 20.912244916,-28.704123795,0 20.9119834006,-28.7042216957,0 20.9116762877,-28.7043169141,0 20.9112632275,-28.7044148147,0 20.9109574556,-28.7044711411,0 20.9106141329,-28.7045234442,0 20.910243988,-28.7045569718,0 20.9098094702,-28.7045757473,0 20.908741951,-28.7045663595,0 20.9082055092,-28.7045516074,0 20.9062743187,-28.7045140564,0 20.9043377638,-28.7044765055,0 20.903441906,-28.7044617534,0 20.9028089046,-28.7044765055,0 20.9024602175,-28.7044858932,0 20.9021383524,-28.704495281,0 20.9017306566,-28.7045328319,0 20.9009099007,-28.7046039104,0 20.8991235495,-28.7047728896,0 20.897385478,-28.7049230933,0 20.8960604668,-28.7050411105,0 20.8953952789,-28.7051068246,0 20.8950251341,-28.70514974,0 20.8946925402,-28.7051913142,0 20.8941882849,-28.7052623928,0 20.8933836222,-28.7054032087,0 20.8925065398,-28.7055896223,0 20.8924072981,-28.7056110799,0 20.8902400732,-28.7061233819,0 20.8890706301,-28.7063862383,0 20.8879575133,-28.7066598237,0 20.8857125044,-28.70717749,0 20.88570714,-28.7071788311,0 20.8844035864,-28.7074832618,0 20.8836364746,-28.7076763809,0 20.8830785751,-28.7078212202,0 20.882627964,-28.7079486251,0 20.882139802,-28.7081135809,0 20.8815658092,-28.708320111,0 20.8800490201,-28.7089155614,0 20.8798974752,-28.70897457,0 20.8777248859,-28.7098355591,0 20.8769309521,-28.7101466954,0 20.876083374,-28.7104712427,0 20.8755375445,-28.7107005715,0 20.8748978376,-28.710950017,0 20.8743560314,-28.7111712992,0 20.873889327,-28.7113885581,0 20.8734440804,-28.7116138637,0 20.8729827404,-28.7118498981,0 20.872580409,-28.7120886147,0 20.872246474,-28.7122790515,0 20.8722156286,-28.7122964859,0 20.8718776703,-28.7125083804,0 20.8714592457,-28.7127806246,0 20.8709925413,-28.7131145597,0 20.8705472946,-28.7134484947,0 20.8699786663,-28.7138964236,0 20.8697359264,-28.714094907,0 20.8691042662,-28.7145870924,0 20.8685570955,-28.7150256336,0 20.8681708574,-28.715326041,0 20.8678972721,-28.7155285478,0 20.8675432205,-28.7157538533,0 20.8672642708,-28.7159094214,0 20.8669531345,-28.7160743773,0 20.8665668964,-28.716224581,0 20.8664502203,-28.7162648141,0 20.8661055565,-28.7163841724,0 20.8650487661,-28.7167087197,0 20.8639866114,-28.7170238793,0 20.8622163534,-28.7175656855,0 20.8601027727,-28.7182000279,0 20.8585417271,-28.7186667323,0 20.857565403,-28.7189537287,0 20.856846571,-28.7192071974,0 20.8563745022,-28.7193761766,0 20.8559131622,-28.7195652723,0 20.8554625511,-28.719753027,0 20.8551889658,-28.7198844552,0 20.8548992872,-28.7200306356,0 20.8546042442,-28.7201808393,0 20.854421854,-28.7202747166,0 20.8541750908,-28.7204115093,0 20.8537083864,-28.7206609547,0 20.8531343937,-28.7209948897,0 20.8527266979,-28.7212309241,0 20.850790143,-28.7223547697,0 20.8498352766,-28.7229046226,0 20.8484888077,-28.7236717343,0 20.8472496271,-28.7244053185,0 20.8467507362,-28.7246923149,0 20.8455651999,-28.7253789604,0 20.8448141813,-28.7258175015,0 20.844309926,-28.7261044979,0 20.8438646793,-28.7263633311,0 20.8426469564,-28.7270687521,0 20.8416706324,-28.7276373804,0 20.8401364088,-28.7285265326,0 20.8392244577,-28.72905761,0 20.8379530907,-28.7297871709,0 20.8371537924,-28.7302525342,0 20.8364403248,-28.7306629121,0 20.8358931541,-28.730982095,0 20.8353674412,-28.7313120067,0 20.8349972963,-28.7315654755,0 20.8347344398,-28.7317585945,0 20.8345091343,-28.7319275737,0 20.834364295,-28.7320455909,0 20.8339887857,-28.732355386,0 20.8337152004,-28.7326048315,0 20.8333557844,-28.7329535186,0 20.8330070972,-28.7333102524,0 20.8326584101,-28.7337099016,0 20.8320575953,-28.7344770133,0 20.8315962553,-28.7350657582,0 20.8306574821,-28.7362593412,0 20.8301103115,-28.7369513512,0 20.8299279213,-28.7371860445,0 20.82929492,-28.7380000949,0 20.8287799358,-28.7386545539,0 20.8282756805,-28.7392982841,0 20.827986002,-28.7396791577,0 20.8275528252,-28.7402410805,0 20.8271437883,-28.7407332659,0 20.8269613981,-28.7409451604,0 20.8267951012,-28.7411235273,0 20.8262854815,-28.7416505814,0 20.8255210519,-28.7424243987,0 20.8253252506,-28.7426228821,0 20.825137496,-28.7428119779,0 20.8248263597,-28.7431123853,0 20.8245205879,-28.743442297,0 20.8238875866,-28.7440860271,0 20.8236864209,-28.7442912161,0 20.8234477043,-28.7445312738,0 20.8233618736,-28.7446184456,0 20.822814703,-28.7451682985,0 20.8226001263,-28.7453842163,0 20.8223587275,-28.745624274,0 20.8220851421,-28.745854944,0 20.821865201,-28.7460426986,0 20.8215969801,-28.7462358177,0 20.8212697506,-28.7464664876,0 20.8208942413,-28.7467105687,0 20.820325613,-28.7470029294,0 20.819837451,-28.747228235,0 20.8194887638,-28.7473878264,0 20.8190542459,-28.7475246191,0 20.8181798458,-28.7477780879,0 20.8175683022,-28.7479323149,0 20.8162593842,-28.7482635677,0 20.8145588636,-28.7486766279,0 20.8131748438,-28.7490199506,0 20.8128006756,-28.7491111457,0 20.8101278543,-28.749781698,0 20.8082127571,-28.7502577901,0 20.8075636625,-28.7504214048,0 20.8055627346,-28.7509202957,0 20.8042538166,-28.7512502074,0 20.8027732372,-28.7516123056,0 20.8009654284,-28.7520629168,0 20.7999622822,-28.7523083389,0 20.7988411188,-28.7525859475,0 20.7979184389,-28.7528206408,0 20.7958102226,-28.7533423305,0 20.7944315672,-28.7537004054,0 20.7923018932,-28.754222095,0 20.7913041115,-28.7544715405,0 20.7906925678,-28.7546217442,0 20.7902312279,-28.7547343969,0 20.7898557186,-28.7548282743,0 20.7893782854,-28.7549503148,0 20.7887774706,-28.7551018596,0 20.7878655195,-28.7553218007,0 20.7867497206,-28.7555994093,0 20.7861596346,-28.7557509542,0 20.7855480909,-28.7559105456,0 20.7851564884,-28.7559990585,0 20.7849150896,-28.7560661137,0 20.7842874527,-28.7562163174,0 20.7838207483,-28.7563101947,0 20.7833325863,-28.7563946843,0 20.7830053568,-28.7564282119,0 20.7825171947,-28.7564603984,0 20.7819861174,-28.7564751506,0 20.7814657688,-28.7564657629,0 20.7809185982,-28.7564134598,0 20.7806611061,-28.7563852966,0 20.7804572582,-28.756351769,0 20.7800066471,-28.7562632561,0 20.7793790102,-28.7561224401,0 20.7774209976,-28.7556369603,0 20.7764178514,-28.7553928792,0 20.7760637999,-28.7553030252,0 20.7747495174,-28.754978478,0 20.7737249136,-28.7547250092,0 20.7732743025,-28.7546163797,0 20.7722336054,-28.7543535233,0 20.771573782,-28.7541939318,0 20.7704687119,-28.7539163232,0 20.7679232955,-28.7533007562,0 20.7673117518,-28.7531250715,0 20.7666572928,-28.7529467046,0 20.7658043504,-28.7526677549,0 20.7649795711,-28.7523780763,0 20.7639804482,-28.7519985437,0 20.7629075646,-28.7515734136,0 20.76227054,-28.7513333559,0 20.7600845397,-28.7504468858,0 20.7575351,-28.7494195998,0 20.756945014,-28.7491755188,0 20.7563281059,-28.7488844991,0 20.7550191879,-28.7482447922,0 20.7539516687,-28.7477405369,0 20.7521679997,-28.7468715012,0 20.7510656118,-28.7463350594,0 20.7494831085,-28.7455800176,0 20.7411253452,-28.7414976954,0 20.7340013981,-28.7380228937,0 20.730112195,-28.7360863388,0 20.7290500402,-28.735563308,0 20.7287992537,-28.7354412675,0 20.7281327248,-28.7351167202,0 20.7274514437,-28.7347975373,0 20.7269632816,-28.7345708907,0 20.7263624668,-28.7343361974,0 20.7259225845,-28.7341766059,0 20.7254880667,-28.7340344489,0 20.7250052691,-28.7338896096,0 20.7244420052,-28.7337528169,0 20.7239753008,-28.7336401641,0 20.7234656811,-28.7335368991,0 20.7227146626,-28.7334041297,0 20.7218295336,-28.7332351506,0 20.7204186916,-28.7329669297,0 20.7188844681,-28.7326852977,0 20.7168513536,-28.7323084474,0 20.7150435448,-28.7319651246,0 20.7133805752,-28.7316553295,0 20.7126778364,-28.7315279245,0 20.7121145725,-28.7314380705,0 20.7115674019,-28.7313629687,0 20.7111489773,-28.73131603,0 20.7106339931,-28.7312650681,0 20.7102155685,-28.7312355638,0 20.7097005844,-28.731212765,0 20.7090568542,-28.7312074006,0 20.7086008787,-28.7312221527,0 20.7081663609,-28.7312650681,0 20.7077693939,-28.7313254178,0 20.7073777914,-28.7314380705,0 20.7069325447,-28.7315788865,0 20.7065194845,-28.7317250669,0 20.7062244415,-28.7318471074,0 20.7059495151,-28.7319503725,0 20.7054841518,-28.7321206927,0 20.7052373886,-28.7322105467,0 20.7050120831,-28.7322802842,0 20.7047492266,-28.7323647738,0 20.7044810057,-28.7324117124,0 20.7041484118,-28.7324827909,0 20.7038855553,-28.7325257063,0 20.7037031651,-28.7325485051,0 20.7033276558,-28.7325726449,0 20.7028824091,-28.7325820327,0 20.702201128,-28.7325820327,0 20.701611042,-28.7325820327,0 20.7009190321,-28.7325954437,0 20.7003825903,-28.7326383591,0 20.7000768185,-28.73267591,0 20.7000647485,-28.7326785922,0 20.6995873153,-28.7327858806,0 20.6994599104,-28.732816726,0 20.6990683079,-28.732919991,0 20.6987142563,-28.7330420315,0 20.6981188059,-28.7332686782,0 20.6973677874,-28.7335838377,0 20.696901083,-28.7337715924,0 20.696117878,-28.7340961397,0 20.6956243515,-28.734293282,0 20.6949484348,-28.7345762551,0 20.6935107708,-28.7351542711,0 20.6922501326,-28.7356759608,0 20.6906837225,-28.7363062799,0 20.6893855333,-28.736833334,0 20.688098073,-28.7373657525,0 20.6868642569,-28.7378686666,0 20.6860166788,-28.738206625,0 20.6855553389,-28.7384144962,0 20.6851637363,-28.7386263907,0 20.6849008799,-28.7387900054,0 20.6846272945,-28.738964349,0 20.6843429804,-28.7391856313,0 20.6839513779,-28.739528954,0 20.6832969189,-28.74013111,0 20.6828302145,-28.7405495346,0 20.6824761629,-28.7408928573,0 20.6822133064,-28.7411798537,0 20.6820738316,-28.7413541973,0 20.6819182634,-28.7415848672,0 20.6817466021,-28.7418624759,0 20.681617856,-28.7422044575,0 20.6815011799,-28.7425088882,0 20.6814193726,-28.7428589165,0 20.6813657284,-28.743237108,0 20.6813657284,-28.7435415387,0 20.6813845038,-28.7438553572,0 20.6814193726,-28.744161129,0 20.6815011799,-28.7444937229,0 20.6816446781,-28.7449161708,0 20.6819678843,-28.7456430495,0 20.6823809445,-28.7466019392,0 20.6826049089,-28.74712497,0 20.6826746464,-28.7472912669,0 20.6832526624,-28.7486699224,0 20.6833720207,-28.7490199506,0 20.6834310293,-28.7492318451,0 20.6834471226,-28.749396801,0 20.683452487,-28.7496784329,0 20.6834310293,-28.7498675287,0 20.683350563,-28.7501531839,0 20.6832486391,-28.7503369153,0 20.6831252575,-28.7505300343,0 20.6829428673,-28.7507137656,0 20.6828302145,-28.7508076429,0 20.6827068329,-28.750910908,0 20.6825888157,-28.7509913743,0 20.6824707985,-28.7510570884,0 20.6823259592,-28.7511228025,0 20.6821864843,-28.7511791289,0 20.6820631027,-28.7512072921,0 20.6819343567,-28.7512354553,0 20.6818002462,-28.7512595952,0 20.6816232204,-28.7512783706,0 20.6814569235,-28.7512783706,0 20.6812423468,-28.7512636185,0 20.6810492277,-28.751244843,0 20.6807541847,-28.7511979043,0 20.6802606583,-28.7510986626,0 20.6792092323,-28.7508693337,0 20.6783549488,-28.7506735325,0 20.6773531437,-28.7504589558,0 20.6767523289,-28.7503369153,0 20.6762909889,-28.7502430379,0 20.6759101152,-28.750205487,0 20.6755614281,-28.7501813471,0 20.6751966476,-28.7501813471,0 20.6748104095,-28.7502014637,0 20.6742739677,-28.7502618134,0 20.6738461554,-28.7503382564,0 20.6735444069,-28.7504120171,0 20.6732386351,-28.7505058944,0 20.6729328632,-28.7506011128,0 20.6724983454,-28.7507741153,0 20.6720101833,-28.7509578466,0 20.6714469194,-28.7511268258,0 20.6710445881,-28.7512126565,0 20.6706959009,-28.7512636185,0 20.6702452898,-28.7513011694,0 20.6698268652,-28.7513159215,0 20.6692260504,-28.7513105571,0 20.6689886749,-28.7513078749,0 20.668271184,-28.7512971461,0 20.6668549776,-28.7512823939,0 20.6651102006,-28.7512622774,0 20.664768219,-28.7512595952,0 20.6639206409,-28.7512515485,0 20.6631535292,-28.751244843,0 20.6617480516,-28.751231432,0 20.660712719,-28.7512126565,0 20.6600126624,-28.7512086332,0 20.6598865986,-28.7512086332,0 20.6594413519,-28.7512260675,0 20.6591409445,-28.7512542307,0 20.6589263678,-28.7512783706,0 20.6587439775,-28.7513065338,0 20.6584703922,-28.7513628602,0 20.6578963995,-28.751488924,0 20.6564761698,-28.7518067658,0 20.6555628777,-28.7519931793,0 20.6550130248,-28.7520937622,0 20.654591918,-28.7521621585,0 20.6541708112,-28.7522144616,0 20.6537255645,-28.7522681057,0 20.6533581018,-28.7522962689,0 20.6530496478,-28.7523284554,0 20.6527492404,-28.7523405254,0 20.6524112821,-28.7523566186,0 20.6520679593,-28.752374053,0 20.6516495347,-28.7523686886,0 20.6512498856,-28.7523619831,0 20.6508609653,-28.7523566186,0 20.6501340866,-28.7523190677,0 20.6493911147,-28.7522721291,0 20.6487554312,-28.7522399426,0 20.6476986408,-28.752180934,0 20.6465962529,-28.7521246076,0 20.6458613276,-28.7520843744,0 20.6448125839,-28.7520320714,0 20.643889904,-28.751975745,0 20.6431415677,-28.7519475818,0 20.6425380707,-28.7519127131,0 20.6418567896,-28.7518818676,0 20.6415697932,-28.7518657744,0 20.6411030889,-28.7518376112,0 20.6406712532,-28.7518188357,0 20.6403359771,-28.7517933547,0 20.6399846077,-28.7517598271,0 20.639668107,-28.7517276406,0 20.6394293904,-28.7516914308,0 20.6392470002,-28.7516511977,0 20.6390190125,-28.7515975535,0 20.6386086345,-28.7515103817,0 20.6383645535,-28.7514419854,0 20.6380158663,-28.7513414025,0 20.6376671791,-28.7512220442,0 20.6373560429,-28.7510946393,0 20.6369161606,-28.7509042025,0 20.6365299225,-28.7507352233,0 20.6362563372,-28.7506118417,0 20.636073947,-28.7505179644,0 20.6359156966,-28.7504428625,0 20.6357091665,-28.7503677607,0 20.6354516745,-28.7502926588,0 20.6351110339,-28.750205487,0 20.6348454952,-28.7501531839,0 20.6346684694,-28.750127703,0 20.6343922019,-28.750127703,0 20.6341078877,-28.7501142919,0 20.6337538362,-28.750115633,0 20.6331959367,-28.750127703,0 20.6326702237,-28.7501424551,0 20.6324422359,-28.7501437962,0 20.6320506334,-28.7501451373,0 20.6316778064,-28.7501598895,0 20.6314766407,-28.7501679361,0 20.6308543682,-28.7501679361,0 20.6303071976,-28.750180006,0 20.6295803189,-28.7501907349,0 20.6289553642,-28.7501960993,0 20.6285476685,-28.750205487,0 20.6283035874,-28.7502296269,0 20.6280004978,-28.7502577901,0 20.6276330352,-28.7503087521,0 20.6272172928,-28.7503919005,0 20.6268471479,-28.7504965067,0 20.6265681982,-28.7505863607,0 20.6262490153,-28.7506949902,0 20.6260076165,-28.7507982552,0 20.6258198619,-28.7508948147,0 20.6255167723,-28.7510544062,0 20.6251358986,-28.7512636185,0 20.6245806813,-28.7515814602,0 20.6243285537,-28.7517625093,0 20.6241595745,-28.7518791854,0 20.6239771843,-28.752040118,0 20.6238296628,-28.752194345,0 20.6236982346,-28.7523552775,0 20.6235507131,-28.7525551021,0 20.6234326959,-28.7527495623,0 20.6233200431,-28.7529829144,0 20.6231993437,-28.7532860041,0 20.6230035424,-28.7538157403,0 20.6228533387,-28.7542623281,0 20.6228171289,-28.7543575466,0 20.6227004528,-28.7546686828,0 20.6225556135,-28.7550710142,0 20.6223008037,-28.7557576597,0 20.6221184134,-28.7562887371,0 20.6219816208,-28.7566226721,0 20.6219145656,-28.7568224967,0 20.6218233705,-28.7570571899,0 20.6216825545,-28.7574729323,0 20.6216731668,-28.7574997544,0 20.6214210391,-28.7581770122,0 20.6212037802,-28.7587697804,0 20.6209918857,-28.7593531609,0 20.620868504,-28.7597219646,0 20.620611012,-28.7604086101,0 20.6203374267,-28.7611582875,0 20.6202998757,-28.7612628937,0 20.620265007,-28.7613607943,0 20.6200665236,-28.7619066238,0 20.619725883,-28.7628427148,0 20.6194388866,-28.7636514008,0 20.6191062927,-28.7645794451,0 20.6190097332,-28.7647859752,0 20.6189239025,-28.7649817765,0 20.6188461185,-28.7651346624,0 20.6187334657,-28.7653009593,0 20.6186583638,-28.7653800845,0 20.6186060607,-28.7654444575,0 20.6185202301,-28.7655249238,0 20.618442446,-28.7656067312,0 20.6181956828,-28.765822649,0 20.6180159748,-28.7659715116,0 20.6180052459,-28.7659795582,0 20.6178241968,-28.7661096454,0 20.6176632643,-28.7662155926,0 20.6174835563,-28.7663336098,0 20.6172716618,-28.7664811313,0 20.6171925366,-28.7665481865,0 20.6170892715,-28.7666340172,0 20.6169632077,-28.7667453289,0 20.6168344617,-28.7668834627,0 20.6166601181,-28.7670859694,0 20.6163811684,-28.7674534321,0 20.6162390113,-28.7676411867,0 20.6161639094,-28.7677377462,0 20.6160016358,-28.7679550052,0 20.615785718,-28.7682151794,0 20.6156730652,-28.7683694065,0 20.6156395376,-28.7684176862,0 20.615490675,-28.7686215341,0 20.6152667105,-28.7689071894,0 20.6150695682,-28.7691405416,0 20.6149166822,-28.7692800164,0 20.6147637963,-28.7693953514,0 20.6145384908,-28.7695080042,0 20.614297092,-28.7695857882,0 20.6140637398,-28.7696327269,0 20.6138116121,-28.7696488202,0 20.613540709,-28.7696367502,0 20.6132295728,-28.7695965171,0 20.6125885248,-28.7694919109,0 20.6119555235,-28.7693953514,0 20.6108424067,-28.7692303956,0 20.6101825833,-28.7691298127,0 20.6089702249,-28.7689487636,0 20.6080529094,-28.7688025832,0 20.607355535,-28.768696636,0 20.6068727374,-28.7686242163,0 20.6065830588,-28.768581301,0 20.6065160036,-28.768569231,0 20.6064650416,-28.7685638666,0 20.6059902906,-28.768491447,0 20.6056067348,-28.7684284151,0 20.6051856279,-28.7683720887,0 20.604853034,-28.7683036923,0 20.6045123935,-28.7682312727,0 20.6042361259,-28.7681561708,0 20.6039705873,-28.7680689991,0 20.603659451,-28.7679576874,0 20.6034341455,-28.7678664923,0 20.603235662,-28.7677699327,0 20.60295403,-28.7676385045,0 20.6028681993,-28.7675862014,0 20.602658987,-28.7674628198,0 20.6023827195,-28.767272383,0 20.6022499502,-28.7671691179,0 20.6018275023,-28.7668687105,0 20.6009651721,-28.7662236392,0 20.6005360186,-28.7659111619,0 20.5999687314,-28.7654981017,0 20.5989950895,-28.7647873163,0 20.5983889103,-28.764359504,0 20.5975909531,-28.763794899,0 20.597294569,-28.7636098266,0 20.5968533456,-28.7633684278,0 20.5964684486,-28.7631833553,0 20.5961358547,-28.763050586,0 20.595497489,-28.7628279626,0 20.5951836705,-28.7627340853,0 20.5948108435,-28.7626375258,0 20.5944997072,-28.7625624239,0 20.5941456556,-28.7624846399,0 20.593829155,-28.762435019,0 20.5930888653,-28.7623411417,0 20.5925095081,-28.7622660398,0 20.5919918418,-28.7622137368,0 20.5913615227,-28.7621413171,0 20.590275228,-28.7620139122,0 20.5895778537,-28.7619294226,0 20.5889314413,-28.7618516386,0 20.5883172154,-28.7617819011,0 20.5877700448,-28.761716187,0 20.5870860815,-28.7616384029,0 20.586514771,-28.7615767121,0 20.5862036347,-28.7615270913,0 20.5856886506,-28.7614801526,0 20.5852219462,-28.7614224851,0 20.584307313,-28.7613111734,0 20.5834114552,-28.7612079084,0 20.5828106403,-28.7611354887,0 20.5824297667,-28.7610952556,0 20.5822125077,-28.7610697746,0 20.5815392733,-28.7609866261,0 20.5811154842,-28.7609370053,0 20.5806970596,-28.760895431,0 20.5797985196,-28.7607827783,0 20.5791386962,-28.7607090175,0 20.57836622,-28.7606218457,0 20.5771565437,-28.7604770064,0 20.5760058761,-28.7603402138,0 20.57520926,-28.760240972,0 20.5742570758,-28.7601363659,0 20.5730769038,-28.7599942088,0 20.5722534657,-28.7598882616,0 20.5717143416,-28.7598225474,0 20.5712208152,-28.7597756088,0 20.5702927709,-28.7596683204,0 20.5689865351,-28.7595127523,0 20.5681228638,-28.759418875,0 20.5673986673,-28.7593263388,0 20.5667361617,-28.7592512369,0 20.566162169,-28.7591855228,0 20.5655398965,-28.7591077387,0 20.5646064878,-28.758995086,0 20.5638071895,-28.758905232,0 20.5628871918,-28.7588006258,0 20.562364161,-28.7587362528,0 20.5617123842,-28.7586544454,0 20.5614200234,-28.7586262822,0 20.560170114,-28.7584733963,0 20.5593815446,-28.7583835423,0 20.5588155985,-28.7583231926,0 20.5582845211,-28.7582735717,0 20.5577534437,-28.7582360208,0 20.5569192767,-28.7581810355,0 20.5558651686,-28.758160919,0 20.5551034212,-28.7581461668,0 20.5545991659,-28.7581528723,0 20.5540466309,-28.7581676245,0 20.5537033081,-28.7581770122,0 20.5531346798,-28.7582078576,0 20.5526545644,-28.7582293153,0 20.5518472195,-28.7582708895,0 20.5510130525,-28.7583245337,0 20.5504672229,-28.7583500147,0 20.5500501394,-28.7583701313,0 20.5495364964,-28.7583942711,0 20.5491811037,-28.7584117055,0 20.5485910177,-28.7584425509,0 20.5481404066,-28.7584680319,0 20.547606647,-28.7585015595,0 20.5466651917,-28.7585458159,0 20.5461408198,-28.7585699558,0 20.5456566811,-28.7585994601,0 20.5450236797,-28.7586383522,0 20.543936044,-28.7586933374,0 20.543910563,-28.7586946785,0 20.5422234535,-28.7587858737,0 20.5414482951,-28.7588301301,0 20.5412685871,-28.7588408589,0 20.5409869552,-28.7588569522,0 20.5408461392,-28.7588623166,0 20.5406409502,-28.7588703632,0 20.5401340127,-28.7588985264,0 20.5400562286,-28.7588985264,0 20.5399905145,-28.7588998675,0 20.5395492911,-28.7589293718,0 20.5391952395,-28.7589508295,0 20.5386963487,-28.7589910626,0 20.5383315682,-28.7590205669,0 20.5379614234,-28.7590661645,0 20.5376046896,-28.7591224909,0 20.5372238159,-28.7591814995,0 20.5368858576,-28.7592445314,0 20.5364567041,-28.7593504786,0 20.5358183384,-28.7595033646,0 20.5355769396,-28.7595663965,0 20.5354052782,-28.759611994,0 20.5349868536,-28.7597005069,0 20.5348500609,-28.7595757842,0 20.5348393321,-28.7595583498,0 20.5348004401,-28.7595033646,0 20.5347467959,-28.7594336271,0 20.53436324,-28.7590567768,0 20.5339770019,-28.7586785853,0 20.5338898301,-28.7585914135,0 20.5331629515,-28.7578739226,0 20.5320136249,-28.756736666,0 20.5317386985,-28.7564644217,0 20.5304391682,-28.755185008,0 20.5300717056,-28.7548215687,0 20.5296385288,-28.754388392,0 20.5281566083,-28.7529037893,0 20.5280573666,-28.7528045475,0 20.5273935199,-28.7521393597,0 20.5266626179,-28.7514084578,0 20.5265204608,-28.7512663007,0 20.5260175467,-28.7507660687,0 20.5258284509,-28.7505783141,0 20.5229450762,-28.7477244437,0 20.5228565633,-28.7476359308,0 20.5201877654,-28.7449912727,0 20.5178636312,-28.7426899374,0 20.5175726116,-28.7424002588,0 20.5160826445,-28.7409196794,0 20.5134245753,-28.7382790446,0 20.512791574,-28.7376125157,0 20.5118621886,-28.7366308272,0 20.5114719272,-28.736192286,0 20.5114276707,-28.7361440063,0 20.5112855136,-28.7359830737,0 20.5110803246,-28.7357550859,0 20.51067397,-28.7352843583,0 20.5105184019,-28.7351059914,0 20.5098961294,-28.7343375385,0 20.5084826052,-28.7325780094,0 20.5081446469,-28.7321582437,0 20.5075800419,-28.7314555049,0 20.506297946,-28.7298569083,0 20.5055496097,-28.7289194763,0 20.5048938096,-28.7281402946,0 20.5043627322,-28.7274590135,0 20.5034789443,-28.7263230979,0 20.5022786558,-28.7248277664,0 20.5018548667,-28.7242953479,0 20.5018307269,-28.7242658436,0 20.5014310777,-28.723808527,0 20.5009536445,-28.7233029306,0 20.5004493892,-28.7227892876,0 20.4993443191,-28.7217499316,0 20.4987300932,-28.7211611867,0 20.4983532429,-28.7207937241,0 20.4975807667,-28.7200467288,0 20.4974479973,-28.7199179828,0 20.4971395433,-28.7196202576,0 20.4967546463,-28.7191388011,0 20.4963375628,-28.7185406685,0 20.4959848523,-28.7179626524,0 20.4956321418,-28.7172357738,0 20.4953920841,-28.7166684866,0 20.4951050878,-28.7159898877,0 20.4945847392,-28.7148432434,0 20.4943580925,-28.7143430114,0 20.4940026999,-28.7137582898,0 20.4936204851,-28.7132030725,0 20.4933965206,-28.7129254639,0 20.4928828776,-28.7124010921,0 20.4923585057,-28.711951822,0 20.4922793806,-28.7118968368,0 20.4913178086,-28.7112303078,0 20.490694195,-28.7109017372,0 20.4905949533,-28.7108494341,0 20.490256995,-28.7106576562,0 20.4871670902,-28.7089973688,0 20.4855577648,-28.7081229687,0 20.4844607413,-28.7075261772,0 20.4813145101,-28.7058189511,0 20.4779134691,-28.7039709091,0 20.4768687487,-28.703404963,0 20.4754847288,-28.7026526034,0 20.4736675322,-28.7016749382,0 20.4703187943,-28.6998738348,0 20.4681167006,-28.6986896396,0 20.4647706449,-28.6968992651,0 20.464541316,-28.6967772245,0 20.4630728066,-28.6959832907,0 20.4608801007,-28.6947762966,0 20.4600016773,-28.6943002045,0 20.4510135949,-28.6894373596,0 20.4493787885,-28.6885522306,0 20.4455177486,-28.6864641309,0 20.4349283874,-28.6807577312,0 20.4335577786,-28.6800174415,0 20.4327477515,-28.6795802414,0 20.43100968,-28.6786414683,0 20.430302918,-28.6782592535,0 20.4296028614,-28.677881062,0 20.4264713824,-28.6761859059,0 20.425029695,-28.6754053831,0 20.4234901071,-28.6746020615,0 20.4231642187,-28.6744451523,0 20.4218995571,-28.6738684773,0 20.4213510454,-28.6736190319,0 20.4187841713,-28.6725327373,0 20.4186232388,-28.6724643409,0 20.4169763625,-28.6717683077,0 20.4110258818,-28.6692711711,0 20.4109252989,-28.6692282557,0 20.410772413,-28.6691638827,0 20.4106852412,-28.6691276729,0 20.4077790678,-28.6679139733,0 20.4077428579,-28.6678978801,0 20.4077187181,-28.6678884923,0 20.4046609998,-28.6666104198,0 20.4037463665,-28.666228205,0 20.4033641517,-28.6660659313,0 20.4010735452,-28.6650963128,0 20.3940045834,-28.6621043086,0 20.390804708,-28.6607940495,0 20.3892101347,-28.6601610482,0 20.3887635469,-28.6599840224,0 20.3824925423,-28.6574909091,0 20.3778094053,-28.6556281149,0 20.3692638874,-28.6522324383,0 20.3690050542,-28.6521291733,0 20.366666168,-28.6511997879,0 20.3644801676,-28.6503307521,0 20.3639785945,-28.6501309276,0 20.3624738753,-28.6495354772,0 20.3614345193,-28.6491237581,0 20.3604233265,-28.6486986279,0 20.360031724,-28.6485350132,0 20.3586691618,-28.6478725076,0 20.3583808243,-28.6477088928,0 20.3574514389,-28.6471778154,0 20.3573548794,-28.6471094191,0 20.3567607701,-28.6466869712,0 20.3560298681,-28.6461639404,0 20.3558340669,-28.6460244656,0 20.3550280631,-28.6454464495,0 20.3537741303,-28.6444526911,0 20.3532403708,-28.6439859867,0 20.3531451523,-28.6439028382,0 20.3524062037,-28.6431491375,0 20.3523109853,-28.6430512369,0 20.3517758846,-28.6424209177,0 20.3502054513,-28.6403784156,0 20.3499962389,-28.6401061714,0 20.3495201468,-28.6394771934,0 20.3494074941,-28.639305532,0 20.3493605554,-28.639241159,0 20.3488308191,-28.6385276914,0 20.3485639393,-28.6381655931,0 20.3482554853,-28.6377498507,0 20.348136127,-28.6375889182,0 20.3457261622,-28.6343434453,0 20.3453533351,-28.6338418722,0 20.3447686136,-28.6330921948,0 20.3447377682,-28.6330533028,0 20.3441543877,-28.632311672,0 20.3437453508,-28.6318650842,0 20.3435307741,-28.6316478252,0 20.3431874514,-28.6312910914,0 20.3431284428,-28.6312280595,0 20.3430077434,-28.6311019957,0 20.3429661691,-28.6310590804,0 20.3428830206,-28.6309745908,0 20.3427247703,-28.6308123171,0 20.3424941003,-28.6305749416,0 20.3423666954,-28.6304421723,0 20.3423519433,-28.630426079,0 20.3423170745,-28.6303912103,0 20.3422500193,-28.6303214729,0 20.3422366083,-28.6303067207,0 20.34210518,-28.6301954091,0 20.3420582414,-28.6301484704,0 20.3419563174,-28.6298587918,0 20.3419321775,-28.6297984421,0 20.3418959677,-28.6296804249,0 20.34188658,-28.6296482384,0 20.341861099,-28.6295637488,0 20.3418557346,-28.6295489967,0 20.3418181837,-28.6293947697,0 20.3418061137,-28.629257977,0 20.3417994082,-28.6291560531,0 20.3418074548,-28.628988415,0 20.341822207,-28.6288945377,0 20.341847688,-28.6287617683,0 20.341912061,-28.6285753548,0 20.3419536352,-28.6284774542,0 20.3420072794,-28.6283621192,0 20.3420314193,-28.6283218861,0 20.3421400487,-28.6281703413,0 20.3421628475,-28.6281368136,0 20.3421829641,-28.6281059682,0 20.3422795236,-28.6279839277,0 20.3423532844,-28.6279061437,0 20.342490077,-28.6277599633,0 20.3425772488,-28.6276701093,0 20.3433510661,-28.6269459128,0 20.3438298404,-28.6265046895,0 20.3453305364,-28.6251233518,0 20.3460869193,-28.624432683,0 20.3471262753,-28.6234858632,0 20.3472657502,-28.6233329773,0 20.3473931551,-28.6231304705,0 20.3473944962,-28.6231264472,0
            </coordinates>
        </LineString>
        </Placemark>
  </Folder>
        </Document>
    </kml>
    