<?xml version="1.0" encoding="UTF-8"?>
    <kml xmlns="http://www.opengis.net/kml/2.2">
    <Document>
        <name>Colored Path</name>
        <Folder>
            <name>Day 8</name>
            <open>1</open>
            <Style id="blackLine">
            <LineStyle>
                <color>ff000000</color>
                <width>4</width>
            </LineStyle>
            </Style>
            <Style id="redLine">
            <LineStyle>
                <color>ff0000ff</color>
                <width>4</width>
            </LineStyle>
            </Style>
        <Placemark>
        <name>Segment 1 (True)</name>
        <styleUrl>#blackLine</styleUrl>
        <LineString>
            <tessellate>1</tessellate>
            <coordinates>
            19.3043598533,-33.3749507368,0 19.3044658005,-33.374902457,0 19.3051229417,-33.3745966852,0 19.3054126203,-33.3744612336,0 19.3073491752,-33.3735439181,0 19.3080103397,-33.3732260764,0 19.3086352944,-33.3729270101,0 19.3093004823,-33.3725984395,0 19.3086500466,-33.3717025816,0 19.3082638085,-33.3711406589,0 19.3079419434,-33.3706699312,0 19.3068382144,-33.3711916208,0 19.3063567579,-33.3714330196,0 19.3059758842,-33.3716247976,0 19.3055266142,-33.3718366921,0 19.3053254485,-33.3719345927,0 19.3050330877,-33.3720740676,0 19.3049485981,-33.3721156418,0 19.3048587441,-33.3721585572,0 19.3047219515,-33.3722215891,0 19.3045435846,-33.3723074198,0 19.3042726815,-33.3724361658,0 19.3040755391,-33.3725300431,0 19.3037134409,-33.3727043867,0 19.3030147254,-33.373042345,0 19.3025158346,-33.3732689917,0 19.3014979362,-33.3737303317,0 19.3013584614,-33.3737947047,0 19.3012994528,-33.3738215268,0 19.3012404442,-33.3738470078,0 19.3010674417,-33.3739261329,0 19.3008770049,-33.3740133047,0 19.3007710576,-33.3740589023,0 19.3007563055,-33.3740656078,0 19.3003633618,-33.3742386103,0 19.3001702428,-33.374324441,0 19.2998121679,-33.3745162189,0 19.2997062206,-33.3745738864,0 19.2993481457,-33.3748313785,0 19.2992904782,-33.3748863637,0 19.2991831899,-33.3749896288,0 19.2990195751,-33.375146538,0 19.2989833653,-33.3751975,0 19.2988908291,-33.3753235638,0 19.2987982929,-33.3754482865,0 19.2987325788,-33.3755528927,0 19.2986145616,-33.3757433295,0 19.2985126376,-33.376082629,0 19.2984576523,-33.3763629198,0 19.2984603345,-33.3764205873,0 19.2984724045,-33.3766633272,0 19.2985220253,-33.3769905567,0 19.2986226082,-33.3772614598,0 19.2987218499,-33.3775819838,0 19.2987433076,-33.3778461814,0 19.2987070978,-33.3780527115,0 19.2986856401,-33.3781157434,0 19.2986641824,-33.3781801164,0 19.2985931039,-33.3782954514,0 19.298504591,-33.3784148097,0 19.2983865738,-33.3785167336,0 19.2982725799,-33.3785998821,0 19.2981438339,-33.3786669374,0 19.2978662252,-33.3787447214,0 19.2975457013,-33.3787876368,0 19.297400862,-33.3787876368,0 19.2967826128,-33.3787876368,0 19.2960557342,-33.3787876368,0 19.2957673967,-33.3787795901,0 19.2955756187,-33.3787608147,0 19.2953811586,-33.3787366748,0 19.2951397598,-33.3786991239,0 19.2948044837,-33.3786360919,0 19.29441154,-33.3785569668,0 19.2941379547,-33.3785140514,0 19.2938885093,-33.3784912527,0 19.2936189473,-33.3784966171,0 19.293423146,-33.3785113692,0 19.2932139337,-33.3785422146,0 19.2929457128,-33.3786092699,0 19.2925608158,-33.3787380159,0 19.2922617495,-33.3788868785,0 19.2917910218,-33.3791282773,0 19.2914329469,-33.3793415129,0 19.2912425101,-33.3794930577,0 19.2910641432,-33.3796647191,0 19.2908576131,-33.3798927069,0 19.2906711996,-33.3801354468,0 19.2903868854,-33.380548507,0 19.2900234461,-33.3810473979,0 19.2898933589,-33.3813048899,0 19.2897766829,-33.381652236,0 19.2896586657,-33.3820894361,0 19.2895808816,-33.3825802803,0 19.2895808816,-33.3830228448,0 19.2896465957,-33.3839482069,0 19.28968817,-33.3846630156,0 19.2897592485,-33.385682255,0 19.2897444963,-33.3860389888,0 19.2896948755,-33.3861891925,0 19.2896023393,-33.3863675594,0 19.2894092202,-33.3866089582,0 19.2890886962,-33.3868798614,0 19.2887493968,-33.3871440589,0 19.2885670066,-33.3872902393,0 19.2884624004,-33.3873894811,0 19.2883752286,-33.3875142038,0 19.2883296311,-33.3876630664,0 19.2883269489,-33.3877743781,0 19.2883336544,-33.3878682554,0 19.2883591354,-33.3879782259,0 19.2883846164,-33.3880211413,0 19.2884677649,-33.3883067966,0 19.2884972692,-33.3884985745,0 19.2884892225,-33.3886487782,0 19.2883966863,-33.3888848126,0 19.2882987857,-33.3890229464,0 19.2881686985,-33.3891476691,0 19.2878977954,-33.3893045783,0 19.2874418199,-33.3895473182,0 19.2870354652,-33.389775306,0 19.2869147658,-33.3898799121,0 19.2868182063,-33.3899885416,0 19.2867659032,-33.3900529146,0 19.2866653204,-33.3901910484,0 19.2865513265,-33.3904083073,0 19.2865030468,-33.3905732632,0 19.2864762247,-33.3907677233,0 19.2864762247,-33.3909112215,0 19.2865137756,-33.3914718032,0 19.2865325511,-33.3917990327,0 19.2865419388,-33.3919358253,0 19.2865499854,-33.3919841051,0 19.2866076529,-33.3922496438,0 19.286685437,-33.3924280107,0 19.2868423462,-33.3926922083,0 19.2871427536,-33.3930060267,0 19.2874632776,-33.3933480084,0 19.2876416445,-33.3936470747,0 19.2877556384,-33.393946141,0 19.287777096,-33.3941607177,0 19.2877623439,-33.3944101632,0 19.2876979709,-33.3946663141,0 19.2875625193,-33.3949171007,0 19.2873707414,-33.3951665461,0 19.2870917916,-33.3954803646,0 19.2868490517,-33.395743221,0 19.2867431045,-33.3959497511,0 19.2866639793,-33.3961857855,0 19.2866425216,-33.3965344727,0 19.2867001891,-33.3968415856,0 19.2868490517,-33.3973833919,0 19.2869777977,-33.3979037404,0 19.2870274186,-33.3982041478,0 19.2870140076,-33.3984750509,0 19.2869348824,-33.3987526596,0 19.2868463695,-33.3990195394,0 19.2866787314,-33.3995291591,0 19.2864722013,-33.400221169,0 19.2863152921,-33.4008823335,0 19.2861503363,-33.4020665288,0 19.2860229313,-33.4028939903,0 19.2860014737,-33.4032359719,0 19.2859947681,-33.4035001695,0 19.2860229313,-33.4037777781,0 19.2861302197,-33.4044483304,0 19.2861436307,-33.4048265219,0 19.2861302197,-33.4051322937,0 19.2860873044,-33.4055037796,0 19.2860725522,-33.4057813883,0 19.2860725522,-33.405995965,0 19.2861007154,-33.4061810374,0 19.2861583829,-33.4064438939,0 19.2863367498,-33.4071224928,0 19.2864078283,-33.4074644744,0 19.2864507437,-33.4077635407,0 19.286493659,-33.4080840647,0 19.2865365744,-33.4085118771,0 19.2865929008,-33.4088404477,0 19.286685437,-33.4091824293,0 19.2867431045,-33.4093607962,0 19.2869134247,-33.4098744392,0 19.2871132493,-33.410358578,0 19.2872567475,-33.4106938541,0 19.2874056101,-33.4109795094,0 19.2878977954,-33.4118069708,0 19.2881686985,-33.4122696519,0 19.2883966863,-33.4126196802,0 19.2886327207,-33.4129469097,0 19.2888043821,-33.4131413698,0 19.288854003,-33.4131963551,0 19.2891664803,-33.4135463834,0 19.2894306779,-33.413874954,0 19.2895808816,-33.4141592681,0 19.2896519601,-33.4144301713,0 19.28968817,-33.4147587419,0 19.2896519601,-33.4151288867,0 19.2895661294,-33.4153997898,0 19.2894239724,-33.4156706929,0 19.2889103293,-33.4163345397,0 19.2883899808,-33.4169541299,0 19.287904501,-33.4175173938,0 19.2874056101,-33.4179961681,0 19.2864212394,-33.4188947082,0 19.2858083546,-33.4194646776,0 19.2856782675,-33.4195786715,0 19.285466373,-33.4197637439,0 19.2852450907,-33.4199072421,0 19.2850452662,-33.4200064838,0 19.2848105729,-33.4200775623,0 19.2844752967,-33.4201271832,0 19.2841400206,-33.4201057255,0 19.2836411297,-33.4200493991,0 19.2831422389,-33.4199850261,0 19.2822504044,-33.4198991954,0 19.2812740803,-33.4197999537,0 19.2806249857,-33.419714123,0 19.2793348432,-33.4194499254,0 19.277972281,-33.4191226959,0 19.2765748501,-33.4188008308,0 19.2760759592,-33.4186948836,0 19.2757621408,-33.4186734259,0 19.275405407,-33.4187230468,0 19.2746074498,-33.418879956,0 19.2739583552,-33.4190368652,0 19.2730598152,-33.4192863107,0 19.2721961439,-33.4195357561,0 19.2719399929,-33.4196148813,0 19.2716623843,-33.4197208285,0 19.2714048922,-33.4198643267,0 19.2709770799,-33.4201700985,0 19.2706927657,-33.4203270078,0 19.2704567313,-33.4204061329,0 19.2701429129,-33.4204624593,0 19.2698653042,-33.420483917,0 19.269644022,-33.420470506,0 19.269194752,-33.4204061329,0 19.2682184279,-33.4202706814,0 19.2676766217,-33.4201915562,0 19.2673118412,-33.4201486409,0 19.266820997,-33.42009902,0 19.2661853135,-33.4200923145,0 19.2659090459,-33.4201137722,0 19.2652451992,-33.4201996028,0 19.2652116716,-33.4202063084,0 19.2643104494,-33.4204128385,0 19.2640636861,-33.4204718471,0 19.2638893425,-33.4205120802,0 19.2636613548,-33.4205912054,0 19.2632268369,-33.4208258986,0 19.2632120848,-33.4208339453,0 19.2628848553,-33.42099756,0 19.262663573,-33.4210900962,0 19.2623993754,-33.4211477637,0 19.2620010674,-33.4211692214,0 19.2616295815,-33.4211397171,0 19.2614659667,-33.4210968018,0 19.2611373961,-33.4209479392,0 19.2606881261,-33.4206274152,0 19.2602536082,-33.4202559292,0 19.2598821223,-33.4200426936,0 19.2595052719,-33.4198991954,0 19.2591056228,-33.4198066592,0 19.2586563528,-33.4197637439,0 19.2582432926,-33.4197999537,0 19.2571945488,-33.420034647,0 19.2566862702,-33.4201352298,0 19.2563027143,-33.4202116728,0 19.2555396259,-33.4203632176,0 19.2551359534,-33.420445025,0 19.2547926307,-33.4205147624,0 19.2544855177,-33.4205764532,0 19.2541140318,-33.4206193686,0 19.2536862195,-33.4206274152,0 19.253257066,-33.4205791354,0 19.2531806231,-33.4205697477,0 19.2528158426,-33.4204919636,0 19.2521895468,-33.4202988446,0 19.2518422008,-33.4201928973,0 19.2512145638,-33.4200024605,0 19.2508551478,-33.4198924899,0 19.2493651807,-33.4194338322,0 19.2480227351,-33.4190355241,0 19.247611016,-33.4189134836,0 19.2469337583,-33.418700248,0 19.2460928857,-33.4184508026,0 19.2459923029,-33.4184212983,0 19.245429039,-33.4182576835,0 19.2448295653,-33.4181007743,0 19.244530499,-33.4180229902,0 19.2434549332,-33.417801708,0 19.2425000668,-33.417596519,0 19.2424276471,-33.4175804257,0 19.241322577,-33.4173591435,0 19.2398460209,-33.417045325,0 19.2392961681,-33.4169273078,0 19.2388482392,-33.4168320894,0 19.2376720905,-33.416582644,0 19.2364168167,-33.4163117409,0 19.2353546619,-33.4160904586,0 19.235022068,-33.4160207212,0 19.2344628274,-33.4159040451,0 19.2341838777,-33.4158490598,0 19.2332786322,-33.4156693518,0 19.2327086627,-33.4155446291,0 19.2321386933,-33.4154199064,0 19.2316840589,-33.4153300524,0 19.2310966551,-33.4152133763,0 19.230671525,-33.415119499,0 19.2302209139,-33.4150202572,0 19.2295369506,-33.4148794413,0 19.2292499542,-33.4148204327,0 19.2289240658,-33.4147520363,0 19.2286799848,-33.4146997333,0 19.228258878,-33.4145991504,0 19.2278391123,-33.4144717455,0 19.2274823785,-33.4143215418,0 19.2273214459,-33.4142464399,0 19.2271618545,-33.4141726792,0 19.2270357907,-33.4141029418,0 19.2266401649,-33.4138441086,0 19.2262914777,-33.413579911,0 19.2261211574,-33.4134431183,0 19.2259414494,-33.4132955968,0 19.2256745696,-33.4130555391,0 19.2254050076,-33.4128195047,0 19.224871248,-33.4123688936,0 19.2246888578,-33.4122160077,0 19.2245614529,-33.412104696,0 19.224126935,-33.4117278457,0 19.2239445448,-33.4115709364,0 19.222972244,-33.4107394516,0 19.2228622735,-33.4106455743,0 19.2225766182,-33.4104001522,0 19.2219342291,-33.4098516405,0 19.2213857174,-33.4094305336,0 19.2209579051,-33.409101963,0 19.2205877602,-33.4088310599,0 19.2201304436,-33.4085252881,0 19.2196248472,-33.408203423,0 19.2190039158,-33.407818526,0 19.2184245586,-33.4074443579,0 19.2181415856,-33.4072633088,0 19.2172430456,-33.4067067504,0 19.2171773314,-33.4066665173,0 19.2168179154,-33.406445235,0 19.2165590823,-33.4062856436,0 19.2159797251,-33.4059235454,0 19.2147472501,-33.4051524103,0 19.213835299,-33.4046025574,0 19.2130360007,-33.4041532874,0 19.212102592,-33.4036624432,0 19.2106756568,-33.4028993547,0 19.2096497118,-33.402364254,0 19.2086653411,-33.4018439054,0 19.2077815533,-33.4013798833,0 19.2069675028,-33.400952071,0 19.2061977088,-33.4005524218,0 19.2052924633,-33.4001326561,0 19.2047077417,-33.3998832107,0 19.204094857,-33.3996552229,0 19.2033746839,-33.3994044363,0 19.2025257647,-33.3991549909,0 19.2017559707,-33.3989350498,0 19.2009566724,-33.3987057209,0 19.2001493275,-33.3984804153,0 19.1986955702,-33.3978702128,0 19.1981966794,-33.3975885808,0 19.1977997124,-33.3973605931,0 19.1973316669,-33.3969958127,0 19.1969963908,-33.396692723,0 19.1964907944,-33.3961173892,0 19.1962198913,-33.3957888186,0 19.1961219907,-33.3956708014,0 19.1954581439,-33.3948634565,0 19.193918556,-33.3929148316,0 19.1921080649,-33.3906711638,0 19.1915327311,-33.3899281919,0 19.1911076009,-33.3893810213,0 19.1908420622,-33.3890484273,0 19.1900601983,-33.3880734444,0 19.189427197,-33.3872915804,0 19.1873015463,-33.3846268058,0 19.1846515238,-33.3812995255,0 19.1834445298,-33.3797800541,0 19.1831374168,-33.3794099092,0 19.1829697788,-33.3792127669,0 19.1828477383,-33.3790545166,0 19.1826412082,-33.3788171411,0 19.1813242435,-33.3771649003,0 19.1801400483,-33.3756615222,0 19.1784596443,-33.3735653758,0 19.177929908,-33.3729082346,0 19.1770152748,-33.3717441559,0 19.1760456562,-33.3705532551,0 19.1747219861,-33.3688808978,0 19.1729021072,-33.3666050434,0 19.1718479991,-33.3652813733,0 19.1713960469,-33.3647167683,0 19.1713316739,-33.3646255732,0 19.1706369817,-33.3637900651,0 19.1704881191,-33.363596946,0 19.1702480614,-33.3632831275,0 19.1695828736,-33.3624556661,0 19.1695681214,-33.3624368906,0 19.1692435741,-33.3619903028,0 19.1688157618,-33.3613398671,0 19.1687044501,-33.3611346781,0 19.1684992611,-33.3607645333,0 19.1683289409,-33.3604051173,0 19.1677643359,-33.3591096103,0 19.1671340168,-33.3576638997,0 19.1669864953,-33.3572857082,0 19.1667638719,-33.356782794,0 19.1662354767,-33.3555717766,0 19.1655649245,-33.3540013433,0 19.1648501158,-33.3522565663,0 19.1645778716,-33.3514626324,0 19.1643351316,-33.3507531881,0 19.1640776396,-33.3499981463,0 19.163903296,-33.3494858444,0 19.1635237634,-33.3483861387,0 19.1626721621,-33.3458809555,0 19.1622805595,-33.344719559,0 19.1621920466,-33.3444567025,0 19.1619466245,-33.3437392116,0 19.161375314,-33.3420735598,0 19.1611942649,-33.3415532112,0 19.16083619,-33.3405125141,0 19.1606779397,-33.3400565386,0 19.1604807973,-33.3394825459,0 19.1602836549,-33.3388763666,0 19.160027504,-33.338137418,0 19.1595983505,-33.336918354,0 19.1593207419,-33.3360747993,0 19.1586408019,-33.3341154456,0 19.1583967209,-33.3333845437,0 19.1580788791,-33.3326429129,0 19.157987684,-33.332426995,0 19.1576255858,-33.3317121863,0 19.1574405134,-33.3314117789,0 19.1570864618,-33.3308431506,0 19.1568812728,-33.33052665,0 19.1563005745,-33.3297930658,0 19.1560591757,-33.329500705,0 19.1559357941,-33.3293625712,0 19.1554503143,-33.3288355172,0 19.1548602283,-33.3282735944,0 19.1543036699,-33.3277867734,0 19.1533984244,-33.3270934224,0 19.153316617,-33.3270277083,0 19.1531221569,-33.3269043267,0 19.1522423923,-33.3265006542,0 19.1501583159,-33.3255149424,0 19.1482646763,-33.3246392012,0 19.1479106247,-33.3244635165,0 19.1473057866,-33.3241832256,0 19.1472306848,-33.3241483569,0 19.1458171606,-33.3234979212,0 19.1447094083,-33.3229883015,0 19.1435359418,-33.3224464953,0 19.1424281895,-33.3219435811,0 19.1413097084,-33.3214218915,0 19.1401429474,-33.3208854496,0 19.1389171779,-33.3203208447,0 19.1377732158,-33.3197924495,0 19.136775434,-33.3193311095,0 19.1355255246,-33.3187571168,0 19.1344848275,-33.3182796836,0 19.1336600482,-33.317900151,0 19.1327440739,-33.3174803853,0 19.1317033768,-33.3169855177,0 19.1306264699,-33.3164986968,0 19.1296796501,-33.3160574734,0 19.1286510229,-33.3155854046,0 19.1273769736,-33.314999342,0 19.1262021661,-33.3144561946,0 19.1248489916,-33.3138312399,0 19.1237318516,-33.3133175969,0 19.1224336624,-33.3127181232,0 19.1212078929,-33.3121521771,0 19.1199164093,-33.3115580678,0 19.1186490655,-33.3109679818,0 19.1173119843,-33.3103550971,0 19.1162726283,-33.3098696172,0 19.1161090136,-33.3097931743,0 19.1160526872,-33.3097676933,0 19.115152806,-33.3093519509,0 19.1148819029,-33.3092272282,0 19.1148094833,-33.3091937006,0 19.1146042943,-33.3090984821,0 19.1132242978,-33.3084909618,0 19.1128970683,-33.3083769679,0 19.1127669811,-33.3083367348,0 19.1123405099,-33.3082053065,0 19.1120159626,-33.3081449568,0 19.1117303073,-33.3080966771,0 19.1115063429,-33.3080591261,0 19.1112059355,-33.3080376685,0 19.1107459366,-33.3080376685,0 19.1104468703,-33.3080551028,0 19.1102510691,-33.3080846071,0 19.1098728776,-33.3081489801,0 19.1091312468,-33.3083045483,0 19.106066823,-33.3090636134,0 19.1059756279,-33.3090864122,0 19.1052876413,-33.3092620969,0 19.1040055454,-33.3095920086,0 19.1009572148,-33.3103765547,0 19.1005910933,-33.3104851842,0 19.1002544761,-33.3105817437,0 19.1001498699,-33.310611248,0 19.0992097557,-33.3109438419,0 19.0989388525,-33.3110497892,0 19.0983447433,-33.3112925291,0 19.097584337,-33.3116640151,0 19.097302705,-33.3118209243,0 19.0966147184,-33.3122192323,0 19.0961399674,-33.3125089109,0 19.0955512226,-33.3128884435,0 19.095185101,-33.3131714165,0 19.0947036445,-33.3135321736,0 19.0944756567,-33.3137212694,0 19.0942168236,-33.3139210939,0 19.0938051045,-33.3143381774,0 19.0936589241,-33.314473629,0 19.0934416652,-33.3146908879,0 19.0933960676,-33.3147311211,0 19.0931010246,-33.3149953187,0 19.0930393338,-33.3150717616,0 19.092528373,-33.315706104,0 19.0923781693,-33.3159179986,0 19.0921904147,-33.3161795139,0 19.0917854011,-33.3167038858,0 19.0914662182,-33.3171612024,0 19.0912891924,-33.3173958957,0 19.091090709,-33.3175809681,0 19.0908801556,-33.3177298307,0 19.0906105936,-33.3178237081,0 19.0904322267,-33.3178773522,0 19.0900057554,-33.3180047572,0 19.0896852314,-33.3180128038,0 19.0894773602,-33.3180047572,0 19.0891340375,-33.317939043,0 19.0889020264,-33.3178398013,0 19.0886445343,-33.3177137375,0 19.0881255269,-33.3173784614,0 19.0879189968,-33.3172792196,0 19.087523371,-33.3171290159,0 19.0872551501,-33.3170472085,0 19.0867455304,-33.3169868588,0 19.0864183009,-33.3169546723,0 19.0861044824,-33.3169828355,0 19.0858362615,-33.3170297742,0 19.0853320062,-33.3171316981,0 19.0850450099,-33.317271173,0 19.0848425031,-33.3173570037,0 19.0843087435,-33.317732513,0 19.0836623311,-33.3181375265,0 19.0835295618,-33.3182099462,0 19.0832747519,-33.3183950186,0 19.0829381347,-33.3184808493,0 19.0828120708,-33.3184942603,0 19.0824016929,-33.3185867965,0 19.0821240842,-33.318580091,0 19.0818330646,-33.3185599744,0 19.0815031528,-33.3184942603,0 19.0812577307,-33.3184084296,0 19.0809345245,-33.3182421327,0 19.0802800655,-33.3178330958,0 19.0796121955,-33.3174562454,0 19.0790368617,-33.3170324564,0 19.078116864,-33.3162854612,0 19.0764968097,-33.3150623739,0 19.0752536058,-33.3139586449,0 19.0743094683,-33.3129957318,0 19.0742437541,-33.3129273355,0 19.0741311014,-33.3128227293,0 19.0739125013,-33.3126161993,0 19.0735396743,-33.3122996986,0 19.0734645724,-33.3122353256,0 19.073408246,-33.3121843636,0 19.0733170509,-33.3120904863,0 19.0731547773,-33.311906755,0 19.0722723305,-33.3109036088,0 19.0717761219,-33.3102947474,0 19.0712799132,-33.3096925914,0 19.0711672604,-33.3095866442,0 19.070982188,-33.3093559742,0 19.0707179904,-33.3089992404,0 19.0704806149,-33.3085955679,0 19.0702754259,-33.3081918955,0 19.070097059,-33.307788223,0 19.0697215497,-33.3064578474,0 19.0693674982,-33.3051301539,0 19.0692709386,-33.304836452,0 19.0691636503,-33.3045548201,0 19.0690778196,-33.3043858409,0 19.068916887,-33.3041779697,0 19.0687264502,-33.3039821684,0 19.0685842931,-33.3038413525,0 19.068442136,-33.3037206531,0 19.0682516992,-33.3035972714,0 19.0680129826,-33.3034805954,0 19.0677393973,-33.3033746481,0 19.0675489604,-33.3033263683,0 19.067299515,-33.3032767475,0 19.066940099,-33.3032271266,0 19.0665028989,-33.3031627536,0 19.0661220253,-33.3031064272,0 19.0658189356,-33.3030433953,0 19.0655614436,-33.3029790223,0 19.0653200448,-33.3029066026,0 19.065092057,-33.302808702,0 19.064668268,-33.3025981486,0 19.0628685057,-33.3015225828,0 19.0623535216,-33.3012154698,0 19.0618774295,-33.3009311557,0 19.0616467595,-33.300806433,0 19.0612658858,-33.3006294072,0 19.0608729422,-33.3005355299,0 19.0606020391,-33.3004684746,0 19.0600427985,-33.3003477752,0 19.0597544611,-33.3003370464,0 19.0590155125,-33.3003048599,0 19.0587593615,-33.3003222942,0 19.058226943,-33.3004121482,0 19.0579426289,-33.3004657924,0 19.0578313172,-33.3005006611,0 19.0576717257,-33.3005516231,0 19.0571795404,-33.3007112145,0 19.0570159256,-33.3007863164,0 19.0564419329,-33.3011175692,0 19.056250155,-33.3012288809,0 19.055968523,-33.3014421165,0 19.0559014678,-33.3014917374,0 19.0555688739,-33.3018068969,0 19.0555487573,-33.3018659055,0 19.0554226935,-33.3020040393,0 19.0552631021,-33.3021810651,0 19.0550538898,-33.3024439216,0 19.054620713,-33.3029669523,0 19.0542277694,-33.3034940064,0 19.0541942418,-33.3035396039,0 19.0540507436,-33.3037434518,0 19.0538750589,-33.3039754629,0 19.0537932515,-33.3040934801,0 19.053606838,-33.304322809,0 19.0532460809,-33.304772079,0 19.0532112122,-33.3048149943,0 19.0531682968,-33.3048391342,0 19.052811563,-33.3052964509,0 19.0524816513,-33.3057416975,0 19.0508455038,-33.3078351617,0 19.0474511683,-33.3121696115,0 19.0472258627,-33.3124579489,0 19.043623656,-33.3171142638,0 19.0407536924,-33.3208063245,0 19.0385381877,-33.3236508071,0 19.035448283,-33.3276513219,0 19.0339958668,-33.3295154572,0 19.0338242054,-33.3297353983,0 19.0327647328,-33.3311234415,0 19.03199628,-33.3320836723,0 19.0316100419,-33.332579881,0 19.0306404233,-33.3338324726,0 19.0302984416,-33.3342750371,0 19.0297593176,-33.3349817991,0 19.0291933715,-33.3357220888,0 19.0284262598,-33.3367051184,0 19.0273225307,-33.3381320536,0 19.0260565281,-33.3397614956,0 19.025349766,-33.34067747,0 19.0244270861,-33.3418817818,0 19.0239563584,-33.3424946666,0 19.0234588087,-33.3432349563,0 19.0227788687,-33.3443668485,0 19.0223041177,-33.3452144265,0 19.0220613778,-33.3457320929,0 19.0217703581,-33.3463194966,0 19.0212567151,-33.3476042747,0 19.0208785236,-33.3488662541,0 19.0206974745,-33.3494697511,0 19.0204024315,-33.350957036,0 19.0202334523,-33.3519400656,0 19.0197694302,-33.3544841409,0 19.019446224,-33.3561336994,0 19.0192168951,-33.3574801683,0 19.0190841258,-33.3581024408,0 19.0188400447,-33.3594730496,0 19.0184564888,-33.3612835407,0 19.0180662274,-33.362596482,0 19.0176585317,-33.363763243,0 19.017355442,-33.364482075,0 19.017303139,-33.3646054566,0 19.0171730518,-33.3649232984,0 19.0170684457,-33.3651418984,0 19.0166902542,-33.3659358323,0 19.0166392922,-33.3660431206,0 19.0164609253,-33.3663837612,0 19.0163938701,-33.3665138483,0 19.0162222087,-33.3668424189,0 19.0160639584,-33.3671495318,0 19.0158520639,-33.3675076067,0 19.0156911314,-33.3677758276,0 19.0154671669,-33.368127197,0 19.0151372552,-33.3686247468,0 19.0142574906,-33.3699215949,0 19.0137532353,-33.3706632257,0 19.0126669407,-33.3722564578,0 19.0118341148,-33.3734835684,0 19.0114532411,-33.3740226924,0 19.0106995404,-33.3750768006,0 19.009552896,-33.3767840266,0 19.0091103315,-33.3774505556,0 19.0085417032,-33.3782739937,0 19.0070530772,-33.3804304898,0 19.0057991445,-33.3822369576,0 19.0041723847,-33.384604007,0 19.003854543,-33.3850693703,0 19.0033864975,-33.3857506514,0 19.0017865598,-33.3880613744,0 19.0007860959,-33.3895647526,0 18.9992599189,-33.3918043971,0 18.9985464513,-33.3929778636,0 18.9981400967,-33.3937945962,0 18.9979375899,-33.3941473067,0 18.9977484941,-33.3945845068,0 18.9974869788,-33.3951155841,0 18.9969196916,-33.3964379132,0 18.9964731038,-33.3974786103,0 18.9960251749,-33.3985581994,0 18.9948986471,-33.4012793005,0 18.9946183562,-33.4019324183,0 18.9943796396,-33.4025493264,0 18.9940859377,-33.4032306075,0 18.9937520027,-33.4040862322,0 18.9928548038,-33.4061971307,0 18.9906325936,-33.4116768837,0 18.9905655384,-33.4118404984,0 18.9900653064,-33.413054198,0 18.98955971,-33.414273262,0 18.9884385467,-33.4170144796,0 18.9879651368,-33.4181410074,0 18.9876271784,-33.4189282358,0 18.9873924851,-33.4194740653,0 18.9867527783,-33.4208151698,0 18.9858730137,-33.4223279357,0 18.9852386713,-33.423294872,0 18.9843589067,-33.4245353937,0 18.9831827581,-33.4262050688,0 18.9807540178,-33.4294492006,0 18.9776788652,-33.4336669743,0 18.9769949019,-33.4346339107,0 18.9734651148,-33.4394229949,0 18.9732143283,-33.4397636354,0 18.9723721147,-33.4409035742,0 18.9711718261,-33.442543745,0 18.9709880948,-33.4428307414,0 18.9707145095,-33.443198204,0 18.9700868726,-33.4440658987,0 18.9696832001,-33.4446117282,0 18.969386816,-33.4450663626,0 18.9691749215,-33.4453855455,0 18.9687658846,-33.4460695088,0 18.9679974318,-33.4476090968,0 18.9676313102,-33.4483882785,0 18.967564255,-33.4485545754,0 18.9672799408,-33.4490923584,0 18.9669580758,-33.4497857094,0 18.9660125971,-33.4517236054,0 18.9659562707,-33.4518402815,0 18.9649343491,-33.4540209174,0 18.9638721943,-33.456248492,0 18.9631037414,-33.4578283131,0 18.9624090493,-33.4592378139,0 18.9615722001,-33.4610965848,0 18.9611390233,-33.462048769,0 18.9609003067,-33.4625476599,0 18.9607273042,-33.4629607201,0 18.9605931938,-33.4632343054,0 18.9604268968,-33.4638257325,0 18.9603933692,-33.4642387927,0 18.9604148269,-33.4644788504,0 18.9604443312,-33.4647966921,0 18.9606401324,-33.4672683477,0 18.9607018232,-33.4678409994,0 18.9608131349,-33.4688723087,0 18.9608868957,-33.4695871174,0 18.9610129595,-33.4708236158,0 18.9610531926,-33.4712192416,0 18.9613187313,-33.4738786519,0 18.9614166319,-33.4748053551,0 18.9616915584,-33.4774406254,0 18.9618377388,-33.4789252281,0 18.9619919658,-33.4803628922,0 18.9623178542,-33.4835721552,0 18.9628301561,-33.488111794,0 18.9631024003,-33.4907282889,0 18.9634229243,-33.4938704967,0 18.9634644985,-33.4943626821,0 18.9635288715,-33.4951096773,0 18.9637354016,-33.4971857071,0 18.9639218152,-33.4991236031,0 18.9640277624,-33.5003077984,0 18.9640344679,-33.5003882647,0 18.9640814066,-33.5015872121,0 18.9641484618,-33.5027579963,0 18.9642329514,-33.5044531524,0 18.9643013477,-33.5066123307,0 18.9644408226,-33.5100750625,0 18.9645802975,-33.5125440359,0 18.9647184312,-33.5155534744,0 18.9647197723,-33.5155937076,0 18.9648270607,-33.5172271729,0 18.964933008,-33.5192482173,0 18.9650322497,-33.5208334029,0 18.9650858939,-33.5216782987,0 18.9652267098,-33.5237449408,0 18.9652991295,-33.5254065692,0 18.9653527737,-33.5264982283,0 18.9654788375,-33.5295344889,0 18.965665251,-33.5332681239,0 18.9656840265,-33.5335980356,0 18.9657644928,-33.5350464284,0 18.9658650756,-33.5366101563,0 18.9659844339,-33.5381752253,0 18.9661923051,-33.5397912562,0 18.9666174352,-33.5424359143,0 18.9668400586,-33.5435852408,0 18.9671954513,-33.5451985896,0 18.9675025642,-33.5464431345,0 18.9677023888,-33.547155261,0 18.9681275189,-33.5486733913,0 18.9684949815,-33.5498173535,0 18.9686237276,-33.5502317548,0 18.9687162638,-33.5505509377,0 18.9691990614,-33.5522702336,0 18.9693117142,-33.552672565,0 18.9695584774,-33.5535536706,0 18.9700010419,-33.5549403727,0 18.9701378345,-33.5553708673,0 18.970670253,-33.557087481,0 18.9709089696,-33.5579538345,0 18.971157074,-33.5588523746,0 18.9721414447,-33.5621541739,0 18.9725209773,-33.563426882,0 18.9727985859,-33.5643267632,0 18.9730359614,-33.5651609302,0 18.9733068645,-33.5660353303,0 18.9742456377,-33.5690648854,0 18.9746452868,-33.5703550279,0 18.9751978219,-33.5720810294,0 18.9757288992,-33.573679626,0 18.9759662747,-33.5743904114,0 18.9761164784,-33.5748437047,0 18.976213038,-33.5751669109,0 18.9765885472,-33.5761700571,0 18.976687789,-33.5763698816,0 18.9769251645,-33.57738778,0 18.9771880209,-33.5786215961,0 18.9773462713,-33.5795603693,0 18.9773972332,-33.5800632834,0 18.9774441719,-33.5805125535,0 18.9774696529,-33.5807646811,0 18.977547437,-33.5821567476,0 18.9775447547,-33.5833878815,0 18.9774991572,-33.5846270621,0 18.9774776995,-33.5851795971,0 18.9774481952,-33.5857696831,0 18.977432102,-33.5860553384,0 18.9773999155,-33.5870410502,0 18.9773865044,-33.5880039632,0 18.9773610234,-33.5886906087,0 18.9773073792,-33.5900089145,0 18.9772537351,-33.5912507772,0 18.9772510529,-33.5918314755,0 18.9772564173,-33.5921184719,0 18.977355659,-33.592762202,0 18.9775487781,-33.5935856402,0 18.9776802063,-33.5939973593,0 18.9779698849,-33.5946625471,0 18.9783829451,-33.5953827202,0 18.9789167047,-33.5961176455,0 18.9793109894,-33.5966621339,0 18.9802792668,-33.5979160666,0 18.9808934927,-33.5987247527,0 18.9816445112,-33.5997118056,0 18.9822238684,-33.600436002,0 18.9828568697,-33.6012661457,0 18.9830097556,-33.6015102267,0 18.9831545949,-33.60175699,0 18.9833195508,-33.6020453274,0 18.9835596085,-33.6026756465,0 18.983656168,-33.602950573,0 18.9837661386,-33.6033287644,0 18.9839565754,-33.6043359339,0 18.9841577411,-33.6053659022,0 18.9845225215,-33.6072514951,0 18.9846432209,-33.6079207063,0 18.9850321412,-33.609893471,0 18.9850924909,-33.6102689803,0 18.9854049683,-33.6118903756,0 18.9854827523,-33.6122967303,0 18.9857456088,-33.6135908961,0 18.9858984947,-33.6144907773,0 18.9862391353,-33.6161899567,0 18.9863115549,-33.61664325,0 18.9864268899,-33.617195785,0 18.9865905046,-33.6181050539,0 18.9868399501,-33.6193040013,0 18.9870277047,-33.6203607917,0 18.9872208238,-33.6213612556,0 18.9873898029,-33.6222262681,0 18.9875265956,-33.6228887737,0 18.9876231551,-33.6232535541,0 18.9877331257,-33.6235633492,0 18.9881019294,-33.6242955923,0 18.988147527,-33.6243720353,0 18.9882642031,-33.6245262623,0 18.9883607626,-33.6246737838,0 18.9884787798,-33.6248159409,0 18.9885807037,-33.6249433458,0 18.9886692166,-33.6250331998,0 18.9887657762,-33.6251471937,0 18.9888381958,-33.6252276599,0 18.9889347553,-33.6253161728,0 18.9890635014,-33.6254355311,0 18.9891922474,-33.6255468428,0 18.9892499149,-33.6255978048,0 18.9893437922,-33.6256809533,0 18.9899298549,-33.6261919141,0 18.9899727702,-33.6262415349,0 18.9900612831,-33.6263220012,0 18.9901658893,-33.6264131963,0 18.9902047813,-33.6264507473,0 18.9902758598,-33.6265178025,0 18.9904072881,-33.6266237497,0 18.9905172586,-33.6267377436,0 18.9906325936,-33.6268624663,0 18.9907371998,-33.626973778,0 18.99091959,-33.6272192001,0 18.9910537004,-33.6274163425,0 18.9911408722,-33.6275719106,0 18.9912092686,-33.6277127266,0 18.991279006,-33.6278642714,0 18.9913165569,-33.6279608309,0 18.9913313091,-33.6280064285,0 18.9913594723,-33.6280855536,0 18.9913809299,-33.6281526089,0 18.9914265275,-33.628282696,0 18.9914613962,-33.6283832788,0 18.9914962649,-33.6285308003,0 18.991509676,-33.628628701,0 18.9915257692,-33.6287695169,0 18.9915445447,-33.6289599538,0 18.9915445447,-33.6290819943,0 18.9915418625,-33.6292093992,0 18.9915284514,-33.6294709146,0 18.9915043116,-33.6300757527,0 18.9914882183,-33.6304083467,0 18.9914694428,-33.6308079958,0 18.9914479852,-33.6310493946,0 18.9914184809,-33.6313913763,0 18.9914050698,-33.6314959824,0 18.9913728833,-33.631746769,0 18.99136886,-33.6318352818,0 18.9913648367,-33.6319224536,0 18.9913125336,-33.632196039,0 18.9912213385,-33.6326694489,0 18.9912092686,-33.632799536,0 18.9911355078,-33.6331441998,0 18.9911086857,-33.6332850158,0 18.9910389483,-33.6336430907,0 18.9909946918,-33.6338751018,0 18.9909665287,-33.6340776086,0 18.9909517765,-33.6341822147,0 18.9909343421,-33.6343766749,0 18.9909021556,-33.6345617473,0 18.990880698,-33.6347642541,0 18.9908511937,-33.6349573731,0 18.9908149838,-33.6351209879,0 18.9907734096,-33.6352752149,0 18.9907331765,-33.6354213953,0 18.9906272292,-33.6357606947,0 18.9905883372,-33.6358545721,0 18.9905548096,-33.6359417439,0 18.9904931188,-33.6361040175,0 18.990136385,-33.6369797587,0 18.9901135862,-33.6370334029,0 18.9900103211,-33.6372841895,0 18.9897783101,-33.6378608644,0 18.9896790683,-33.6381036043,0 18.9894725382,-33.6386065185,0 18.9893169701,-33.6389873922,0 18.9890836179,-33.6395399272,0 18.9890581369,-33.6396043003,0 18.9890339971,-33.6396566033,0 18.9888462424,-33.6401179433,0 18.9888140559,-33.6401970685,0 18.9887429774,-33.6403620243,0 18.9886638522,-33.6405041814,0 18.9885646105,-33.6406557262,0 18.9884667099,-33.64078179,0 18.9880026877,-33.6413182318,0 18.9878793061,-33.64146173,0 18.9876365662,-33.6417447031,0 18.9872275293,-33.6422221363,0 18.9871832728,-33.6422811449,0 18.9871256053,-33.6423736811,0 18.9870679379,-33.6425024271,0 18.9870223403,-33.6426499486,0 18.9869941771,-33.6427652836,0 18.9869914949,-33.6429825425,0 18.9869995415,-33.6431340873,0 18.987018317,-33.6432360113,0 18.9870706201,-33.6435578763,0 18.9870853722,-33.6436477304,0 18.9871001244,-33.6437375844,0 18.9871323109,-33.6439011991,0 18.9871443808,-33.6439736187,0 18.9871524274,-33.644015193,0 18.9872033894,-33.6443048716,0 18.9872194827,-33.64438802,0 18.9872422814,-33.6445717514,0 18.9872583747,-33.6448547244,0 18.987223506,-33.6453589797,0 18.987211436,-33.6455279589,0 18.9872020483,-33.6458109319,0 18.9872020483,-33.645888716,0 18.9869606495,-33.6459155381,0 18.9864885807,-33.6459624767,0 18.9858233929,-33.6460201442,0 18.9851944149,-33.6460845172,0 18.9851367474,-33.6460657418,0 18.9846673608,-33.6461140215,0 18.9841872454,-33.6461783946,0 18.9838278294,-33.646236062,0 18.9835327864,-33.6462883651,0 18.983259201,-33.6463460326,0 18.9829681814,-33.6464104056,0 18.9824719727,-33.6465512216,0 18.9812408388,-33.6469334364,0 18.9799211919,-33.6473344266,0 18.9772443473,-33.6481390893,0 18.9756859839,-33.6486339569,0 18.9745084941,-33.6489920318,0 18.9737910032,-33.6492240429,0 18.9725759625,-33.649559319,0 18.9721736312,-33.6496652663,0 18.9719228446,-33.6497309804,0 18.9714159071,-33.6498516798,0 18.9708204567,-33.6499723792,0 18.9696617424,-33.650162816,0 18.9691011608,-33.6502741277,0 18.9688423276,-33.6503224075,0 18.9687256515,-33.6503438652,0 18.9685378969,-33.6503773928,0 18.9680631459,-33.6504645646,0 18.9677774906,-33.6505182087,0 18.9677077532,-33.6505222321,0 18.966845423,-33.6506764591,0 18.9651194215,-33.6509889364,0 18.9645601809,-33.6510908604,0 18.9628945291,-33.6513966322,0 18.9613388479,-33.6516286433,0 18.9612583816,-33.6516822875,0 18.9609029889,-33.6517453194,0 18.9601787925,-33.6519250274,0 18.9596222341,-33.6520899832,0 18.9593741298,-33.652163744,0 18.9592963457,-33.6521865427,0 18.9590683579,-33.652253598,0 18.9582824707,-33.6524869502,0 18.958247602,-33.6524990201,0 18.9580276608,-33.6525674164,0 18.9576025307,-33.6527149379,0 18.9572927356,-33.6528450251,0 18.9568340778,-33.6530502141,0 18.9565631747,-33.6531668901,0 18.9561836421,-33.6533385515,0 18.9553387463,-33.6536952853,0 18.9549659193,-33.6538629234,0 18.9538112283,-33.6544248462,0 18.9532801509,-33.6546689272,0 18.9513355494,-33.6555553973,0 18.9447614551,-33.6585447192,0 18.9419196546,-33.659837544,0 18.9406858385,-33.6604061723,0 18.9372834563,-33.6619497836,0 18.9364023507,-33.6623427272,0 18.9358216524,-33.6625465751,0 18.9356580377,-33.6625894904,0 18.9352597296,-33.6627034843,0 18.9349633455,-33.6627598107,0 18.9343075454,-33.662853688,0 18.933724165,-33.6628805101,0 18.9330160618,-33.662867099,0 18.9314563572,-33.6627906561,0 18.9302212,-33.6627276242,0 18.9299690723,-33.6627155542,0 18.9288827777,-33.6626619101,0 18.9282953739,-33.6626659334,0 18.9276945591,-33.6626954377,0 18.9271433651,-33.6627531052,0 18.9265573025,-33.6628483236,0 18.9259940386,-33.6629475653,0 18.9252309501,-33.6631420255,0 18.9242814481,-33.6635108292,0 18.9237986505,-33.6636945605,0 18.923137486,-33.6640298367,0 18.9222027361,-33.6646011472,0 18.9217105508,-33.6649525166,0 18.9208307862,-33.6657531559,0 18.9198383689,-33.6667267978,0 18.9193448424,-33.66719082,0 18.9188727736,-33.6675797403,0 18.9184288681,-33.6678667367,0 18.917773068,-33.6682100594,0 18.9176952839,-33.6682489514,0 18.917606771,-33.668294549,0 18.9174887538,-33.6683548987,0 18.9159612358,-33.6690603197,0 18.9157694578,-33.6691394448,0 18.9130295813,-33.6704242229,0 18.9126822352,-33.6705864966,0 18.9106397331,-33.6715976894,0 18.9105163515,-33.6716647446,0 18.9100496471,-33.6719383299,0 18.9098404348,-33.6720657349,0 18.9096097648,-33.6721985042,0 18.9090116322,-33.6726129055,0 18.9087662101,-33.6727832258,0 18.9086924493,-33.6728341877,0 18.9082592726,-33.6731560528,0 18.9078569412,-33.6734725535,0 18.907674551,-33.6736267805,0 18.9074237645,-33.6737555265,0 18.9070026577,-33.6741618812,0 18.9068068564,-33.6743590236,0 18.9057138562,-33.6754654348,0 18.9052270353,-33.6759898067,0 18.9043164253,-33.676943332,0 18.9035882056,-33.6776983738,0 18.9033830166,-33.6779478192,0 18.9029753208,-33.6784440279,0 18.9027875662,-33.6786961555,0 18.9025636017,-33.6790247262,0 18.9022229612,-33.6795638502,0 18.9019748569,-33.6800318956,0 18.9017482102,-33.6805281043,0 18.9016194642,-33.680870086,0 18.901463896,-33.681358248,0 18.9013713598,-33.6816948652,0 18.9013043046,-33.6820596457,0 18.9012788236,-33.6822500825,0 18.9011567831,-33.6830453575,0 18.9010454714,-33.6842148006,0 18.9007826149,-33.6869694293,0 18.9006860554,-33.6880396307,0 18.9006203413,-33.6887437105,0 18.900604248,-33.6888389289,0 18.9004218578,-33.6899708211,0 18.9003266394,-33.6904013157,0 18.900180459,-33.6910437047,0 18.9000329375,-33.6915720999,0 18.8999176025,-33.691958338,0 18.8998813927,-33.6920790374,0 18.8998116553,-33.6922721565,0 18.8997003436,-33.6925819516,0 18.8995836675,-33.6928984523,0 18.8991880417,-33.6938372254,0 18.8988420367,-33.6945962906,0 18.8979890943,-33.6964228749,0 18.8971441984,-33.6982575059,0 18.8968223333,-33.698952198,0 18.8967472315,-33.6991144717,0 18.8966184855,-33.6993934214,0 18.8962000608,-33.7003053725,0 18.895778954,-33.7011918426,0 18.8955563307,-33.7016773224,0 18.8951835036,-33.7024860084,0 18.8944244385,-33.7041261792,0 18.8939376175,-33.7052178383,0 18.8936197758,-33.7059755623,0 18.8934025168,-33.706522733,0 18.8931906223,-33.7071892619,0 18.8931570947,-33.7073126435,0 18.8929840922,-33.7079510093,0 18.8928982615,-33.7082621455,0 18.8927212358,-33.7090118229,0 18.8925978541,-33.7095831335,0 18.8925603032,-33.7097802758,0 18.8925147057,-33.7100163102,0 18.8920721412,-33.7122827768,0 18.8918924332,-33.7131692469,0 18.8917073607,-33.7141348422,0 18.8914471865,-33.7154665589,0 18.8911923766,-33.7166936696,0 18.8910502195,-33.7174500525,0 18.890760541,-33.7189158797,0 18.8906237483,-33.7196078897,0 18.890401125,-33.720805496,0 18.8903206587,-33.7215135992,0 18.8902965188,-33.7219440937,0 18.8902911544,-33.7226575613,0 18.8903179765,-33.7230920792,0 18.8903662562,-33.7237331271,0 18.8906157017,-33.7267693877,0 18.8906988502,-33.72787714,0 18.8908544183,-33.7298767269,0 18.8909885287,-33.7313814461,0 18.891119957,-33.7331235409,0 18.891197741,-33.7341213226,0 18.8912245631,-33.7345343828,0 18.8912299275,-33.7348307669,0 18.8912245631,-33.7351097167,0 18.8912031054,-33.735486567,0 18.8911682367,-33.7358701229,0 18.8910877705,-33.7364119291,0 18.8909724355,-33.7369792163,0 18.8909295201,-33.7371388078,0 18.8907042146,-33.7380520999,0 18.8904333115,-33.7391531467,0 18.8903421164,-33.7395165861,0 18.889695704,-33.7421169877,0 18.8892182708,-33.7440575659,0 18.8890761137,-33.7446194887,0 18.8889017701,-33.7453275919,0 18.8887059689,-33.7461322546,0 18.8899129629,-33.7466821074,0 18.8904359937,-33.7469141185,0 18.8908946514,-33.7471099198,0 18.8910341263,-33.7471702695,0 18.8912218809,-33.7472547591,0 18.8913747668,-33.7473379076,0 18.8916000724,-33.7474773824,0 18.8918173313,-33.7476275861,0 18.8920077682,-33.7477818131,0 18.8922894001,-33.7480580807,0 18.8930484653,-33.748831898,0 18.8939604163,-33.7497478724,0 18.8943949342,-33.7501837313,0 18.8947892189,-33.7505686283,0 18.8955885172,-33.7513719499,0 18.8968786597,-33.7526647747,0 18.8978603482,-33.7536397576,0 18.8981366158,-33.7539160252,0 18.8984423876,-33.754221797,0 18.8987615705,-33.7545436621,0 18.8989761472,-33.7547542155,0 18.8992229104,-33.75496611,0 18.8994669914,-33.7551699579,0 18.8997781277,-33.7554167211,0 18.9001536369,-33.7556889653,0 18.9004567266,-33.7559142709,0 18.9016476274,-33.7567551434,0 18.9022779465,-33.7572151423,0 18.9050339162,-33.7592254579,0 18.9059217274,-33.7598705292,0 18.9085556567,-33.7617856264,0 18.9088453352,-33.7619934976,0 18.9095748961,-33.7625205517,0 18.9118145406,-33.7641365826,0 18.9131100476,-33.7652765214,0 18.9136733115,-33.765771389,0 18.9141279459,-33.7661710382,0 18.9149647951,-33.7669032812,0 18.916157037,-33.7679480016,0 18.9165754616,-33.7683100998,0 18.9172942936,-33.7689350545,0 18.9187172055,-33.770223856,0 18.919339478,-33.7707871199,0
            </coordinates>
        </LineString>
        </Placemark>
  </Folder>
        </Document>
    </kml>
    