<?xml version="1.0" encoding="UTF-8"?>
    <kml xmlns="http://www.opengis.net/kml/2.2">
    <Document>
        <name>Colored Path</name>
        <Folder>
            <name>Day 6</name>
            <open>1</open>
            <Style id="blackLine">
            <LineStyle>
                <color>ff000000</color>
                <width>4</width>
            </LineStyle>
            </Style>
            <Style id="redLine">
            <LineStyle>
                <color>ff0000ff</color>
                <width>4</width>
            </LineStyle>
            </Style>
        <Placemark>
        <name>Segment 1 (True)</name>
        <styleUrl>#blackLine</styleUrl>
        <LineString>
            <tessellate>1</tessellate>
            <coordinates>
            20.3473931551,-28.6231304705,0 20.3472657502,-28.6233329773,0 20.3471262753,-28.6234858632,0 20.3460869193,-28.624432683,0 20.3453305364,-28.6251233518,0 20.3438298404,-28.6265046895,0 20.3433510661,-28.6269459128,0 20.3425772488,-28.6276701093,0 20.342490077,-28.6277599633,0 20.3423532844,-28.6279061437,0 20.3422795236,-28.6279839277,0 20.3421829641,-28.6281059682,0 20.3421628475,-28.6281368136,0 20.3421400487,-28.6281703413,0 20.3420314193,-28.6283218861,0 20.3420072794,-28.6283621192,0 20.3419536352,-28.6284774542,0 20.341912061,-28.6285753548,0 20.341847688,-28.6287617683,0 20.341822207,-28.6288945377,0 20.3418074548,-28.628988415,0 20.3417994082,-28.6291560531,0 20.3418061137,-28.629257977,0 20.3418181837,-28.6293947697,0 20.3418557346,-28.6295489967,0 20.341861099,-28.6295637488,0 20.34188658,-28.6296482384,0 20.3418959677,-28.6296804249,0 20.3419321775,-28.6297984421,0 20.3419563174,-28.6298587918,0 20.3420582414,-28.6301484704,0 20.34210518,-28.6301954091,0 20.3422366083,-28.6303067207,0 20.3422500193,-28.6303214729,0 20.3423170745,-28.6303912103,0 20.3423519433,-28.630426079,0 20.3423666954,-28.6304421723,0 20.3424941003,-28.6305749416,0 20.3427247703,-28.6308123171,0 20.3428830206,-28.6309745908,0 20.3429661691,-28.6310590804,0 20.3430077434,-28.6311019957,0 20.3431284428,-28.6312280595,0 20.3431874514,-28.6312910914,0 20.3435307741,-28.6316478252,0 20.3437453508,-28.6318650842,0 20.3441543877,-28.632311672,0 20.3447377682,-28.6330533028,0 20.3447686136,-28.6330921948,0 20.3453533351,-28.6338418722,0 20.3457261622,-28.6343434453,0 20.348136127,-28.6375889182,0 20.3482554853,-28.6377498507,0 20.3485639393,-28.6381655931,0 20.3488308191,-28.6385276914,0 20.3493605554,-28.639241159,0 20.3494074941,-28.639305532,0 20.3495201468,-28.6394771934,0 20.3499962389,-28.6401061714,0 20.3502054513,-28.6403784156,0 20.3517758846,-28.6424209177,0 20.3523109853,-28.6430512369,0 20.3524062037,-28.6431491375,0 20.3531451523,-28.6439028382,0 20.3532403708,-28.6439859867,0 20.3537741303,-28.6444526911,0 20.3550280631,-28.6454464495,0 20.3558340669,-28.6460244656,0 20.3560298681,-28.6461639404,0 20.3567607701,-28.6466869712,0 20.3573548794,-28.6471094191,0 20.3574514389,-28.6471778154,0 20.3583808243,-28.6477088928,0 20.3586691618,-28.6478725076,0 20.360031724,-28.6485350132,0 20.3604233265,-28.6486986279,0 20.3614345193,-28.6491237581,0 20.3624738753,-28.6495354772,0 20.3639785945,-28.6501309276,0 20.3644801676,-28.6503307521,0 20.366666168,-28.6511997879,0 20.3690050542,-28.6521291733,0 20.3692638874,-28.6522324383,0 20.3778094053,-28.6556281149,0 20.3824925423,-28.6574909091,0 20.3887635469,-28.6599840224,0 20.3892101347,-28.6601610482,0 20.390804708,-28.6607940495,0 20.3940045834,-28.6621043086,0 20.4010735452,-28.6650963128,0 20.4033641517,-28.6660659313,0 20.4037463665,-28.666228205,0 20.4046609998,-28.6666104198,0 20.4077187181,-28.6678884923,0 20.4077428579,-28.6678978801,0 20.4077790678,-28.6679139733,0 20.4106852412,-28.6691276729,0 20.410772413,-28.6691638827,0 20.4109252989,-28.6692282557,0 20.4110258818,-28.6692711711,0 20.4169763625,-28.6717683077,0 20.4186232388,-28.6724643409,0 20.4187841713,-28.6725327373,0 20.4213510454,-28.6736190319,0 20.4218995571,-28.6738684773,0 20.4231642187,-28.6744451523,0 20.4234901071,-28.6746020615,0 20.425029695,-28.6754053831,0 20.4264713824,-28.6761859059,0 20.4296028614,-28.677881062,0 20.430302918,-28.6782592535,0 20.43100968,-28.6786414683,0 20.4327477515,-28.6795802414,0 20.4335577786,-28.6800174415,0 20.4349283874,-28.6807577312,0 20.4455177486,-28.6864641309,0 20.4493787885,-28.6885522306,0 20.4510135949,-28.6894373596,0 20.4600016773,-28.6943002045,0 20.4608801007,-28.6947762966,0 20.4630728066,-28.6959832907,0 20.464541316,-28.6967772245,0 20.4647706449,-28.6968992651,0 20.4681167006,-28.6986896396,0 20.4703187943,-28.6998738348,0 20.4736675322,-28.7016749382,0 20.4754847288,-28.7026526034,0 20.4768687487,-28.703404963,0 20.4779134691,-28.7039709091,0 20.4813145101,-28.7058189511,0 20.4844607413,-28.7075261772,0 20.4855577648,-28.7081229687,0 20.4871670902,-28.7089973688,0 20.490256995,-28.7106576562,0 20.4905949533,-28.7108494341,0 20.490694195,-28.7109017372,0 20.4913178086,-28.7112303078,0 20.4922793806,-28.7118968368,0 20.4923585057,-28.711951822,0 20.4928828776,-28.7124010921,0 20.4933965206,-28.7129254639,0 20.4936204851,-28.7132030725,0 20.4940026999,-28.7137582898,0 20.4943580925,-28.7143430114,0 20.4945847392,-28.7148432434,0 20.4951050878,-28.7159898877,0 20.4953920841,-28.7166684866,0 20.4956321418,-28.7172357738,0 20.4959848523,-28.7179626524,0 20.4963375628,-28.7185406685,0 20.4967546463,-28.7191388011,0 20.4971395433,-28.7196202576,0 20.4974479973,-28.7199179828,0 20.4975807667,-28.7200467288,0 20.4983532429,-28.7207937241,0 20.4987300932,-28.7211611867,0 20.4993443191,-28.7217499316,0 20.5004493892,-28.7227892876,0 20.5009536445,-28.7233029306,0 20.5014310777,-28.723808527,0 20.5018307269,-28.7242658436,0 20.5018548667,-28.7242953479,0 20.5022786558,-28.7248277664,0 20.5034789443,-28.7263230979,0 20.5043627322,-28.7274590135,0 20.5048938096,-28.7281402946,0 20.5055496097,-28.7289194763,0 20.506297946,-28.7298569083,0 20.5075800419,-28.7314555049,0 20.5081446469,-28.7321582437,0 20.5084826052,-28.7325780094,0 20.5098961294,-28.7343375385,0 20.5105184019,-28.7351059914,0 20.51067397,-28.7352843583,0 20.5110803246,-28.7357550859,0 20.5112855136,-28.7359830737,0 20.5114276707,-28.7361440063,0 20.5114719272,-28.736192286,0 20.5118621886,-28.7366308272,0 20.512791574,-28.7376125157,0 20.5134245753,-28.7382790446,0 20.5160826445,-28.7409196794,0 20.5175726116,-28.7424002588,0 20.5178636312,-28.7426899374,0 20.5201877654,-28.7449912727,0 20.5228565633,-28.7476359308,0 20.5229450762,-28.7477244437,0 20.5258284509,-28.7505783141,0 20.5260175467,-28.7507660687,0 20.5265204608,-28.7512663007,0 20.5266626179,-28.7514084578,0 20.5273935199,-28.7521393597,0 20.5280573666,-28.7528045475,0 20.5281566083,-28.7529037893,0 20.5296385288,-28.754388392,0 20.5300717056,-28.7548215687,0 20.5304391682,-28.755185008,0 20.5317386985,-28.7564644217,0 20.5320136249,-28.756736666,0 20.5331629515,-28.7578739226,0 20.5338898301,-28.7585914135,0 20.5339770019,-28.7586785853,0 20.53436324,-28.7590567768,0 20.5343981087,-28.7590916455,0 20.5336725712,-28.760047853,0 20.5328786373,-28.7602490187,0 20.5320873857,-28.7604501843,0 20.5310547352,-28.7607184052,0 20.5301401019,-28.7609611452,0 20.5300033092,-28.7609960139,0 20.5298906565,-28.7610241771,0 20.5292871594,-28.7611703575,0 20.5286112428,-28.7613487244,0 20.5282437801,-28.7614412606,0 20.5276402831,-28.7615914643,0 20.5269375443,-28.7617725134,0 20.5258646607,-28.7620474398,0 20.5249071121,-28.7622995675,0 20.524161458,-28.7625034153,0 20.523635745,-28.7626589835,0 20.5233648419,-28.762755543,0 20.5229893327,-28.7628722191,0 20.5226460099,-28.7629902363,0 20.5225883424,-28.7630130351,0 20.5223697424,-28.7630988657,0 20.5220586061,-28.7632155418,0 20.5216214061,-28.7634019554,0 20.521350503,-28.7635213137,0 20.5212378502,-28.7635655701,0 20.5211573839,-28.7636084855,0 20.5208127201,-28.7637600303,0 20.5203956366,-28.7639665604,0 20.5201435089,-28.7641020119,0 20.5198162794,-28.7642763555,0 20.519322753,-28.7645418942,0 20.5187299848,-28.7648919225,0 20.5181586742,-28.7652218342,0 20.5176115036,-28.7655369937,0 20.51720649,-28.7657783926,0 20.5162355304,-28.7663376331,0 20.5154871941,-28.7667708099,0 20.5148783326,-28.7671288848,0 20.5141809583,-28.767529875,0 20.5131939054,-28.7680971622,0 20.5124375224,-28.7685383856,0 20.5115818977,-28.7690332532,0 20.5110481381,-28.7693484128,0 20.510468781,-28.7696823478,0 20.5098384619,-28.7700484693,0 20.5089694262,-28.7705473602,0 20.5080011487,-28.7711133063,0 20.5071616173,-28.7715934217,0 20.506413281,-28.7720239162,0 20.5059090257,-28.7723189592,0 20.5054235458,-28.7726046145,0 20.5049434304,-28.772880882,0 20.5044981837,-28.7731477618,0 20.5035191774,-28.773701638,0 20.5028057098,-28.7741187215,0 20.5020976067,-28.7745317817,0 20.5012097955,-28.7750467658,0 20.5006867647,-28.7753471732,0 20.5000323057,-28.7757307291,0 20.4993778467,-28.7761022151,0 20.4970362782,-28.7774808705,0 20.4960921407,-28.778013289,0 20.4947000742,-28.7788125873,0 20.4940590262,-28.7791934609,0 20.4934340715,-28.7795515358,0 20.4925382137,-28.7800705433,0 20.4920527339,-28.7803548574,0 20.4915457964,-28.7806472182,0 20.4909422994,-28.7810012698,0 20.4896306992,-28.781773746,0 20.4876928031,-28.7828975916,0 20.4861518741,-28.783788085,0 20.4851862788,-28.7843459845,0 20.4848831892,-28.7845243514,0 20.4843708873,-28.7848033011,0 20.483737886,-28.7851694226,0 20.4829949141,-28.7855999172,0 20.4825335741,-28.7858627737,0 20.4818549752,-28.786265105,0 20.4812353849,-28.7866218388,0 20.4808008671,-28.7868739665,0 20.4802161455,-28.7872105837,0 20.4791754484,-28.7878248096,0 20.4785531759,-28.7881815434,0 20.4774802923,-28.7887944281,0 20.4767131805,-28.7892383337,0 20.4761043191,-28.7895937264,0 20.4755973816,-28.7898847461,0 20.4748919606,-28.7902991474,0 20.4743394256,-28.7906089425,0 20.4738351703,-28.7909026444,0 20.4734784365,-28.7911145389,0 20.4726952314,-28.7915638089,0 20.471842289,-28.7920600176,0 20.4714909196,-28.7922611833,0 20.4706433415,-28.7927480042,0 20.4701632261,-28.7930256128,0 20.4696696997,-28.7933152914,0 20.4690903425,-28.7936411798,0 20.4685565829,-28.7939563394,0 20.4678216577,-28.7943801284,0 20.467454195,-28.7945839763,0 20.4671216011,-28.7947838008,0 20.466247201,-28.7952840328,0 20.4654532671,-28.7957453728,0 20.4648202658,-28.7961101532,0 20.4641765356,-28.7964829803,0 20.463642776,-28.7967941165,0 20.4626959562,-28.7973466516,0 20.4622936249,-28.7975746393,0 20.4617705941,-28.7978723645,0 20.4609578848,-28.798353821,0 20.4603517056,-28.7986971438,0 20.4597213864,-28.7990686297,0 20.4593619704,-28.799277842,0 20.4587826133,-28.7996077538,0 20.4582488537,-28.7999175489,0 20.4578492045,-28.80014956,0 20.4568058252,-28.8007517159,0 20.4561781883,-28.8011138141,0 20.4554271698,-28.8015456498,0 20.454582274,-28.8020324707,0 20.4534906149,-28.8026694953,0 20.4529005289,-28.8030155003,0 20.4520958662,-28.8034754992,0 20.451208055,-28.8039931655,0 20.4506582022,-28.8043029606,0 20.4498749971,-28.8047710061,0 20.4495155811,-28.8049735129,0 20.4488825798,-28.8053396344,0 20.448576808,-28.8055180013,0 20.4482200742,-28.8057205081,0 20.4479008913,-28.8059015572,0 20.4474341869,-28.8061724603,0 20.4467609525,-28.8065640628,0 20.4461842775,-28.8068912923,0 20.4451221228,-28.8075108826,0 20.4443845153,-28.8079319894,0 20.4435288906,-28.8084349036,0 20.4430755973,-28.8086910546,0 20.442456007,-28.8090625405,0 20.4419517517,-28.8093428314,0 20.4412570596,-28.809749186,0 20.4407286644,-28.8100549579,0 20.4403799772,-28.8102547824,0 20.4398676753,-28.8105551898,0 20.4392279685,-28.8109186292,0 20.4388618469,-28.8111278415,0 20.4379968345,-28.8115985692,0 20.4376387596,-28.8117809594,0 20.4363660514,-28.8124206662,0 20.435911417,-28.8126258552,0 20.4353991151,-28.8128632307,0 20.4349806905,-28.8130483031,0 20.4345810413,-28.813213259,0 20.4342538118,-28.8133446872,0 20.4339775443,-28.8134627044,0 20.4337495565,-28.813560605,0 20.4336060584,-28.8136222959,0 20.431933701,-28.8142378628,0 20.4311209917,-28.8145034015,0 20.430380702,-28.814740777,0 20.4299488664,-28.8148722053,0 20.4294043779,-28.8150197268,0 20.4289993644,-28.8151350617,0 20.4283636808,-28.815305382,0 20.4276354611,-28.8154810667,0 20.4253488779,-28.8160201907,0 20.4246649146,-28.8161690533,0 20.4235115647,-28.8164372742,0 20.4226908088,-28.8166223466,0 20.4185119271,-28.8175812364,0 20.4179057479,-28.8177354634,0 20.4172942042,-28.8178668916,0 20.4172244668,-28.8178829849,0 20.4162588716,-28.818102926,0 20.4153496027,-28.8183175027,0 20.4145073891,-28.8185052574,0 20.4137027264,-28.8186916709,0 20.4131636024,-28.8188137114,0 20.4126781225,-28.8189424574,0 20.4121014476,-28.8190644979,0 20.4111009836,-28.8192924857,0 20.4079949856,-28.8200166821,0 20.4069542885,-28.8202486932,0 20.4056534171,-28.8205477595,0 20.4042425752,-28.8208736479,0 20.4035961628,-28.8210171461,0 20.4028344154,-28.8211981952,0 20.4023596644,-28.8213014603,0 20.3960189223,-28.8227726519,0 20.3938221931,-28.8232755661,0 20.3910058737,-28.8239394128,0 20.3888829052,-28.8244222105,0 20.385953933,-28.8251034915,0 20.3843137622,-28.8254736364,0 20.3814773262,-28.8261348009,0 20.3783673048,-28.8268361986,0 20.375842005,-28.8274303079,0 20.3749716282,-28.8276140392,0 20.3736466169,-28.8279171288,0 20.3718414903,-28.8283355534,0 20.3712540865,-28.8284669816,0 20.3705137968,-28.8286426663,0 20.3698942065,-28.8287861645,0 20.3692397475,-28.8289430737,0 20.3683385253,-28.8291455805,0 20.3675553203,-28.8293266296,0 20.3668230772,-28.829498291,0 20.3660532832,-28.8296699524,0 20.3652338684,-28.8298724592,0 20.3645029664,-28.8300360739,0 20.3617376089,-28.830666393,0 20.3600370884,-28.8310579956,0 20.3586101532,-28.8313852251,0 20.3574514389,-28.8316507638,0 20.3563651443,-28.831897527,0 20.3551152349,-28.8321845233,0 20.3541657329,-28.8324031234,0 20.3526368737,-28.8327504694,0 20.3515291214,-28.8330039382,0 20.3512233496,-28.8330750167,0 20.3505179286,-28.833245337,0 20.3488710523,-28.8336262107,0 20.3479081392,-28.8338474929,0 20.347250998,-28.8339976966,0 20.3462988138,-28.8342216611,0 20.3458401561,-28.8343316317,0 20.3454485536,-28.8344241679,0 20.3406661749,-28.8355211914,0 20.3406514227,-28.8355238736,0 20.3393813968,-28.835812211,0 20.3382441401,-28.8360750675,0 20.3375145793,-28.8362373412,0 20.3363290429,-28.8365122676,0 20.3353071213,-28.8367523253,0 20.3346714377,-28.8368971646,0 20.3337299824,-28.8371090591,0 20.3329011798,-28.8372994959,0 20.331940949,-28.8375154138,0 20.3312784433,-28.8376709819,0 20.3308331966,-28.8377957046,0 20.3303691745,-28.8378842175,0 20.3287048638,-28.8382798433,0 20.3270700574,-28.8386499882,0 20.3254888952,-28.839020133,0 20.3245782852,-28.8392212987,0 20.3239560127,-28.839366138,0 20.3228536248,-28.8396209478,0 20.3220301867,-28.8398060203,0 20.3214401007,-28.8399374485,0 20.3209546208,-28.8400581479,0 20.3204208612,-28.8401627541,0 20.3197047114,-28.8402834535,0 20.3192326427,-28.840367943,0 20.3185299039,-28.8404792547,0 20.3177466989,-28.8405610621,0 20.3171432018,-28.8406254351,0 20.3166604042,-28.8406643271,0 20.3159978986,-28.8407112658,0 20.3155043721,-28.8407461345,0 20.3149357438,-28.84076491,0 20.3143724799,-28.8407716155,0 20.3134685755,-28.8407810032,0 20.3127712011,-28.8407582045,0 20.3122535348,-28.8407434523,0 20.3115963936,-28.8407059014,0 20.3100755811,-28.8405838609,0 20.3092494607,-28.8405033946,0 20.3086915612,-28.8404631615,0 20.3066007793,-28.8402915001,0 20.3052207828,-28.8401627541,0 20.3047889471,-28.8401386142,0 20.3043839335,-28.8400876522,0 20.3027933836,-28.8399535418,0 20.3014308214,-28.839840889,0 20.3001889586,-28.8397403061,0 20.2993708849,-28.8396678865,0 20.2969515324,-28.8394626975,0 20.2961924672,-28.8393902779,0 20.2953368425,-28.8393191993,0 20.2944168448,-28.8392427564,0 20.2935612202,-28.8391649723,0 20.2926439047,-28.8390925527,0 20.2920940518,-28.8390375674,0 20.2910318971,-28.8389463723,0 20.2900475264,-28.8388592005,0 20.2893662453,-28.8388028741,0 20.2889424562,-28.8387680054,0 20.2880975604,-28.838699609,0 20.2869147062,-28.8385936618,0 20.2857989073,-28.8384957612,0 20.284294188,-28.838365674,0 20.2835968137,-28.8383066654,0 20.2825132012,-28.8382154703,0 20.2814751863,-28.8381256163,0 20.2804613113,-28.8380397856,0 20.2797827125,-28.837980777,0 20.278980732,-28.8379351795,0 20.2785596251,-28.8378962874,0 20.27803123,-28.8378721476,0 20.2774196863,-28.8378439844,0 20.2766257524,-28.8378252089,0 20.2758720517,-28.8378158212,0 20.2751022577,-28.8378278911,0 20.2743834257,-28.8378493488,0 20.2737182379,-28.8378788531,0 20.272910893,-28.8379217684,0 20.2723932266,-28.8379593194,0 20.2715456486,-28.8380344212,0 20.2708885074,-28.838096112,0 20.2700543404,-28.8381806016,0 20.2694642544,-28.838250339,0 20.2684879303,-28.8383562863,0 20.2673184872,-28.8384877145,0 20.2664548159,-28.8385896385,0 20.2657306194,-28.8386714458,0 20.2650359273,-28.8387532532,0 20.2641025186,-28.8388498127,0 20.2584832907,-28.8394747674,0 20.2572253346,-28.8396343589,0 20.2568310499,-28.8396652043,0 20.2561591566,-28.8397537172,0 20.2552968264,-28.8398315012,0 20.253714323,-28.840008527,0 20.2529163659,-28.8401144743,0 20.2521237731,-28.8401895761,0 20.2509409189,-28.8403236866,0 20.2500423789,-28.8404242694,0 20.2487656474,-28.8405650854,0 20.2480132878,-28.8406616449,0 20.2473816276,-28.8407179713,0 20.2467043698,-28.8408078253,0 20.2466011047,-28.8408198953,0 20.2450212836,-28.8409808278,0 20.2414700389,-28.8413751125,0 20.2388951182,-28.8416674733,0 20.2361485362,-28.841971904,0 20.2349576354,-28.842099309,0 20.2321386337,-28.8424412906,0 20.2321265638,-28.8424426317,0 20.2313634753,-28.8425123692,0 20.2297380567,-28.8426867127,0 20.2282467484,-28.8428556919,0 20.2261613309,-28.8430944085,0 20.2242985368,-28.843306303,0 20.2215640247,-28.843626827,0 20.2203771472,-28.843730092,0 20.218590796,-28.8439312577,0 20.2169814706,-28.8441056013,0 20.2153131366,-28.8442933559,0 20.2136716247,-28.8444770873,0 20.2122554183,-28.8446460664,0 20.2110913396,-28.8447734714,0 20.2091977,-28.8449800014,0 20.2075991035,-28.8451530039,0 20.2059951425,-28.8453367352,0 20.2048847079,-28.8454641402,0 20.2013482153,-28.8458651304,0 20.1985064149,-28.8461588323,0 20.196044147,-28.8464404643,0 20.1944066584,-28.8466376066,0 20.1935108006,-28.8467234373,0 20.1935014129,-28.8467234373,0 20.1895035803,-28.8471780717,0 20.1867355406,-28.847489208,0 20.1837274432,-28.8477426767,0 20.1822307706,-28.8478513062,0 20.180337131,-28.8480015099,0 20.1791100204,-28.848104775,0 20.1762762666,-28.8483287394,0 20.1739118993,-28.848503083,0 20.1727169752,-28.8485915959,0 20.1678447425,-28.8489550352,0 20.1665546,-28.8490475714,0 20.1649640501,-28.8491562009,0 20.1625004411,-28.8493493199,0 20.1596908271,-28.8495571911,0 20.1580452919,-28.8496671617,0 20.1577234268,-28.8497060537,0 20.1576188207,-28.8497060537,0 20.1557251811,-28.8498495519,0 20.1548400521,-28.8499340415,0 20.1539897919,-28.8500185311,0 20.153734982,-28.8500466943,0 20.1536008716,-28.8500614464,0 20.1529920101,-28.8501231372,0 20.1523831487,-28.8502022624,0 20.1518467069,-28.850261271,0 20.1512700319,-28.8503243029,0 20.1502293348,-28.8504584134,0 20.1498511434,-28.8505013287,0 20.1493120193,-28.8505683839,0 20.1485958695,-28.8506488502,0 20.1473070681,-28.8508030772,0 20.1455327868,-28.8510149717,0 20.1439395547,-28.8511960208,0 20.1421156526,-28.8514146209,0 20.1414692402,-28.8514897227,0 20.1407584548,-28.8515742123,0 20.1397231221,-28.8516962528,0 20.1382479072,-28.8518679142,0 20.1364642382,-28.8520798087,0 20.1348146796,-28.8522702456,0 20.133253634,-28.8524526358,0 20.1316979527,-28.8526310027,0 20.1306009293,-28.8527677953,0 20.129404664,-28.8529139757,0 20.1285409927,-28.8530145586,0 20.1278784871,-28.8530990481,0 20.1273983717,-28.853148669,0 20.126966536,-28.853199631,0 20.1253706217,-28.8533833623,0 20.1242762804,-28.8535147905,0 20.1232838631,-28.8536341488,0 20.1223906875,-28.8537360728,0 20.1214680076,-28.8538487256,0 20.1197728515,-28.8540525734,0 20.1190084219,-28.8541397452,0 20.1182332635,-28.8542295992,0 20.1172354817,-28.854342252,0 20.1162524521,-28.8544696569,0 20.1151621342,-28.8545930386,0 20.114172399,-28.8547056913,0 20.113440156,-28.8547928631,0 20.1115988195,-28.855008781,0 20.1108169556,-28.8550999761,0 20.1096501946,-28.8552367687,0 20.1088777184,-28.855330646,0 20.1079550385,-28.8554339111,0 20.1065871119,-28.8555935025,0 20.1056939363,-28.8557088375,0 20.1051199436,-28.8557718694,0 20.1033335924,-28.8559770584,0 20.1025772095,-28.8560709357,0 20.0996951759,-28.8564263284,0 20.0991037488,-28.8564866781,0 20.0985552371,-28.8562533259,0 20.0984278321,-28.8562680781,0 20.0976338983,-28.8563673198,0 20.096449703,-28.8565094769,0 20.0945815444,-28.8567307591,0 20.0939150155,-28.8567978144,0 20.0924652815,-28.8569748402,0 20.0916405022,-28.8570700586,0 20.0907795131,-28.8571719825,0 20.0896275043,-28.8573141396,0 20.0879564881,-28.8575166464,0 20.0866623223,-28.8576816022,0 20.0864839554,-28.8576976955,0 20.0851294398,-28.8578478992,0 20.0820462406,-28.8582153618,0 20.0814266503,-28.8582824171,0 20.0803202391,-28.8584084809,0 20.0785674155,-28.8586056232,0 20.0773242116,-28.8587598503,0 20.0761158764,-28.8589060307,0 20.07562235,-28.8589650393,0 20.0753434002,-28.8589972258,0 20.0753434002,-28.8590092957,0 20.0753434002,-28.859052211,0 20.0753742456,-28.8592748344,0 20.0750470161,-28.8593123853,0 20.0749075413,-28.8593298197,0 20.0746151805,-28.8593660295,0 20.0738185644,-28.8594558835,0 20.0722628832,-28.8596409559,0 20.0713321567,-28.8597522676,0 20.0703021884,-28.8598689437,0 20.069425106,-28.8599748909,0 20.068051815,-28.8601371646,0 20.066973567,-28.8602645695,0 20.0658389926,-28.8604000211,0 20.0648653507,-28.8605126739,0 20.0640499592,-28.8606065512,0 20.0632855296,-28.8606964052,0 20.0619712472,-28.8608506322,0 20.0606489182,-28.8610115647,0 20.0599193573,-28.8610933721,0 20.0572009385,-28.8614192605,0 20.0549693406,-28.8616807759,0 20.0538347661,-28.8618122041,0 20.0513939559,-28.8620978594,0 20.0480371714,-28.8624840975,0 20.0471225381,-28.8625994325,0 20.044491291,-28.8629092276,0 20.0435391068,-28.8630151749,0 20.0423777103,-28.8631533086,0 20.0418171287,-28.8632123172,0 20.0411599874,-28.8632968068,0 20.0403767824,-28.863375932,0 20.0383275747,-28.8636213541,0 20.0374665856,-28.8637219369,0 20.0362408161,-28.8638667762,0 20.0354576111,-28.8639566302,0 20.0320726633,-28.8643535972,0 20.0312559307,-28.8644528389,0 20.0257265568,-28.8650938869,0 20.0240474939,-28.8652977347,0 20.0224247575,-28.8654881716,0 20.0193804502,-28.8658516109,0 20.0175914168,-28.8660675287,0 20.0165131688,-28.8661761582,0 20.0147134066,-28.8663826883,0 20.0133106112,-28.8665503263,0 20.0124925375,-28.8666509092,0 20.0098854303,-28.8669513166,0 20.0083619356,-28.8671296835,0 20.005095005,-28.8675132394,0 20.0038987398,-28.8676473498,0 20.0025200844,-28.8678082824,0 20.0017610192,-28.8679021597,0 20.0009509921,-28.8679946959,0 19.9998861551,-28.8681194186,0 19.997933507,-28.8683474064,0 19.9973246455,-28.8684171438,0 19.9930183589,-28.8689254224,0 19.9927085638,-28.8689616323,0 19.9918824434,-28.8690528274,0 19.9898707867,-28.8692861795,0 19.9888890982,-28.8694015145,0 19.9875506759,-28.8695584238,0 19.9863544106,-28.8696992397,0 19.985281527,-28.8698239625,0 19.9775983393,-28.8707318902,0 19.9761807919,-28.8708901405,0 19.9745124578,-28.8710859418,0 19.9737560749,-28.8711704314,0 19.972782433,-28.8712857664,0 19.9719080329,-28.8713930547,0 19.971165061,-28.871473521,0 19.9699634314,-28.8716170192,0 19.9687108397,-28.8717618585,0 19.9675869942,-28.8718892634,0 19.9668493867,-28.8719764352,0 19.9657148123,-28.8721051812,0 19.964132309,-28.8722956181,0 19.9630406499,-28.8724216819,0 19.9618953466,-28.8725611567,0 19.960873425,-28.8726751506,0 19.9588617682,-28.872911185,0 19.9585130811,-28.8729527593,0 19.957562238,-28.8730694354,0 19.9567964673,-28.8731499016,0 19.9560414255,-28.87324512,0 19.9554540217,-28.8733108342,0 19.9539211392,-28.8734838367,0 19.952006042,-28.8737118244,0 19.9493533373,-28.8740243018,0 19.9459764361,-28.8744132221,0 19.943959415,-28.8746505976,0 19.9426263571,-28.8748088479,0 19.9420174956,-28.874874562,0 19.9401587248,-28.8750877976,0 19.9378868937,-28.8753560185,0 19.937055409,-28.8754498959,0 19.9364116788,-28.8755249977,0 19.9338448048,-28.8758254051,0 19.9321952462,-28.8760212064,0 19.9314254522,-28.8761030138,0 19.9304839969,-28.8762170076,0 19.9300441146,-28.8762666285,0 19.9294164777,-28.876349777,0 19.9286493659,-28.8764476776,0 19.9281692505,-28.8765187562,0 19.9276435375,-28.8765978813,0 19.9265170097,-28.8767722249,0 19.9251946807,-28.8769881427,0 19.9244356155,-28.8771182299,0 19.9234271049,-28.8772764802,0 19.9226358533,-28.8774199784,0 19.9206215143,-28.8777512312,0 19.9183644354,-28.878121376,0 19.917716682,-28.8782206178,0 19.9174122512,-28.8782675564,0 19.9153026938,-28.8786242902,0 19.913842231,-28.8788683712,0 19.9129624665,-28.8790078461,0 19.9111117423,-28.8793055713,0 19.9095641077,-28.8795362413,0 19.9072037637,-28.8797615469,0 19.9048702419,-28.8799265027,0 19.9026748538,-28.880045861,0 19.9008898437,-28.8801383972,0 19.8993824422,-28.8802309334,0 19.897621572,-28.8803167641,0 19.8955991864,-28.8804294169,0 19.8945316672,-28.8804803789,0 19.8935928941,-28.880546093,0 19.8927131295,-28.8806118071,0 19.8918642104,-28.8807190955,0 19.8861886561,-28.8818536699,0 19.8857071996,-28.8819971681,0 19.8834165931,-28.8826972246,0 19.8811541498,-28.8834013045,0 19.8782399297,-28.8842757046,0 19.8775961995,-28.8844875991,0 19.8746082187,-28.8853941858,0 19.8724141717,-28.8860620558,0 19.8717838526,-28.8862538338,0 19.869786948,-28.8868747652,0 19.8681011796,-28.8873843849,0 19.8587188125,-28.8902530074,0 19.8576740921,-28.8905708492,0 19.8510101438,-28.8926066458,0 19.8502899706,-28.8928386569,0 19.8482327163,-28.8934595883,0 19.8405683041,-28.895791769,0 19.8383702338,-28.8964609802,0 19.8302029073,-28.89898628,0 19.8280933499,-28.8996353745,0 19.8256471753,-28.9003756642,0 19.8190838099,-28.9023591578,0 19.818559438,-28.9025174081,0 19.8178258538,-28.9027494192,0 19.8152925074,-28.9035286009,0 19.8141995072,-28.9038652182,0 19.8104390502,-28.9050158858,0 19.8086419702,-28.9055590332,0 19.8068770766,-28.9060941339,0 19.8047541082,-28.9067418873,0 19.802274406,-28.9074996114,0 19.8011854291,-28.9078241587,0 19.7999341786,-28.9082238078,0 19.7986024618,-28.9086301625,0 19.7947749496,-28.9097821712,0 19.7895231843,-28.9114075899,0 19.7893850505,-28.9114491642,0 19.7871507704,-28.9121250808,0 19.7870206833,-28.9121639729,0 19.7854797542,-28.9126454294,0 19.7848454118,-28.9128439128,0 19.7841118276,-28.9131215215,0 19.7835499048,-28.9133736491,0 19.7828096151,-28.9137893915,0 19.7820693254,-28.9142788947,0 19.7815865278,-28.914642334,0 19.7810970247,-28.915105015,0 19.7806611657,-28.9155288041,0 19.7793120146,-28.9168645442,0 19.7757473588,-28.9204667509,0 19.7750043869,-28.9211654663,0 19.7731885314,-28.9230121672,0 19.7702005506,-28.9260470867,0 19.7680722177,-28.9281767607,0 19.7674968839,-28.9287520945,0 19.7656917572,-28.9305505157,0 19.762583077,-28.9336377382,0 19.7604547441,-28.9358063042,0 19.7587689757,-28.9374987781,0 19.7577282786,-28.9385126531,0 19.7572186589,-28.9390383661,0 19.7567358613,-28.9395037293,0 19.7555449605,-28.9406906068,0 19.7544881701,-28.9417514205,0 19.753049165,-28.943233341,0 19.7523356974,-28.9439454675,0 19.7510388494,-28.9452208579,0 19.7499592602,-28.946300447,0 19.7493276,-28.9469334483,0 19.7479730844,-28.9482960105,0 19.7447034717,-28.9515857399,0 19.7425107658,-28.9537771046,0 19.7413600981,-28.9549465477,0 19.7392237186,-28.9570762217,0 19.7384633124,-28.9578621089,0 19.7377230227,-28.9585836232,0 19.7320622206,-28.9642511308,0 19.7310563922,-28.9652636647,0 19.7290340066,-28.9672914147,0 19.7273012996,-28.9690227807,0 19.7247250378,-28.9716084301,0 19.7234751284,-28.9728569984,0 19.7228528559,-28.9734591544,0 19.7213588655,-28.9748606086,0 19.7213441133,-28.9748740196,0 19.7195604444,-28.9764538407,0 19.718542546,-28.9773537219,0 19.7171732783,-28.9784909785,0 19.7147673368,-28.9805200696,0 19.7132197022,-28.9818423986,0 19.7125920653,-28.9823560417,0 19.7119536996,-28.9828911424,0 19.7113797069,-28.9833833277,0 19.7109666467,-28.9837306738,0 19.7103926539,-28.9842094481,0 19.7091266513,-28.9852742851,0 19.7085258365,-28.9857812226,0 19.7068735957,-28.9871706069,0 19.7040089965,-28.9896114171,0 19.7015963495,-28.9916472137,0 19.7011403739,-28.9920173585,0 19.7008627653,-28.9922480285,0 19.6922796965,-29.000184685,0 19.692260921,-29.0002048016,0 19.6916225553,-29.0009276569,0 19.6911558509,-29.0014573932,0 19.6906931698,-29.0019415319,0 19.6900883317,-29.0025597811,0 19.6895250678,-29.003085494,0 19.6889068186,-29.0036165714,0 19.6883878112,-29.0040054917,0 19.6877548099,-29.0044748783,0 19.6873900294,-29.0047229826,0 19.6871191263,-29.0049013495,0 19.6514765918,-29.0220299363,0 19.650465399,-29.0225020051,0 19.6424241364,-29.0263469517,0 19.6392175555,-29.027890563,0 19.638337791,-29.0282955766,0 19.6340730786,-29.0303085744,0 19.6331825852,-29.0307484567,0 19.6322947741,-29.031137377,0 19.6311990917,-29.0315584838,0 19.6301007271,-29.0319098532,0 19.6285638213,-29.0323993564,0 19.6246317029,-29.033575505,0 19.6243956685,-29.0336465836,0 19.5831687748,-29.0512995422,0 19.5830346644,-29.0513625741,0 19.5806126297,-29.0524958074,0 19.5804020762,-29.0526178479,0 19.5775012672,-29.0539817512,0 19.5740881562,-29.0556111932,0 19.5696973801,-29.0576818585,0 19.5684018731,-29.058316201,0 19.5653495193,-29.0597605705,0 19.5630428195,-29.0608522296,0 19.5601782203,-29.0622268617,0 19.5582966506,-29.0631012619,0 19.5560181141,-29.0641821921,0 19.5525969565,-29.0658062696,0 19.5503425598,-29.066876471,0 19.5483376086,-29.067812562,0 19.5478239655,-29.0680727363,0 19.5463071764,-29.0687942505,0 19.5432212949,-29.0702815354,0 19.5400509238,-29.0717822313,0 19.5357754827,-29.0738005936,0 19.5262911916,-29.0783134103,0 19.5249138772,-29.0789571404,0 19.5231556892,-29.079798013,0 19.5229022205,-29.0799187124,0 19.5206692815,-29.0809848905,0 19.5194274187,-29.0817090869,0 19.5184256136,-29.0823380649,0 19.5176504552,-29.0828986466,0 19.5168095827,-29.0836000443,0 19.5158265531,-29.0844891965,0 19.5146034658,-29.0855902433,0 19.511474669,-29.0885272622,0 19.5108698308,-29.0890663862,0 19.5097473264,-29.0901218355,0 19.5084424317,-29.0913408995,0 19.5070248842,-29.0913945436,0 19.5068089664,-29.0916842222,0 19.5059372485,-29.0926806629,0 19.5027682185,-29.0951026976,0 19.4995200634,-29.0974965692,0 19.4992129505,-29.0976937115,0 19.4988454878,-29.097880125,0 19.4984833896,-29.0980316699,0 19.4982393086,-29.0981309116,0 19.4972804189,-29.0984621644,0 19.4941408932,-29.0993969142,0 19.4896227121,-29.1007071733,0 19.4844567776,-29.102178365,0 19.4830271602,-29.102588743,0 19.4823056459,-29.1035301983,0 19.4811885059,-29.1038399935,0 19.4769009948,-29.1050644219,0 19.4730399549,-29.106169492,0 19.471116811,-29.1067193449,0 19.4710819423,-29.1067287326,0 19.4693854451,-29.1072168946,0 19.4684869051,-29.1074851155,0 19.4677144289,-29.1076809168,0 19.4668078423,-29.107876718,0 19.4658154249,-29.1080054641,0 19.4652628899,-29.1080322862,0 19.4651770592,-29.1080363095,0 19.4639754295,-29.108004123,0 19.4626034796,-29.1078566015,0 19.4602578878,-29.1075387597,0 19.4584017992,-29.1072973609,0 19.4572873414,-29.1071847081,0 19.4556780159,-29.1071163118,0 19.454292655,-29.1071498394,0 19.4534276426,-29.1072155535,0 19.4522836804,-29.1073429585,0 19.4510565698,-29.1075468063,0 19.4500225782,-29.1077774763,0 19.449095875,-29.1080215573,0 19.4477185607,-29.108466804,0 19.4467449188,-29.1088369489,0 19.444758743,-29.1097059846,0 19.4421757758,-29.1108714044,0 19.438187331,-29.1126510501,0 19.4342659414,-29.1143998504,0 19.4341532886,-29.1144508123,0 19.4314214587,-29.1156752408,0 19.4291764498,-29.116666317,0 19.4271701574,-29.1175661981,0 19.4239890575,-29.1189743578,0 19.4235800207,-29.1191607714,0 19.4209098816,-29.12034899,0 19.4205035269,-29.1205327213,0 19.4188418984,-29.1212770343,0 19.4172164798,-29.1220025718,0 19.4166384637,-29.1222627461,0 19.41626966,-29.122427702,0 19.4160041213,-29.1225470603,0 19.4149205089,-29.1230338812,0 19.4138208032,-29.1235166788,0 19.4136022031,-29.1236132383,0 19.4133755565,-29.1237138212,0 19.4128927588,-29.1238828003,0 19.4118627906,-29.1242623329,0 19.4109615684,-29.124519825,0 19.4104519486,-29.1246512532,0 19.4096258283,-29.1248470545,0 19.4089123607,-29.1249784827,0 19.4082686305,-29.1250817478,0 19.4075927138,-29.1251756251,0 19.406863153,-29.1252453625,0 19.4064769149,-29.1252748668,0 19.4062891603,-29.1252882779,0 19.4058546424,-29.1253016889,0 19.4049212337,-29.1253352165,0 19.4042721391,-29.1253298521,0 19.4038751721,-29.1253204644,0 19.4031241536,-29.1253110766,0 19.4023275375,-29.1252976656,0 19.4018259645,-29.1252882779,0 19.4014316797,-29.1252815723,0 19.4009247422,-29.1252735257,0 19.4005438685,-29.1252601147,0 19.399933666,-29.1252399981,0 19.3995514512,-29.1252265871,0 19.3992979825,-29.1252292693,0 19.3982385099,-29.1252359748,0 19.3977503479,-29.1252265871,0 19.396622479,-29.1251850128,0 19.3954315782,-29.1251716018,0 19.3944713473,-29.1251716018,0 19.3932898343,-29.1251528263,0 19.3924435973,-29.125135392,0 19.3916456401,-29.1251192987,0 19.3908503652,-29.1251005232,0 19.3899330497,-29.125109911,0 19.3893000484,-29.125162214,0 19.388897717,-29.125213176,0 19.3885222077,-29.1252735257,0 19.3880863488,-29.1253660619,0 19.3878516555,-29.1254143417,0 19.3866285682,-29.1256959736,0 19.3858708441,-29.1258595884,0 19.3837693334,-29.1263517737,0 19.3835172057,-29.1264027357,0 19.3813607097,-29.1268908978,0 19.3798211217,-29.1272422671,0 19.3782868981,-29.1275936365,0 19.3775090575,-29.1277720034,0 19.3773642182,-29.1278041899,0 19.3762859702,-29.1280522943,0 19.3749019504,-29.1283580661,0 19.3722304702,-29.1289615631,0 19.3689849973,-29.1297018528,0 19.3659594655,-29.1303965449,0 19.3636152148,-29.1309209168,0 19.3610027432,-29.1315163672,0 19.3593786657,-29.1318824887,0 19.3590071797,-29.1319656372,0 19.3583312631,-29.1321198642,0 19.3579879403,-29.1321949661,0 19.3573495746,-29.1323076189,0 19.3568667769,-29.1323679686,0 19.3562230468,-29.1324484348,0 19.3557187915,-29.1325047612,0 19.3552467227,-29.1325423121,0 19.3547102809,-29.1325704753,0 19.3540236354,-29.1325892508,0 19.3533906341,-29.1325986385,0 19.3525323272,-29.1325744987,0 19.3509069085,-29.1325087845,0 19.3489985168,-29.1324108839,0 19.3407091498,-29.1320984066,0 19.3396577239,-29.1320595145,0 19.3283602595,-29.131591469,0 19.3280263245,-29.131578058,0 19.324927032,-29.1314600408,0 19.3218800426,-29.1313326359,0 19.3190744519,-29.1312199831,0 19.3173363805,-29.1311502457,0 19.3156895041,-29.131089896,0 19.3149116635,-29.1310563684,0 19.3117144704,-29.1309209168,0 19.3108280003,-29.1308873892,0 19.3089410663,-29.1308176517,0 19.3058350682,-29.1306822002,0 19.3038824201,-29.1306070983,0 19.302944988,-29.1305668652,0 19.3029087782,-29.1304475069,0 19.3028363585,-29.1303858161,0 19.3027344346,-29.1303294897,0 19.3026123941,-29.1303040087,0 19.3002547324,-29.130165875,0 19.2978742719,-29.1300478578,0 19.2949345708,-29.1299311817,0 19.29239586,-29.1298131645,0 19.2920766771,-29.1297957301,0 19.2915187776,-29.1297742724,0 19.2912921309,-29.1297675669,0 19.2910507321,-29.1297233105,0 19.2909139395,-29.1296884418,0 19.2908388376,-29.1296441853,0 19.2907315493,-29.1295596957,0 19.2905585468,-29.129421562,0 19.2901360989,-29.1293612123,0 19.2898759246,-29.1293786466,0 19.2895500362,-29.1294591129,0 19.2895339429,-29.1294457018,0 19.2893877625,-29.1292726994,0 19.2891919613,-29.1290621459,0 19.2891101539,-29.1289682686,0 19.2874525487,-29.1299325228,0 19.2838194966,-29.1297782958,0 19.2799142003,-29.1296321154,0 19.2764809728,-29.1294912994,0 19.2739543319,-29.1293880343,0 19.2705962062,-29.1292431951,0 19.2687776685,-29.1291774809,0 19.2675867677,-29.1291211545,0 19.2665179074,-29.1290795803,0 19.2647060752,-29.1290085018,0 19.2616322637,-29.1288864613,0 19.2584243417,-29.1287563741,0 19.2552432418,-29.1286249459,0 19.2530934513,-29.1285122931,0 19.2491827905,-29.1283594072,0 19.2441885173,-29.1281636059,0 19.2410221696,-29.128036201,0 19.2398446798,-29.1279825568,0 19.2375031114,-29.1278752685,0 19.2369908094,-29.1278591752,0 19.235098511,-29.1277961433,0 19.2316934466,-29.1276405752,0 19.2296764255,-29.12756145,0 19.2219530046,-29.1272570193,0 19.2180490494,-29.1271041334,0 19.2146600783,-29.1269485652,0 19.2132881284,-29.1268855333,0 19.2104771733,-29.1267836094,0 19.2074851692,-29.1266562045,0 19.2056934536,-29.1265811026,0 19.2005476356,-29.1263692081,0 19.1968300939,-29.12621364,0 19.193123281,-29.1260607541,0 19.191853255,-29.1260017455,0 19.1902533174,-29.125944078,0 19.1885903478,-29.1258649528,0 19.1877427697,-29.1258555651,0 19.1870574653,-29.1258877516,0 19.1861629486,-29.1259481013,0 19.1851866245,-29.1260701418,0 19.1845026612,-29.1261787713,0 19.1838240623,-29.1263262928,0 19.1830596328,-29.1265247762,0 19.1812679172,-29.1271483898,0 19.1799469292,-29.1276338696,0 19.1776174307,-29.1284760833,0 19.1750022769,-29.1294229031,0 19.1740876436,-29.1297528148,0 19.1732212901,-29.1300666332,0 19.1693334281,-29.1314801574,0 19.1666337848,-29.1324551404,0 19.1633400321,-29.13365677,0 19.157358706,-29.1358239949,0 19.1535446048,-29.1372442245,0 19.1522142291,-29.13772434,0 19.1520667076,-29.137776643,0 19.1492316127,-29.1387824714,0 19.1415350139,-29.1415974498,0 19.1358621418,-29.1436828673,0 19.1291888058,-29.1461022198,0 19.1231712699,-29.1482788324,0 19.1216947138,-29.1488085687,0 19.1193974018,-29.149658829,0 19.1192257404,-29.1497191787,0 19.1173039377,-29.1504071653,0 19.1121983528,-29.1522806883,0 19.1117249429,-29.1524536908,0 19.1104924679,-29.152905643,0 19.1090480983,-29.153405875,0 19.1072483361,-29.1540724039,0 19.1070793569,-29.1541354358,0 19.1055598855,-29.1546826065,0 19.1054566205,-29.1547201574,0 19.1039009392,-29.155279398,0 19.1029004753,-29.1556575894,0 19.1016384959,-29.1560934484,0 19.1005428135,-29.1563898325,0 19.0994256735,-29.1566513479,0 19.0984775126,-29.1568739712,0 19.0961372852,-29.1574452817,0 19.0940612555,-29.1578999162,0 19.0919731557,-29.1583921015,0 19.0884205699,-29.1591994464,0 19.0859341621,-29.1597801447,0 19.083532244,-29.1603420675,0 19.0822421014,-29.1606652737,0 19.0807253122,-29.1609831154,0 19.07757774,-29.1617073119,0 19.0752241015,-29.1622638702,0 19.073176235,-29.1627372801,0 19.0709245205,-29.1632549465,0 19.0705946088,-29.1633300483,0 19.0704470873,-29.163364917,0 19.0686580539,-29.1637846828,0 19.065476954,-29.1644994915,0 19.0630790591,-29.1652035713,0 19.0618975461,-29.1656541824,0 19.0608219802,-29.1661369801,0 19.0575778484,-29.1678079963,0 19.0532179177,-29.170036912,0 19.0493555367,-29.1720338166,0 19.0477287769,-29.1728666425,0 19.0456138551,-29.1739502549,0 19.0434546769,-29.1750781238,0 19.0405149758,-29.1765546799,0 19.0378394723,-29.1779601574,0 19.0366995335,-29.1785046458,0 19.0337182581,-29.1800509393,0 19.0305572748,-29.1816951334,0 19.0291276574,-29.1823858023,0 19.0277154744,-29.1829490662,0 19.0247476101,-29.1840460896,0 19.0234534442,-29.1844806075,0 19.020639807,-29.1855119169,0 19.0188011527,-29.1862079501,0 19.0158775449,-29.1872245073,0 19.0129539371,-29.1882799566,0 19.0074808896,-29.1902714968,0 19.0051312745,-29.1911257803,0 19.0023122728,-29.1921584308,0 18.9971530437,-29.1940721869,0 18.9868533611,-29.1977977753,0 18.9845761657,-29.1986051202,0 18.9819355309,-29.199565351,0 18.9807245135,-29.2000213265,0 18.9767548442,-29.2014509439,0 18.9765577018,-29.2015220225,0 18.9752595127,-29.2019927502,0 18.9733095467,-29.2026981711,0 18.9726242423,-29.2029462755,0 18.9701499045,-29.2038327456,0 18.9667488635,-29.2050719261,0 18.9612556994,-29.2070889473,0 18.9593553543,-29.2077688873,0 18.9588859677,-29.2079365253,0 18.9584554732,-29.208086729,0 18.9571814239,-29.2085333169,0 18.9539520442,-29.20970276,0 18.9490382373,-29.2114837468,0 18.9481638372,-29.2117962241,0 18.9471164346,-29.2121703923,0 18.9456640184,-29.2126880586,0 18.942989856,-29.213668406,0 18.9400997758,-29.2147131264,0 18.9314348996,-29.217851311,0 18.9300052822,-29.2183797061,0 18.9289471507,-29.2187511921,0 18.9272667468,-29.2193600535,0 18.9255461097,-29.2199957371,0 18.9227512479,-29.2209854722,0 18.9210319519,-29.2216238379,0 18.919403851,-29.2222192883,0 18.9182692766,-29.222612232,0 18.9181043208,-29.222676605,0 18.9176671207,-29.222844243,0 18.9161476493,-29.2234504223,0 18.9156983793,-29.2237012088,0 18.9147314429,-29.2242403328,0 18.9146523178,-29.2242845893,0 18.9139227569,-29.2247700691,0 18.9133420587,-29.2251978815,0 18.9128525555,-29.2255948484,0 18.9119392633,-29.2264156044,0 18.9118789136,-29.2264786363,0 18.9099007845,-29.2285600305,0 18.9074800909,-29.2310853302,0 18.9059378207,-29.2326597869,0 18.9018675685,-29.2368856072,0 18.8998679817,-29.2389240861,0 18.8954477012,-29.2434503138,0 18.894482106,-29.2444829643,0 18.8925804198,-29.2464503646,0 18.8923805952,-29.246660918,0 18.8921003044,-29.2469412088,0 18.8908007741,-29.2482890189,0 18.8872817159,-29.2519381642,0 18.8842910528,-29.255028069,0 18.8828882575,-29.2564442754,0 18.8826575875,-29.2566950619,0 18.8797983527,-29.259634763,0 18.8788998127,-29.260558784,0 18.8777478039,-29.2617698014,0 18.8769418001,-29.2626066506,0 18.8765113056,-29.2630532384,0 18.8758166134,-29.263727814,0 18.875451833,-29.2641046643,0 18.8742622733,-29.2651547492,0 18.8737714291,-29.2655342817,0 18.8730244339,-29.2660841346,0 18.8720320165,-29.2667117715,0 18.871152252,-29.2672213912,0 18.8702054322,-29.2676907778,0 18.8689689338,-29.2682607472,0 18.8681615889,-29.2686375976,0 18.8674990833,-29.2689326406,0 18.8660185039,-29.2695897818,0 18.8660922647,-29.2697654665,0 18.8621360064,-29.2715652287,0 18.8582038879,-29.2732603848,0 18.8538211584,-29.2752237618,0 18.8492748141,-29.2772501707,0 18.8450503349,-29.2791505158,0 18.8402947783,-29.2812734842,0 18.8401325047,-29.2813485861,0 18.8370841742,-29.282759428,0 18.8368239999,-29.2828720808,0 18.8367193937,-29.2829431593,0 18.8366577029,-29.2830356956,0 18.8363935053,-29.2832113802,0 18.8361668587,-29.2833039165,0 18.8357953727,-29.2834621668,0 18.8356344402,-29.2835144699,0 18.8346648216,-29.2839811742,0 18.8329522312,-29.2849695683,0 18.8328932226,-29.2850030959,0 18.8293513656,-29.2869544029,0 18.8265390694,-29.2885999382,0 18.8264384866,-29.2886710167,0 18.8263244927,-29.2887997627,0 18.8262078166,-29.2888842523,0 18.8260495663,-29.2889472842,0 18.8258685172,-29.2890049517,0 18.8257344067,-29.2890518904,0 18.8255131245,-29.2891484499,0 18.8251027465,-29.2893952131,0 18.824994117,-29.2894528806,0 18.8226793706,-29.2907765508,0 18.8212966919,-29.2915718257,0 18.8211719692,-29.291638881,0 18.8209748268,-29.2916938663,0 18.8208822906,-29.2917434871,0 18.820643574,-29.2918990552,0 18.8185635209,-29.2930832505,0 18.8143819571,-29.2954020202,0 18.8135142624,-29.2958794534,0 18.8126344979,-29.2963702977,0 18.8095673919,-29.2980614305,0 18.8070313632,-29.2994776368,0 18.8065981865,-29.2997190356,0 18.8051752746,-29.3005008996,0 18.8036812842,-29.3013471365,0 18.8009749353,-29.302854538,0 18.7998940051,-29.3034660816,0 18.7985086441,-29.3042653799,0 18.7983825803,-29.3043243885,0 18.7982578576,-29.3043498695,0 18.7981063128,-29.3043874204,0 18.797956109,-29.3044625223,0 18.797813952,-29.3045510352,0 18.7977348268,-29.304651618,0 18.7976959348,-29.3047428131,0 18.7976838648,-29.3048098683,0 18.7976463139,-29.3048554659,0 18.7975296378,-29.3049104512,0 18.7971313298,-29.3050029874,0 18.7969301641,-29.3050566316,0 18.7966834009,-29.305165261,0 18.795465678,-29.3058612943,0 18.7951800227,-29.3060195446,0 18.7950633466,-29.3061161041,0 18.7949922681,-29.3061952293,0 18.7949211895,-29.3062542379,0 18.7948581576,-29.3062797189,0 18.7947160006,-29.3063051999,0 18.7945188582,-29.3063923717,0 18.7912157178,-29.3082135916,0 18.789499104,-29.3091845512,0 18.7865687907,-29.3107965589,0 18.7846845388,-29.3118681014,0 18.7845303118,-29.3119941652,0 18.7844592333,-29.312069267,0 18.7843291461,-29.3121698499,0 18.7841829658,-29.3122449517,0 18.7841239572,-29.3122529984,0 18.7840461731,-29.3122543395,0 18.7839107215,-29.312286526,0 18.7837350368,-29.3123576045,0 18.783249557,-29.3126218021,0 18.7828847766,-29.3128605187,0 18.7785060704,-29.3152973056,0 18.7743070722,-29.3176415563,0 18.7717026472,-29.3190778792,0 18.7715940177,-29.3191610277,0 18.7713257968,-29.3194212019,0 18.7711715698,-29.3195459247,0 18.7710253894,-29.3196424842,0 18.7709583342,-29.3196639419,0 18.7708577514,-29.3196679652,0 18.7708067894,-29.3196585774,0 18.7707491219,-29.3196760118,0 18.7706646323,-29.3197390437,0 18.7704688311,-29.3198812008,0 18.7702971697,-29.3199522793,0 18.7701590359,-29.3200448155,0 18.7700249255,-29.320178926,0 18.7699323893,-29.3202325702,0 18.7697312236,-29.3202835321,0 18.7694214284,-29.3203666806,0 18.7691827118,-29.3204793334,0 18.7674325705,-29.3214382231,0 18.7672609091,-29.3216058612,0 18.7670812011,-29.3217480183,0 18.766939044,-29.321860671,0 18.7667298317,-29.3219491839,0 18.7664200366,-29.3220993876,0 18.7658715248,-29.3223971128,0 18.7647289038,-29.3230502307,0 18.764192462,-29.3233600259,0 18.7641173601,-29.3233935535,0 18.7640798092,-29.3234525621,0 18.7640047073,-29.3235772848,0 18.7638960779,-29.3236282468,0 18.7637579441,-29.3236577511,0 18.763653338,-29.3236577511,0 18.7635272741,-29.3236859143,0 18.7632925808,-29.3238294125,0 18.7632134557,-29.32387501,0 18.7631504238,-29.3239420652,0 18.7630753219,-29.3239876628,0 18.7629827857,-29.3240050972,0 18.7628446519,-29.3240681291,0 18.76166448,-29.324658215,0 18.7615558505,-29.3247373402,0 18.7615008652,-29.3248298764,0 18.7614552677,-29.3249250948,0 18.761279583,-29.3253716826,0 18.7594516575,-29.3255071342,0 18.7582661211,-29.3261052668,0 18.7579093874,-29.3262836337,0 18.7563148141,-29.327057451,0 18.7555678189,-29.3274356425,0 18.7546008825,-29.3278647959,0 18.7539799511,-29.3281826377,0 18.7505453825,-29.3298764527,0 18.7495730817,-29.3303592503,0 18.747754544,-29.3312457204,0 18.7452466786,-29.3324768543,0 18.7450937927,-29.3325358629,0 18.7439498305,-29.333113879,0 18.7436655164,-29.3332573771,0 18.7418456376,-29.3341237307,0 18.7395308912,-29.3352422118,0 18.7390400469,-29.3354742229,0 18.7375661731,-29.336168915,0 18.7361097336,-29.3368904293,0 18.7357261777,-29.3370822072,0 18.7343971431,-29.3377366662,0 18.7337091565,-29.338067919,0 18.7335763872,-29.3381202221,0 18.7312535942,-29.3392319977,0 18.729646951,-29.3400192261,0 18.7275025249,-29.3410840631,0 18.7237246335,-29.3429562449,0 18.722832799,-29.3433666229,0 18.722217232,-29.3436576426,0 18.7206360698,-29.344432801,0 18.7186311185,-29.3453983963,0 18.7168984115,-29.3462379277,0 18.7147405744,-29.3472772837,0 18.7131473422,-29.3480443954,0 18.7112537026,-29.3489362299,0 18.7104812264,-29.3493278325,0 18.7093158066,-29.3498978019,0 18.7072317302,-29.3509022892,0 18.7046782672,-29.3521669507,0 18.7021583319,-29.3533833325,0 18.7006160617,-29.3541316688,0 18.6991140246,-29.354853183,0 18.6976589262,-29.3555478752,0 18.6959128082,-29.3563941121,0 18.6938676238,-29.3573798239,0 18.6922676861,-29.3581603467,0 18.6901500821,-29.3591997027,0 18.6883972585,-29.3600593507,0 18.6868885159,-29.3608009815,0 18.6860355735,-29.3612167239,0 18.6841499805,-29.3621233106,0 18.6825084686,-29.3629172444,0 18.6812920868,-29.3635126948,0 18.6766076088,-29.3657818437,0 18.6754569411,-29.3663451076,0 18.6747421324,-29.3666951358,0 18.6727438867,-29.3676607311,0 18.6715006828,-29.3682561815,0 18.6700308323,-29.3689911067,0 18.6687044799,-29.3696375191,0 18.6682914197,-29.3698373437,0 18.6668886244,-29.3705199659,0 18.6654134095,-29.371240139,0 18.6632099748,-29.3722996116,0 18.6619131267,-29.3729138374,0 18.6602729559,-29.3736957014,0 18.6593274772,-29.374178499,0 18.6585858464,-29.3745285273,0 18.6567726731,-29.3754082918,0 18.6557480693,-29.3758991361,0 18.6549071968,-29.376321584,0 18.6534789205,-29.3770162761,0 18.6528298259,-29.3773341179,0 18.6493174732,-29.3790279329,0 18.6475244164,-29.3799009919,0 18.6473460495,-29.3799801171,0 18.6454738677,-29.3808665872,0 18.6446839571,-29.3812555075,0 18.6436539888,-29.3817597628,0 18.6424362659,-29.3823431432,0 18.6414250731,-29.3828514218,0 18.6408296227,-29.383149147,0 18.6403951049,-29.3833623827,0 18.6393477023,-29.3838773668,0 18.6389574409,-29.3840557337,0 18.6363570392,-29.3853203952,0 18.6351071298,-29.3859225512,0 18.634826839,-29.3860593438,0 18.6331678927,-29.3868680298,0 18.6307659745,-29.3880186975,0 18.6292907596,-29.3887603283,0 18.6265924573,-29.3900504708,0 18.6257784069,-29.3904541433,0 18.6247001588,-29.3909570575,0 18.6240054667,-29.3913003802,0 18.6227743328,-29.3918958306,0 18.6222191155,-29.3921546638,0 18.6207640171,-29.392888248,0 18.6198037863,-29.3933388591,0 18.6171913147,-29.394608885,0 18.6155176163,-29.3954095244,0 18.6130821705,-29.3965937197,0 18.6105488241,-29.3978315592,0 18.6084714532,-29.3988226354,0 18.605620265,-29.4002066553,0 18.6052420735,-29.4003850222,0 18.6036743224,-29.4011454284,0 18.6027556658,-29.4015960395,0 18.6007708311,-29.4025482237,0 18.6000627279,-29.4028915465,0 18.5990703106,-29.4033622742,0 18.5969996452,-29.4043546915,0 18.5952655971,-29.405221045,0 18.5949678719,-29.4053658843,0 18.5935463011,-29.4060485065,0 18.5919114947,-29.4068545103,0 18.5912369192,-29.4071656466,0 18.5887290537,-29.408390075,0 18.5864008963,-29.4095219672,0 18.5836489499,-29.4108711183,0 18.5828483105,-29.4112412632,0 18.5816372931,-29.411816597,0 18.5791039467,-29.4130946696,0 18.5779385269,-29.4136431813,0 18.5763385892,-29.4143848121,0 18.5755446553,-29.4147616625,0 18.5724815726,-29.416256994,0 18.5705557466,-29.4171823561,0 18.5686500371,-29.4181358814,0 18.5683657229,-29.4182619452,0 18.5668838024,-29.4189620018,0 18.5663218796,-29.4192409515,0 18.5640849173,-29.420312494,0 18.5624085367,-29.4211064279,0 18.5614590347,-29.4215758145,0 18.5595211387,-29.4225092232,0 18.5580781102,-29.4232106209,0 18.5577481985,-29.4233554602,0 18.5569341481,-29.4237524271,0 18.5561992228,-29.424110502,0 18.5539837182,-29.42518875,0 18.5534472764,-29.4254395366,0 18.5512371361,-29.4265244901,0 18.5490015149,-29.4276161492,0 18.5475853086,-29.4282974303,0 18.5460041463,-29.4290591776,0 18.5438543558,-29.4300837815,0 18.5420411825,-29.4309648871,0 18.5387742519,-29.4325460494,0 18.5370267928,-29.4334056973,0 18.5354456306,-29.4341728091,0 18.5336136818,-29.4350592792,0 18.5320191085,-29.4358076155,0 18.5314236581,-29.4361053407,0 18.5301791131,-29.4367142022,0 18.5277584195,-29.4378648698,0 18.5257937014,-29.438817054,0 18.524582684,-29.4394125044,0 18.5234507918,-29.4399556518,0 18.5224449635,-29.4404451549,0 18.5201825202,-29.4415301085,0 18.5175700486,-29.44279477,0 18.5162007809,-29.4434693456,0 18.5154001415,-29.443859607,0 18.5126079619,-29.445181936,0 18.5082024336,-29.4473330677,0 18.5063356161,-29.4482007623,0 18.5051728785,-29.4487908483,0 18.5047611594,-29.448979944,0 18.5007794201,-29.4509191811,0 18.4996810555,-29.4514274597,0 18.4988535941,-29.4517788291,0 18.4983372688,-29.4519907236,0 18.4977297485,-29.4522227347,0 18.4974977374,-29.4523152709,0 18.4974212945,-29.4523394108,0 18.4964717925,-29.4526518881,0 18.4960158169,-29.452791363,0 18.4918101132,-29.454049319,0 18.4781107306,-29.4581142068,0 18.476293534,-29.4586533308,0 18.4718678892,-29.4599823654,0 18.4695933759,-29.4606649876,0 18.4663304687,-29.4616439939,0 18.4651596844,-29.4619806111,0 18.4636965394,-29.4623976946,0 18.4623017907,-29.4628281891,0 18.461381793,-29.4630990922,0 18.4582918882,-29.4640190899,0 18.4561085701,-29.4646735489,0 18.4537468851,-29.4653682411,0 18.4507763386,-29.4662681222,0 18.4479385614,-29.4671224058,0 18.4433667362,-29.4684581459,0 18.4416407347,-29.4689744711,0 18.43898803,-29.4697496295,0 18.4379151464,-29.4700594246,0 18.43671754,-29.4704309106,0 18.4330134094,-29.4715225697,0 18.4297719598,-29.4724814594,0 18.4282296896,-29.472950846,0 18.4241165221,-29.474183321,0 18.4230650961,-29.4744904339,0 18.4207007289,-29.4751811028,0 18.4167847037,-29.4763585925,0 18.4149581194,-29.4768816233,0 18.413067162,-29.4774569571,0 18.4110689163,-29.4780524075,0 18.4092101455,-29.4785888493,0 18.4082499146,-29.4788731635,0 18.4064903855,-29.4794015586,0 18.4031094611,-29.4804140925,0 18.4030611813,-29.4804288447,0 18.4018193185,-29.4807909429,0 18.400939554,-29.4810564816,0 18.4000597894,-29.4813273847,0 18.3981151879,-29.4819027185,0 18.3966949582,-29.4823184609,0 18.3952438831,-29.4827435911,0 18.3925241232,-29.4835442305,0 18.3908839524,-29.4840203226,0 18.3899639547,-29.4842912257,0 18.3885356784,-29.4847217202,0 18.3875620365,-29.4850261509,0 18.386080116,-29.485475421,0 18.3860439062,-29.4854861498,0 18.3834810555,-29.4862425327,0 18.3808404207,-29.4870109856,0 18.3794188499,-29.4874146581,0 18.3764871955,-29.4883078337,0 18.3734509349,-29.4892077148,0 18.3718456328,-29.4896891713,0 18.3706721663,-29.4900405407,0 18.3677217364,-29.4909149408,0 18.365829438,-29.4914768636,0 18.3647914231,-29.4917343557,0 18.3635535836,-29.492058903,0 18.3618074656,-29.4924625754,0 18.3593854308,-29.4929856062,0 18.3585593104,-29.4931438565,0 18.3572691679,-29.4934026897,0 18.34985286,-29.4949838519,0 18.3483105898,-29.4953070581,0 18.3461742103,-29.4957442582,0 18.3421052992,-29.4965918362,0 18.3417485654,-29.4966642559,0 18.3397100866,-29.4971269369,0 18.3394794166,-29.4971738756,0 18.3391200006,-29.4972462952,0 18.3372102678,-29.4976298511,0 18.3298999071,-29.4991654158,0 18.3295686543,-29.4992378354,0 18.3268435299,-29.4998064637,0 18.3261944354,-29.4999499619,0 18.3240218461,-29.500426054,0 18.3240044117,-29.5004287362,0 18.3223038912,-29.5007734001,0 18.3189296722,-29.5014815032,0 18.3138267696,-29.5025637746,0 18.3133412898,-29.5026656985,0 18.3056688309,-29.5042750239,0 18.3049674332,-29.5044279099,0 18.3011184633,-29.5052272081,0 18.3002775908,-29.5054002106,0 18.2989954948,-29.5056778193,0 18.296521157,-29.50621292,0 18.2953704894,-29.506444931,0 18.2942734659,-29.506675601,0 18.2935720682,-29.5068150759,0 18.2925139368,-29.507047087,0 18.2916274667,-29.5072522759,0 18.2903105021,-29.5076613128,0 18.2899095118,-29.5077860355,0 18.2886582613,-29.5083358884,0 18.2877650857,-29.508793205,0 18.2869510353,-29.5092961192,0 18.2848750055,-29.5106774569,0 18.2832334936,-29.5117852092,0 18.2825267315,-29.5122787356,0 18.2812312245,-29.5131517947,0 18.2792048156,-29.5145022869,0 18.2790787518,-29.5145867765,0 18.2766607404,-29.5162001252,0 18.2762570679,-29.5164777339,0 18.2742400467,-29.5178335905,0 18.2734662294,-29.5183512568,0 18.272369206,-29.5190834999,0 18.2717844844,-29.5194777846,0 18.2682640851,-29.5218461752,0 18.263618499,-29.5249964297,0 18.26274544,-29.525578469,0 18.2625469565,-29.5257179439,0 18.2610328496,-29.5267425478,0 18.259717226,-29.5275901258,0 18.2587113976,-29.5281909406,0 18.2581830025,-29.5284363627,0 18.2572361827,-29.5288534462,0 18.2565616071,-29.5291109383,0 18.2562182844,-29.5292437077,0 18.2554645836,-29.5294810832,0 18.255007267,-29.5296004415,0 18.2542535663,-29.5297653973,0 18.2539960742,-29.529825747,0 18.25349316,-29.5299451053,0 18.2517564297,-29.5303179324,0 18.2516813278,-29.5303353667,0 18.2509732246,-29.530480206,0 18.2503791153,-29.5305928588,0 18.2487644255,-29.5309562981,0 18.2480965555,-29.5311078429,0 18.247448802,-29.5312808454,0 18.2466883957,-29.5315115154,0 18.2459534705,-29.5317837596,0 18.2451273501,-29.5321203768,0 18.2442100346,-29.5325790346,0 18.2441094518,-29.5326299965,0 18.2423271239,-29.5336519182,0 18.2423096895,-29.5336613059,0 18.2415693998,-29.5340783894,0 18.2403986156,-29.5347596705,0 18.2370123267,-29.5366975665,0 18.2363967597,-29.5370543003,0 18.2334543765,-29.5387414098,0 18.2307949662,-29.5402622223,0 18.222053647,-29.5452819765,0 18.2182891667,-29.547445178,0 18.2158577442,-29.5488587022,0 18.2157611847,-29.5489163697,0 18.2155425847,-29.5490317047,0 18.2151885331,-29.5492114127,0 18.2144334912,-29.549613744,0 18.2136194408,-29.5499919355,0 18.2126739621,-29.5503486693,0 18.2119470835,-29.5505672693,0 18.2112188637,-29.5507389307,0 18.2105442882,-29.5508649945,0 18.2097382843,-29.5509642363,0 18.2094472647,-29.5509789884,0 18.2091026008,-29.5509964228,0 18.2082697749,-29.5510165393,0 18.2078258693,-29.5510232449,0 18.2069662213,-29.5510165393,0 18.2044731081,-29.5509897172,0 18.2010734081,-29.5509441197,0 18.2000420988,-29.5509307086,0 18.1954984367,-29.5508717,0 18.194771558,-29.550858289,0 18.1930844486,-29.5508381724,0 18.190241307,-29.5507925749,0 18.1895063818,-29.5507724583,0 18.1892864406,-29.5507697761,0 18.189303875,-29.5510326326,0 18.183876425,-29.5509789884,0 18.1791704893,-29.5508569479,0 18.1740447879,-29.5507912338,0 18.1689096987,-29.5507255197,0 18.1661215425,-29.550781846,0 18.1659847498,-29.5507711172,0 18.1658881903,-29.5507456362,0 18.1658023596,-29.5507107675,0 18.1657031178,-29.5506571233,0 18.1655193865,-29.5506732166,0 18.163588196,-29.5508864522,0 18.1625756621,-29.5509977639,0 18.162291348,-29.5510366559,0 18.1599631906,-29.551307559,0 18.157761097,-29.5515663922,0 18.1554195285,-29.5518480241,0 18.1549085677,-29.5519097149,0 18.1544673443,-29.5519633591,0 18.152423501,-29.5521940291,0 18.1474372745,-29.5527626574,0 18.1468082964,-29.5528364182,0 18.1451225281,-29.5530804992,0 18.1404528022,-29.5538409054,0 18.1392498314,-29.5540393889,0 18.1369552016,-29.5544162393,0 18.1342166662,-29.5548735559,0 18.1323981285,-29.5551645756,0 18.1319743395,-29.5552302897,0 18.1296595931,-29.5556004345,0 18.1273314357,-29.5559839904,0 18.1267239153,-29.5560859144,0 18.1241047382,-29.5565204322,0 18.1238593161,-29.5565606654,0 18.1220139563,-29.5568704605,0 18.1198708713,-29.5572084188,0 18.118006736,-29.5575128496,0 18.1161077321,-29.5578293502,0 18.1146995723,-29.5580546558,0 18.112628907,-29.558391273,0 18.1125175953,-29.5584100485,0 18.1124639511,-29.5584180951,0 18.1104938686,-29.5587359369,0 18.107867986,-29.5591530204,0 18.1048585474,-29.559649229,0 18.102120012,-29.5601052046,0 18.0994619429,-29.5605356991,0 18.0977493525,-29.5608133078,0 18.094997406,-29.5612692833,0 18.0937327445,-29.5614717901,0 18.0927228928,-29.5616327226,0 18.0905529857,-29.561984092,0 18.0881926417,-29.5623743534,0 18.0868823826,-29.5625795424,0 18.0855466425,-29.5627512038,0 18.0849055946,-29.5628169179,0 18.084627986,-29.56284374,0 18.08357656,-29.5628893375,0 18.081625253,-29.5629818738,0 18.0814133584,-29.5629885793,0 18.0796216428,-29.5630690455,0 18.0793561041,-29.5630824566,0 18.0769233406,-29.5631937683,0 18.0741539598,-29.563306421,0 18.074144572,-29.563306421,0 18.0711351335,-29.5634324849,0 18.0710855126,-29.5634351671,0 18.069614321,-29.563498199,0 18.0677689612,-29.5635773242,0 18.0669897795,-29.563626945,0 18.066816777,-29.5636376739,0 18.0660496652,-29.5637235045,0 18.0647608638,-29.563921988,0 18.0636034906,-29.5641861856,0 18.0630938709,-29.564332366,0 18.0622409284,-29.5646367967,0 18.0613343418,-29.5649935305,0 18.0583651364,-29.5662166178,0 18.0573271215,-29.5666605234,0 18.0569891632,-29.5667986572,0 18.0561764538,-29.5670963824,0 18.0550780892,-29.5675000548,0 18.0539341271,-29.5678500831,0 18.0527767539,-29.5681612194,0 18.0522537231,-29.5682872832,0 18.0508710444,-29.568605125,0 18.0493046343,-29.5689095557,0 18.0475316942,-29.5692528784,0 18.0452947319,-29.5696927607,0 18.0444766581,-29.5698550344,0 18.0432991683,-29.5700736344,0 18.0423858762,-29.5702452958,0 18.0410179496,-29.5705229044,0 18.0399061739,-29.5708206296,0 18.0388346314,-29.5711371303,0 18.0377040803,-29.5714952052,0 18.037301749,-29.5716333389,0 18.0371314287,-29.5716910064,0 18.0357930064,-29.5721496642,0 18.0352766812,-29.5723347366,0 18.0335707963,-29.5729033649,0 18.0312815309,-29.5736838877,0 18.0279555917,-29.5748023689,0 18.0252304673,-29.5756754279,0 18.0237565935,-29.5761448145,0 18.0225120485,-29.5765417814,0 18.0179549754,-29.5779700577,0 18.0108122528,-29.58021909,0 18.0090004206,-29.5807877183,0 18.0077813566,-29.5811645687,0 18.0075466633,-29.5812369883,0 18.0069029331,-29.5814341307,0 18.0057428777,-29.5817908645,0 18.0047893524,-29.5820872486,0 18.0038975179,-29.5823648572,0 18.0036078393,-29.5824748278,0 18.0017799139,-29.5830139518,0 18.0014178157,-29.5831212401,0 17.9997293651,-29.5836187899,0 17.9959353805,-29.5848110318,0 17.9918262362,-29.5860502124,0 17.9889173806,-29.58699435,0 17.9877868295,-29.587379247,0 17.9871243238,-29.5876193047,0 17.9867380857,-29.5877762139,0 17.9861560464,-29.5880645514,0 17.9857309163,-29.5882844925,0 17.9847237468,-29.5888638496,0 17.9842717946,-29.5891280472,0 17.9833236337,-29.5896913111,0 17.9790602624,-29.5922313631,0 17.9752421379,-29.5944857597,0 17.9719403386,-29.5964866877,0 17.9667824507,-29.5995135605,0 17.9651932418,-29.6004858613,0 17.964553535,-29.6008720994,0 17.964143157,-29.601124227,0 17.9637810588,-29.6013468504,0 17.963463217,-29.6015574038,0 17.9633116722,-29.6016539633,0 17.9628422856,-29.6019919217,0 17.9625754058,-29.6021944284,0 17.9622294009,-29.6024787426,0 17.9602485895,-29.6041738987,0 17.9574644566,-29.6067287028,0 17.9566732049,-29.6074408293,0 17.9564760625,-29.6076178551,0 17.9558256269,-29.6082025766,0 17.9536101222,-29.6102410555,0 17.9525734484,-29.6111704409,0 17.9521456361,-29.611568749,0 17.9518090189,-29.6119348705,0 17.9513986409,-29.6124190092,0 17.9509922862,-29.6129661798,0 17.9509480298,-29.6130305529,0 17.9507777095,-29.6132746339,0 17.9505631328,-29.6136407554,0 17.9503230751,-29.6140860021,0 17.9501326382,-29.61452052,0 17.9496659338,-29.6157154441,0 17.9494942725,-29.6161875129,0 17.949270308,-29.6167963743,0 17.9482188821,-29.6195201576,0 17.9470132291,-29.622758925,0 17.9462555051,-29.6247035265,0 17.9459229112,-29.6255645156,0 17.9456493258,-29.626121074,0 17.9454253614,-29.6265663207,0 17.9452443123,-29.6268989146,0 17.9450391233,-29.6272556484,0 17.944611311,-29.6279329062,0 17.9423180223,-29.6311689913,0 17.9409125447,-29.6331712604,0 17.938683629,-29.6363040805,0 17.9383067787,-29.63686198,0 17.9380573332,-29.6372428536,0 17.9379111528,-29.6374775469,0 17.9377837479,-29.6376934648,0 17.9376268387,-29.6380099654,0 17.9374565184,-29.6384015679,0 17.9373317957,-29.6387127042,0 17.9365861416,-29.6405674517,0 17.9362347722,-29.6412956715,0 17.9359410703,-29.6418240666,0 17.9357251525,-29.6421808004,0 17.9355347157,-29.6424637735,0 17.9353201389,-29.6427480876,0 17.9350559413,-29.6430659294,0 17.9347380996,-29.6434266865,0 17.9345677793,-29.6436131001,0 17.9340460896,-29.6441575885,0 17.9320988059,-29.6460565925,0 17.9312337935,-29.646858573,0 17.9305753112,-29.6473789215,0 17.9301461577,-29.6477021277,0 17.9297585785,-29.6479609609,0 17.929431349,-29.6481661499,0 17.9289673269,-29.6484209597,0 17.928634733,-29.64859128,0 17.9282337427,-29.6487683058,0 17.92765975,-29.6489909291,0 17.9226346314,-29.6507544816,0 17.9170905054,-29.6526910365,0 17.9133702815,-29.6540012956,0 17.9099357128,-29.6552056074,0 17.9087045789,-29.6556307375,0 17.9082204401,-29.6558117867,0 17.907756418,-29.6560075879,0 17.9073406756,-29.6562127769,0 17.9069544375,-29.6564568579,0 17.9066580534,-29.6566700935,0 17.9063992202,-29.6568511426,0 17.9060666263,-29.6571099758,0 17.9057836533,-29.6573540568,0 17.9054269195,-29.6576826274,0 17.9048247635,-29.6583263576,0 17.9045417905,-29.6586307883,0 17.9035051167,-29.6597599983,0 17.9032368958,-29.6600523591,0 17.9030022025,-29.6602924168,0 17.9026602209,-29.660590142,0 17.9025422037,-29.6606773138,0 17.9023222625,-29.6608395875,0 17.9019601643,-29.661064893,0 17.9018045962,-29.6611467004,0 17.9016329348,-29.6612365544,0 17.9011876881,-29.6614310145,0 17.9009114206,-29.6615329385,0 17.9008564353,-29.6615543962,0 17.9005372524,-29.6616415679,0 17.9004447162,-29.6616657078,0 17.9000933468,-29.6617341042,0 17.899633348,-29.661783725,0 17.8992672265,-29.6618078649,0 17.8987495601,-29.6617984772,0 17.8984813392,-29.6617877483,0 17.8978966177,-29.6617287397,0 17.8976900876,-29.6617072821,0 17.8959184885,-29.6615248919,0 17.8956489265,-29.6614980698,0 17.8955630958,-29.661488682,0 17.8953713179,-29.6614699066,0 17.8944204748,-29.6614122391,0 17.8942662477,-29.6614015102,0 17.893743217,-29.6613921225,0 17.8935085237,-29.6614055336,0 17.8932979703,-29.6614162624,0 17.8930149972,-29.6614511311,0 17.8928607702,-29.6614927053,0 17.8926770389,-29.6615490317,0 17.8919434547,-29.6618708968,0 17.8916229308,-29.6620291471,0 17.8911522031,-29.6622598171,0 17.8909765184,-29.6623469889,0 17.8906600177,-29.6618574858,0 17.8900149465,-29.6608583629,0 17.8889983892,-29.661321044,0
            </coordinates>
        </LineString>
        </Placemark>
  </Folder>
        </Document>
    </kml>
    