<?xml version="1.0" encoding="UTF-8"?>
    <kml xmlns="http://www.opengis.net/kml/2.2">
    <Document>
        <name>Colored Path</name>
        <Folder>
            <name>Day 7</name>
            <open>1</open>
            <Style id="blackLine">
            <LineStyle>
                <color>ff000000</color>
                <width>4</width>
            </LineStyle>
            </Style>
            <Style id="redLine">
            <LineStyle>
                <color>ff0000ff</color>
                <width>4</width>
            </LineStyle>
            </Style>
        <Placemark>
        <name>Segment 1 (True)</name>
        <styleUrl>#blackLine</styleUrl>
        <LineString>
            <tessellate>1</tessellate>
            <coordinates>
            18.7373811007,-31.606054008,0 18.737257719,-31.6062739491,0 18.7369559705,-31.606913656,0 18.7369009852,-31.607079953,0 18.7377002835,-31.60722211,0 18.7377928197,-31.60723418,0 18.7391473353,-31.6074125469,0 18.7396676838,-31.6074728966,0 18.7415063381,-31.6076847911,0 18.7418362498,-31.6077142954,0 18.7433610857,-31.607876569,0 18.7433932722,-31.6077236831,0 18.7434093654,-31.6076526046,0 18.7434697151,-31.6075158119,0 18.743558228,-31.6073535383,0 18.743686974,-31.607183218,0 18.7438505888,-31.6069927812,0 18.7440128624,-31.6068506241,0 18.7441965938,-31.6067017615,0 18.7444594502,-31.6065381467,0 18.745560497,-31.6058582067,0 18.7461385131,-31.6055001318,0 18.7478108704,-31.6044513881,0 18.7481595576,-31.6042327881,0 18.7484264374,-31.60406515,0 18.7485860288,-31.6039645672,0 18.7494510412,-31.603422761,0 18.750346899,-31.6028608382,0 18.7513969839,-31.6022023559,0 18.7515807152,-31.6020870209,0 18.7517470121,-31.6019824147,0 18.7522794306,-31.6016484797,0 18.7528936565,-31.6012622416,0 18.7541086972,-31.6005286574,0 18.7561418116,-31.5992465615,0 18.756878078,-31.5987838805,0 18.7577699125,-31.5982219577,0 18.7578195333,-31.5981911123,0 18.7584619224,-31.5977860987,0 18.7601436675,-31.5967400372,0 18.7611977756,-31.5960842371,0 18.7634655833,-31.5946733952,0 18.7661987543,-31.592976898,0 18.7695327401,-31.5908847749,0 18.7726199627,-31.5889696777,0 18.7745189667,-31.5877962112,0 18.7775820494,-31.585881114,0 18.7778918445,-31.585687995,0 18.7796486914,-31.5845909715,0 18.7841708958,-31.5817719698,0 18.7879005075,-31.579426378,0 18.7935371697,-31.5759502351,0 18.797147423,-31.5736730397,0 18.8024890423,-31.5703310072,0 18.8058377802,-31.5682804585,0 18.8065472245,-31.5678338706,0 18.8066075742,-31.5677990019,0 18.8065472245,-31.5678338706,0 18.8058377802,-31.5682804585,0 18.8024890423,-31.5703310072,0 18.797147423,-31.5736730397,0 18.7935371697,-31.5759502351,0 18.7879005075,-31.579426378,0 18.7841708958,-31.5817719698,0 18.7796486914,-31.5845909715,0 18.7778918445,-31.585687995,0 18.7775820494,-31.585881114,0 18.7745189667,-31.5877962112,0 18.7726199627,-31.5889696777,0 18.7695327401,-31.5908847749,0 18.7661987543,-31.592976898,0 18.7634655833,-31.5946733952,0 18.7611977756,-31.5960842371,0 18.7601436675,-31.5967400372,0 18.7584619224,-31.5977860987,0 18.7578195333,-31.5981911123,0 18.7577699125,-31.5982219577,0 18.756878078,-31.5987838805,0 18.7561418116,-31.5992465615,0 18.7541086972,-31.6005286574,0 18.7528936565,-31.6012622416,0 18.7522794306,-31.6016484797,0 18.7517470121,-31.6019824147,0 18.7515807152,-31.6020870209,0 18.7513969839,-31.6022023559,0 18.750346899,-31.6028608382,0 18.7494510412,-31.603422761,0 18.7485860288,-31.6039645672,0 18.7484264374,-31.60406515,0 18.7481595576,-31.6042327881,0 18.7478108704,-31.6044513881,0 18.7461385131,-31.6055001318,0 18.745560497,-31.6058582067,0 18.7444594502,-31.6065381467,0 18.7441965938,-31.6067017615,0 18.7440128624,-31.6068506241,0 18.7438505888,-31.6069927812,0 18.743686974,-31.607183218,0 18.743558228,-31.6073535383,0 18.7434697151,-31.6075158119,0 18.7434093654,-31.6076526046,0 18.7433932722,-31.6077236831,0 18.7433610857,-31.607876569,0 18.7418362498,-31.6077142954,0 18.7415063381,-31.6076847911,0 18.7396676838,-31.6074728966,0 18.7391473353,-31.6074125469,0 18.7377928197,-31.60723418,0 18.7377002835,-31.60722211,0 18.7369009852,-31.607079953,0 18.7369559705,-31.606913656,0 18.737257719,-31.6062739491,0 18.7373811007,-31.606054008,0
            </coordinates>
        </LineString>
        </Placemark>
  </Folder>
        </Document>
    </kml>
    