<?xml version="1.0" encoding="UTF-8"?>
    <kml xmlns="http://www.opengis.net/kml/2.2">
    <Document>
        <name>Colored Path</name>
        <Folder>
            <name>Day 1</name>
            <open>1</open>
            <Style id="blackLine">
            <LineStyle>
                <color>ff000000</color>
                <width>4</width>
            </LineStyle>
            </Style>
            <Style id="redLine">
            <LineStyle>
                <color>ff0000ff</color>
                <width>4</width>
            </LineStyle>
            </Style>
        <Placemark>
        <name>Segment 1 (True)</name>
        <styleUrl>#blackLine</styleUrl>
        <LineString>
            <tessellate>1</tessellate>
            <coordinates>
            27.8460127115,-26.8354408443,0 27.846044898,-26.8351283669,0 27.846056968,-26.8350183964,0 27.8460676968,-26.8348762393,0 27.8474718332,-26.8350210786,0 27.8481262922,-26.8350827694,0 27.8483341634,-26.8350854516,0 27.8486157954,-26.8350613117,0 27.8491334617,-26.8349942565,0 27.8498576581,-26.8349057436,0 27.8503645957,-26.8348172307,0 27.8505751491,-26.8347595632,0 27.850792408,-26.8347005546,0 27.8513288498,-26.8344886601,0 27.8519672155,-26.8342190981,0 27.8524298966,-26.8340112269,0 27.8526860476,-26.8339039385,0 27.8530038893,-26.8337631226,0 27.8534089029,-26.8335954845,0 27.8537039459,-26.8334721029,0 27.8544066846,-26.8331985176,0 27.8550235927,-26.8329718709,0 27.8558564186,-26.8326888978,0 27.8560696542,-26.8325896561,0 27.8562279046,-26.8325185776,0 27.8563968837,-26.8324327469,0 27.8566074371,-26.832293272,0 27.8567589819,-26.8321819603,0 27.8568930924,-26.8320693076,0 27.8570526838,-26.8319137394,0 27.8571653366,-26.8317890167,0 27.8573021293,-26.8316361308,0 27.8574563563,-26.831433624,0 27.8576736152,-26.8310876191,0 27.8577969968,-26.8308784068,0 27.8579780459,-26.8305967748,0 27.8580786288,-26.8304130435,0 27.8581188619,-26.8301904202,0 27.8580571711,-26.8301877379,0 27.8578962386,-26.8301823735,0 27.8577688336,-26.8301823735,0 27.8575877845,-26.8301796913,0 27.8574335575,-26.8301729858,0 27.8573222458,-26.8301716447,0 27.8572270274,-26.8301649392,0 27.8570902348,-26.8301488459,0 27.8569614887,-26.830124706,0 27.8568448126,-26.8301005661,0 27.8567482531,-26.8300737441,0 27.8566651046,-26.8300375342,0 27.8565202653,-26.8299892545,0 27.8563794494,-26.829931587,0 27.8562748432,-26.8298819661,0 27.8561957181,-26.8298497796,0 27.8554902971,-26.829507798,0 27.854963243,-26.8292503059,0 27.8544898331,-26.8290196359,0 27.8539949656,-26.8287755549,0 27.8537763655,-26.8286709487,0 27.8534571826,-26.8285167217,0 27.8532332182,-26.8284094334,0 27.8530575335,-26.8283222616,0 27.8529274464,-26.8282578886,0 27.8527423739,-26.8281666934,0 27.8525787592,-26.8280862272,0 27.8523735702,-26.8279843032,0 27.8521670401,-26.8278864026,0 27.8519310057,-26.8277724087,0 27.8517392278,-26.8276758492,0 27.8511759639,-26.8273727596,0 27.8505282104,-26.8269892037,0 27.8503350914,-26.8268537521,0 27.8498911858,-26.8265466392,0 27.8493896127,-26.8261469901,0 27.8489376605,-26.8257580698,0 27.8487458825,-26.825568974,0 27.848610431,-26.8254268169,0 27.8483824432,-26.8252122402,0 27.8479519486,-26.824734807,0 27.8476917744,-26.8244196475,0 27.8474275768,-26.8240749836,0 27.8473967314,-26.8240334094,0 27.8471727669,-26.8237008154,0 27.8470721841,-26.8235532939,0 27.8468495607,-26.823195219,0 27.8465759754,-26.8227432668,0 27.8462527692,-26.8222229183,0 27.8461495042,-26.8220458925,0 27.8460167348,-26.8218179047,0 27.8458142281,-26.8214893341,0 27.8456801176,-26.8212667108,0 27.8454333544,-26.8208576739,0 27.8452523053,-26.8205559254,0 27.8449961543,-26.8201428652,0 27.8447332978,-26.8197056651,0 27.8444637358,-26.819344908,0 27.8443846107,-26.8192201853,0 27.8443430364,-26.8191115558,0 27.8443041444,-26.8189828098,0 27.8442759812,-26.8188460171,0 27.8442786634,-26.8187172711,0 27.8442907333,-26.8186086416,0 27.8443188965,-26.8184825778,0 27.8443725407,-26.8183578551,0 27.8444087505,-26.8182089925,0 27.8444194794,-26.8180373311,0 27.8443993628,-26.8179126084,0 27.8443537652,-26.8177811801,0 27.8442062438,-26.8176202476,0 27.8440184891,-26.8174901605,0 27.8439179063,-26.817420423,0 27.8438521922,-26.8173734844,0 27.8437998891,-26.8173332512,0 27.8436470032,-26.8171387911,0 27.8435906768,-26.8169657886,0 27.843593359,-26.8168544769,0 27.8436282277,-26.8167364597,0 27.8436684608,-26.8166680634,0 27.843722105,-26.8165701628,0 27.8438025713,-26.8164722621,0 27.8438360989,-26.8164387345,0 27.843901813,-26.8163730204,0 27.8439487517,-26.8163274229,0 27.8440332413,-26.816201359,0 27.8442022204,-26.8160659075,0 27.8444127738,-26.8159103394,0 27.844542861,-26.8157882988,0 27.8446286917,-26.8156662583,0 27.8446997702,-26.8155254424,0 27.8447695076,-26.8153068423,0 27.8447829187,-26.8151499331,0 27.8447708488,-26.8149796128,0 27.8446997702,-26.8143063784,0 27.8445374966,-26.8129907548,0 27.8444114327,-26.8121619523,0 27.8443497419,-26.8119205534,0 27.844312191,-26.8118226528,0 27.8442786634,-26.8117636442,0 27.8441955149,-26.8116764724,0 27.8441566229,-26.8116469681,0 27.8440734744,-26.8116013706,0 27.8438843787,-26.8115155399,0 27.8437529504,-26.8115141988,0 27.84360677,-26.8115235865,0 27.8435651958,-26.8115262687,0 27.8435263038,-26.8115289509,0 27.8434954584,-26.8115316331,0 27.843144089,-26.8115624785,0 27.8425043821,-26.8116214871,0 27.8421986103,-26.8116496503,0 27.8416956961,-26.8116912246,0 27.8414529562,-26.8117032945,0 27.8411887586,-26.8117046356,0 27.8409808874,-26.8116737902,0 27.8407354653,-26.811606735,0 27.8404712677,-26.8115074933,0 27.8402674198,-26.8113680184,0 27.8400783241,-26.8112178147,0 27.8399093449,-26.8110474944,0 27.8396867216,-26.8107269704,0 27.8389088809,-26.8094448745,0 27.8378131986,-26.8076384068,0 27.8357867897,-26.8042829633,0 27.8355748951,-26.8039543927,0 27.8353455663,-26.8035654724,0 27.8352583945,-26.8033803999,0 27.8352047503,-26.8032181263,0 27.8351792693,-26.8030665815,0 27.8351712227,-26.8028372526,0 27.8351819515,-26.8027085066,0 27.8352087736,-26.8025502563,0 27.8352503479,-26.8023987114,0 27.8353509307,-26.8019990623,0 27.8353831172,-26.8018864095,0 27.8355748951,-26.8014062941,0 27.8356768191,-26.8011005223,0 27.8357331455,-26.8008618057,0 27.8357304633,-26.800711602,0 27.83571437,-26.8005681038,0 27.8356727958,-26.8004353344,0 27.8355829418,-26.8002730608,0 27.8354287148,-26.7999941111,0 27.8353375196,-26.7998345196,0 27.8352731466,-26.7997218668,0 27.8345918655,-26.8000249565,0 27.8345248103,-26.8000544608,0 27.8339239955,-26.8003132939,0 27.8331810236,-26.8006941676,0 27.8330227733,-26.8007679284,0 27.8328725696,-26.8008430302,0 27.8327438235,-26.8009127676,0 27.8326646984,-26.8009530008,0 27.8325788677,-26.8009959161,0 27.8324756026,-26.8010428548,0 27.8322838247,-26.8011420965,0 27.8320772946,-26.8012721837,0 27.8319364786,-26.8013767898,0 27.831864059,-26.8014760315,0 27.8317916393,-26.8015940487,0 27.8317379951,-26.8017093837,0 27.8317192197,-26.8018086255,0 27.8317125142,-26.801893115,0 27.831723243,-26.8020232022,0 27.831774205,-26.8021586537,0 27.8318627179,-26.8022739887,0 27.8319968283,-26.8023692071,0 27.8321577609,-26.802430898,0 27.8323066235,-26.80245772,0 27.8324729204,-26.8024510145,0 27.8326325119,-26.8024067581,0 27.8327706456,-26.8022994697,0 27.8328712285,-26.802213639,0 27.8329221904,-26.8021264672,0 27.8329476714,-26.8020513654,0 27.8329597414,-26.8019708991,0 27.8329664469,-26.8018877506,0 27.8329597414,-26.8017375469,0 27.8329369426,-26.801649034,0 27.832877934,-26.8015028536,0 27.8327934444,-26.8013378978,0 27.8325788677,-26.8009959161,0 27.8324997425,-26.8008644879,0 27.8318586946,-26.7997768521,0 27.8314121068,-26.7988447845,0 27.8313356638,-26.7986892164,0 27.8311599791,-26.7983834445,0 27.8308072686,-26.7977263033,0 27.8305712342,-26.797311902,0 27.8301407397,-26.7965810001,0 27.8300079703,-26.7963570356,0 27.829875201,-26.7960861325,0 27.8298094869,-26.7958836257,0 27.8292810917,-26.7950038612,0 27.8291898966,-26.7948523164,0 27.8284147382,-26.7935715616,0 27.8281237185,-26.7930860817,0 27.8278541565,-26.7926341295,0 27.8275993466,-26.7922063172,0 27.827013284,-26.7912299931,0 27.8269475698,-26.7911227047,0 27.8266498446,-26.7906372249,0 27.8263266385,-26.7901074886,0 27.8259444237,-26.7894771695,0 27.8253100812,-26.7884284258,0 27.8248165548,-26.7876143754,0 27.824600637,-26.7872335017,0 27.8244785964,-26.7869491875,0 27.8243672848,-26.7866300046,0 27.8242398798,-26.7861995101,0 27.8241835535,-26.7859272659,0 27.8241620958,-26.7858414352,0 27.8241205215,-26.7856107652,0 27.8240333498,-26.7849415541,0 27.8240226209,-26.7846424878,0 27.8240118921,-26.7841234803,0 27.8240802884,-26.7828159034,0 27.8241862357,-26.781308502,0 27.8242599964,-26.7803308368,0 27.8243337572,-26.7792539299,0 27.8244195879,-26.7779584229,0 27.8244490921,-26.7775453627,0 27.8245013952,-26.7768426239,0 27.8245215118,-26.7765569687,0 27.8245604038,-26.7760017514,0 27.8246060014,-26.7753446102,0 27.8247159719,-26.77380234,0 27.8248420358,-26.7720589042,0 27.8249654174,-26.7702805996,0 27.8250458837,-26.7690883577,0 27.8251115978,-26.7680932581,0 27.825127691,-26.7675836384,0 27.8251290321,-26.7673234642,0 27.8251303732,-26.7671383917,0 27.8251303732,-26.7668044567,0 27.8251075745,-26.7662680149,0 27.8250646591,-26.7657114565,0 27.8250351548,-26.7653560638,0 27.8250002861,-26.764921546,0 27.8250029683,-26.7645004392,0 27.8249117732,-26.763356477,0 27.8248178959,-26.761957705,0 27.8247642517,-26.7608767748,0 27.8247629106,-26.7606112361,0 27.8247629106,-26.7605629563,0 27.8247629106,-26.7604851723,0 27.8247629106,-26.760391295,0 27.8247629106,-26.7600037158,0 27.8247816861,-26.7595008016,0 27.8248474002,-26.7586156726,0 27.824922502,-26.7578686774,0 27.8250874579,-26.7568266392,0 27.825127691,-26.7565356195,0 27.8252953291,-26.7555163801,0 27.8253100812,-26.7554278672,0 27.8254817426,-26.7543026805,0 27.8256292641,-26.7533893883,0 27.8257861733,-26.7523768544,0 27.8260007501,-26.7510049045,0 27.826128155,-26.7502391338,0 27.8261697292,-26.7499789596,0 27.826218009,-26.7496758699,0 27.8263024986,-26.7491877079,0 27.8263856471,-26.7486163974,0 27.8264003992,-26.7485144734,0 27.8264084458,-26.7484568059,0 27.8264312446,-26.7482958734,0 27.8264446557,-26.7480866611,0 27.8264352679,-26.7477446795,0 27.8264084458,-26.747507304,0 27.8263655305,-26.7472364008,0 27.8263226151,-26.7469614744,0 27.8262770176,-26.7467576265,0 27.8261241317,-26.7461970448,0 27.8260543942,-26.7460106313,0 27.8260302544,-26.7459502816,0 27.8258854151,-26.7456096411,0 27.8255876899,-26.7449565232,0 27.8253369033,-26.7444093525,0 27.8252148628,-26.7441505194,0 27.8250110149,-26.7437253892,0 27.8246891499,-26.7430669069,0 27.8246207535,-26.7429126799,0 27.8245215118,-26.742695421,0 27.8243605793,-26.7423386872,0 27.8242439032,-26.7420811951,0 27.8241580725,-26.7419068515,0 27.8240668774,-26.7417016625,0 27.8239233792,-26.7413784564,0 27.8238268197,-26.7411625385,0 27.8237436712,-26.7409868538,0 27.8236323595,-26.7407360673,0 27.8235130012,-26.7404705286,0 27.8233171999,-26.7400212586,0 27.8232809901,-26.739923358,0 27.8232474625,-26.7398455739,0 27.8232112527,-26.739706099,0 27.8231562674,-26.7395290732,0 27.823010087,-26.7390422523,0 27.8227767348,-26.738178581,0 27.8227365017,-26.7380645871,0 27.8225755692,-26.7373122275,0 27.8224495053,-26.7367368937,0 27.8221531212,-26.7353032529,0 27.8220377862,-26.7347480357,0 27.8219492733,-26.7343457043,0 27.8217963874,-26.7336188257,0 27.8216850758,-26.7330314219,0 27.8215844929,-26.7325526476,0 27.8214691579,-26.7319893837,0 27.821418196,-26.7317292094,0 27.8213578463,-26.7314757407,0 27.8212492168,-26.7309741676,0 27.8211177886,-26.7303465307,0 27.8210534155,-26.7299602926,0 27.8207623959,-26.7285829782,0 27.8202916682,-26.7263540626,0 27.8200690448,-26.7252543569,0 27.8196586668,-26.7233043909,0 27.81946823,-26.7223683,0 27.8194306791,-26.7221684754,0 27.819352895,-26.7218841612,0 27.8192536533,-26.7215099931,0 27.8191061318,-26.7209896445,0 27.8190028667,-26.7207039893,0 27.8189183772,-26.7204625905,0 27.8188365698,-26.7202480137,0 27.8185965121,-26.7195613682,0 27.8185321391,-26.719378978,0 27.8184758127,-26.71921134,0 27.8184382617,-26.719058454,0 27.8184168041,-26.7189377546,0 27.8183953464,-26.7187942564,0 27.8183551133,-26.7185045779,0 27.8183229268,-26.7181478441,0 27.8182961047,-26.7177253962,0 27.8182666004,-26.7173981667,0 27.8181888163,-26.7168107629,0 27.8181579709,-26.7166404426,0 27.8179688752,-26.7156158388,0 27.8176738322,-26.7144168913,0 27.8175263107,-26.7138978839,0 27.8175182641,-26.7138656974,0 27.8174310923,-26.7135800421,0 27.8173948824,-26.713463366,0 27.8173573315,-26.7133386433,0 27.817196399,-26.7128786445,0 27.8170649707,-26.7124950886,0 27.8168343008,-26.7118768394,0 27.8166867793,-26.7115227878,0 27.816504389,-26.7111875117,0 27.8163139522,-26.7108669877,0 27.8162039816,-26.7106939852,0 27.8160269558,-26.71040833,0 27.8158928454,-26.7101669312,0 27.8156648576,-26.709767282,0 27.8154757619,-26.709394455,0 27.815348357,-26.7092214525,0 27.8148548305,-26.7084476352,0 27.8144980967,-26.7078629136,0 27.8142821789,-26.7075102031,0 27.8140220046,-26.7070233822,0 27.8137631714,-26.7064359784,0 27.8135190904,-26.7059116066,0 27.8132843971,-26.7054891586,0 27.8130443394,-26.7050908506,0 27.8123791516,-26.7040930688,0 27.8120867908,-26.703594178,0 27.8118990362,-26.703287065,0 27.8116764128,-26.7028096318,0 27.811384052,-26.7023818195,0 27.810985744,-26.701746136,0 27.8104090691,-26.7008328438,0 27.8102186322,-26.7005324364,0 27.8101395071,-26.7004184425,0 27.8098109365,-26.6999436915,0 27.809215486,-26.6990867257,0 27.8091014922,-26.6989217699,0 27.8084778786,-26.6979132593,0 27.8082177043,-26.6975001991,0 27.8077255189,-26.6967223585,0 27.8077054024,-26.696690172,0 27.8075122833,-26.6963844001,0 27.8070777655,-26.6957205534,0 27.8067572415,-26.6952270269,0 27.8067103028,-26.6951546073,0 27.8065735102,-26.6949427128,0 27.8065413237,-26.6948917508,0 27.8063173592,-26.6945323348,0 27.8061175346,-26.694214493,0 27.8060880303,-26.6941742599,0 27.806045115,-26.6941152513,0 27.8059123456,-26.6939301789,0 27.8053209186,-26.6931121051,0 27.8052337468,-26.6929726303,0 27.8051197529,-26.6928425431,0 27.8042346239,-26.6916503012,0 27.8040575981,-26.6914182901,0 27.804030776,-26.6913820803,0 27.8039945662,-26.6913338006,0 27.8038671613,-26.6911648214,0 27.8037156165,-26.6911031306,0 27.8032878041,-26.6905385256,0 27.803067863,-26.6901992261,0 27.8029860556,-26.690069139,0 27.8025341034,-26.6894978285,0 27.8024187684,-26.6893261671,0 27.8023651242,-26.689248383,0 27.802349031,-26.6891089082,0 27.8020767868,-26.6887803376,0 27.8015524149,-26.6880695522,0 27.8010950983,-26.6874580085,0 27.8006069362,-26.6868022084,0 27.8005465865,-26.6867230833,0 27.8003172576,-26.6864293814,0 27.8002300858,-26.6863100231,0 27.8000503778,-26.6860605776,0 27.7998934686,-26.6858433187,0 27.7994696796,-26.6852934659,0 27.7987481654,-26.684307754,0 27.7982157469,-26.6835822165,0 27.7976162732,-26.6827587783,0 27.7972126007,-26.6822437942,0 27.7969926596,-26.6819581389,0 27.7968947589,-26.6818320751,0 27.7965916693,-26.6814418137,0 27.7964387834,-26.6812245548,0 27.7963797748,-26.6811427474,0 27.7960444987,-26.6806679964,0 27.795740068,-26.6802348197,0 27.7947275341,-26.67881459,0 27.7943426371,-26.6782687604,0 27.7940677106,-26.6779187322,0 27.7939939499,-26.6778208315,0 27.7939228714,-26.6777269542,0 27.7937740088,-26.6775070131,0 27.7936372161,-26.6773071885,0 27.7935647964,-26.6772146523,0 27.7935285866,-26.6771730781,0 27.7932992578,-26.6768807173,0 27.7932482958,-26.6768163443,0 27.7930310369,-26.6765159369,0 27.7924624085,-26.6757434607,0 27.7920922637,-26.6752150655,0 27.79149279,-26.6743218899,0 27.791236639,-26.6738887131,0 27.7911923826,-26.6738122702,0 27.7910207212,-26.6735091805,0 27.790889293,-26.6732771695,0 27.7908624709,-26.6732315719,0 27.7907203138,-26.6729874909,0 27.7907122672,-26.6729727387,0 27.7901704609,-26.6719427705,0 27.7896648645,-26.6708470881,0 27.7889661491,-26.669318229,0 27.7885517478,-26.6684143245,0 27.7882392704,-26.6677182913,0 27.7878034115,-26.6667687893,0 27.7870684862,-26.6651581228,0 27.7865695953,-26.6640530527,0 27.7859996259,-26.6628071666,0 27.7856589854,-26.6620789468,0 27.7850246429,-26.6606748104,0 27.7846987545,-26.6599653661,0 27.7839356661,-26.6583144665,0 27.7833281457,-26.656986773,0 27.7829794586,-26.6562464833,0 27.7827206254,-26.6556711495,0 27.7821546793,-26.6544614732,0 27.7820514143,-26.6542334855,0 27.7812668681,-26.6525101662,0 27.7804407477,-26.6506674886,0 27.7796280384,-26.6488972306,0 27.7788113058,-26.6471095383,0 27.7781662345,-26.6456852853,0 27.7766038477,-26.6422654688,0 27.7758823335,-26.6406869888,0 27.7752023935,-26.6392748058,0 27.7744714916,-26.6377311945,0 27.7742153406,-26.6372457147,0 27.7739471197,-26.6367226839,0 27.7737271786,-26.6362318397,0 27.7734804153,-26.635761112,0 27.7732014656,-26.6351938248,0 27.7729037404,-26.6347901523,0 27.7726730704,-26.6344977915,0 27.7723833919,-26.6341115534,0 27.7720722556,-26.6337507963,0 27.7717933059,-26.6334638,0 27.7714794874,-26.6331137717,0 27.7711549401,-26.6328133643,0 27.7708867192,-26.6326001287,0 27.7702268958,-26.6320006549,0 27.769561708,-26.6314575076,0 27.7691915631,-26.6311450303,0 27.7689313889,-26.6308714449,0 27.7686873078,-26.6305857897,0 27.7684432268,-26.6302129626,0 27.7682380378,-26.6298830509,0 27.7680529654,-26.6294579208,0 27.7679416537,-26.6291172802,0 27.7678517997,-26.6287538409,0 27.7677646279,-26.6283836961,0 27.7677163482,-26.6280028224,0 27.7677378058,-26.6275830567,0 27.7678196132,-26.6272464395,0 27.7678853273,-26.6269540787,0 27.7679564059,-26.626663059,0 27.7680623531,-26.6263358295,0 27.7681723237,-26.6260877252,0 27.7683252096,-26.6257886589,0 27.7685277164,-26.625457406,0 27.7688093483,-26.625084579,0 27.7691137791,-26.6247560084,0 27.7694866061,-26.6244140267,0 27.7699318528,-26.6241028905,0 27.7704951167,-26.6237770021,0 27.770806253,-26.6236442327,0 27.7709899843,-26.6235691309,0 27.7713534236,-26.6234430671,0 27.7721232176,-26.6231895983,0 27.7727991343,-26.6229763627,0 27.773091495,-26.6228878498,0 27.7733838558,-26.6227805614,0 27.7736279368,-26.622671932,0 27.7739873528,-26.6224949062,0 27.7743843198,-26.6222682595,0 27.7747303247,-26.6220456362,0 27.7751916647,-26.621735841,0 27.7755269408,-26.6214394569,0 27.7757549286,-26.62126109,0 27.7759078145,-26.6211417317,0 27.7761089802,-26.6209365427,0 27.7764590085,-26.6205556691,0 27.7765019238,-26.6205368936,0 27.7766869962,-26.6202928126,0 27.7768412232,-26.6200742126,0 27.7772448957,-26.6194331646,0 27.7773039043,-26.6193325818,0 27.7776914835,-26.6186714172,0 27.7777947485,-26.6184957325,0 27.7781032026,-26.6179096699,0 27.7784720063,-26.617154628,0 27.7791814506,-26.615511775,0 27.7800746262,-26.6134384274,0 27.7805775404,-26.612278372,0 27.7815431356,-26.610070914,0 27.7819025517,-26.6092461348,0 27.7822083235,-26.6085460782,0 27.7832919359,-26.6060744226,0 27.7838149667,-26.604860723,0 27.7840845287,-26.6042330861,0 27.7851574123,-26.6017346084,0 27.7859044075,-26.5999817848,0 27.7862383425,-26.5992200375,0 27.7867814898,-26.5979754925,0 27.7878986299,-26.5954045951,0 27.7892880142,-26.5921805799,0 27.7897238731,-26.591168046,0 27.7905835211,-26.5892006457,0 27.7913439274,-26.5876543522,0 27.7920882404,-26.5862609446,0 27.7927105129,-26.5851505101,0 27.7937525511,-26.5834110975,0 27.7942688763,-26.5825983882,0 27.7943198383,-26.5825165808,0 27.7948978543,-26.5816086531,0 27.7957105637,-26.5803359449,0 27.79576689,-26.580247432,0 27.7958285809,-26.5801522136,0 27.7959023416,-26.5800355375,0 27.7962604165,-26.5794762969,0 27.7970463037,-26.5782062709,0 27.7979743481,-26.5765459836,0 27.7988822758,-26.5748240054,0 27.7997928858,-26.5729062259,0 27.8003789485,-26.5715436637,0 27.8012144566,-26.5694046021,0 27.8016918898,-26.5679910779,0 27.801694572,-26.5679830313,0 27.8018917143,-26.567402333,0 27.8025327623,-26.5650956333,0 27.8031657636,-26.562358439,0 27.803298533,-26.5617482364,0 27.8035278618,-26.5605694056,0 27.8038805723,-26.5583887696,0 27.8045497835,-26.5543265641,0 27.8050835431,-26.5510971844,0 27.8054858744,-26.5487234294,0 27.8059029579,-26.5459741652,0 27.8063106537,-26.5436634421,0 27.8066419065,-26.5415766835,0 27.8066955507,-26.5412588418,0 27.8070469201,-26.5389843285,0 27.8071005642,-26.538643688,0 27.8071542084,-26.5383338928,0 27.807109952,-26.5382359922,0 27.8072574735,-26.5366186202,0 27.8072279692,-26.5361666679,0 27.8071501851,-26.5358139575,0 27.8070616722,-26.5355028212,0 27.8069785237,-26.5351755917,0 27.8068390489,-26.5346458554,0 27.8067545593,-26.5344111621,0 27.8067156672,-26.5341858566,0 27.8066968918,-26.5339162946,0 27.806750536,-26.5335649252,0 27.8067679703,-26.5335099399,0 27.8068202734,-26.5333597362,0 27.806892693,-26.5332055092,0 27.8071823716,-26.5326677263,0 27.8073446453,-26.5324249864,0 27.8072561324,-26.5323337913,0 27.8060531616,-26.5311563015,0 27.8051546216,-26.5302979946,0 27.8048408031,-26.529969424,0 27.8043875098,-26.5294906497,0 27.8043606877,-26.5294611454,0 27.8015255928,-26.5264691412,0 27.8001496196,-26.5250261128,0 27.7992162108,-26.5240269899,0 27.7979783714,-26.5227207541,0 27.7979019284,-26.5226402879,0 27.7973225713,-26.5220113099,0 27.7970033884,-26.5216143429,0 27.7967981994,-26.5213192999,0 27.7965581417,-26.520896852,0 27.7963891625,-26.5205803514,0 27.7962094545,-26.5201954544,0 27.7959385514,-26.5195195377,0 27.7956435084,-26.5186679363,0 27.7952331305,-26.5174971521,0 27.7946484089,-26.5158113837,0 27.7942246199,-26.514582932,0 27.7937150002,-26.5131157637,0 27.7932992578,-26.5119127929,0 27.7927105129,-26.5101921558,0 27.7922813594,-26.508975774,0 27.7916416526,-26.5071210265,0 27.7912513912,-26.5059877932,0 27.79081285,-26.5047445893,0 27.7904038131,-26.5035510063,0 27.7899102867,-26.5021575987,0 27.7897158265,-26.5016868711,0 27.789414078,-26.5010887384,0 27.7889473736,-26.5003082156,0 27.7879911661,-26.49874717,0 27.7878557146,-26.4985379577,0 27.7872186899,-26.4974704385,0 27.7867425978,-26.4966738224,0 27.7863764763,-26.4960622787,0 27.7853947878,-26.494384557,0 27.784409076,-26.4927792549,0 27.7838055789,-26.4917318523,0 27.7818475664,-26.4884877205,0 27.7810375392,-26.4871385694,0 27.7807880938,-26.486722827,0 27.7801389992,-26.4856392145,0 27.7792471647,-26.4841613173,0 27.7790151536,-26.4837710559,0 27.7786664665,-26.4831756055,0 27.7782976627,-26.4825640619,0 27.7776861191,-26.4815448225,0 27.777210027,-26.4807455242,0 27.7766735852,-26.4798510075,0 27.7759721875,-26.4786815643,0 27.775606066,-26.478074044,0 27.7755819261,-26.4780338109,0 27.7749837935,-26.4770320058,0 27.7748993039,-26.4768898487,0 27.7742810547,-26.4758612216,0 27.7738773823,-26.4751893282,0 27.7734576166,-26.4744892716,0 27.7720400691,-26.4721155167,0 27.7716431022,-26.4714503288,0 27.7712984383,-26.4708736539,0 27.7710087597,-26.4703814685,0 27.7707700431,-26.4699858427,0 27.7704173326,-26.4693984389,0 27.7696582675,-26.468128413,0 27.7688831091,-26.4668436348,0 27.7685210109,-26.4662910998,0 27.768457979,-26.4662602544,0 27.7681468427,-26.4657761157,0 27.7679765224,-26.4655025303,0 27.767842412,-26.465267837,0 27.7678397298,-26.4652450383,0 27.7678370476,-26.465164572,0 27.7677646279,-26.4650666714,0 27.7677512169,-26.4650478959,0 27.7675835788,-26.4648547769,0 27.7675004303,-26.4647595584,0 27.7674521506,-26.464703232,0 27.7674119174,-26.4646562934,0 27.7673314512,-26.4645597339,0 27.7672094107,-26.4644122124,0 27.767187953,-26.4643894136,0 27.7670364082,-26.4642472565,0 27.7667722106,-26.4640326798,0 27.7665576339,-26.4638757706,0 27.7661834657,-26.4636196196,0 27.7648665011,-26.4628337324,0 27.7624619007,-26.4614537358,0 27.7623519301,-26.4614497125,0 27.7612709999,-26.46083951,0 27.761221379,-26.4608113468,0 27.7609987557,-26.4606624842,0 27.7606929839,-26.4604599774,0 27.760540098,-26.4603580534,0 27.7605159581,-26.4602856338,0 27.7600103617,-26.4599718153,0 27.7595704794,-26.4597103,0 27.7569754422,-26.4581720531,0 27.7551555634,-26.4571072161,0 27.7549704909,-26.4569985867,0 27.7547197044,-26.4568510652,0 27.7544313669,-26.4566834271,0 27.7542610466,-26.4565828443,0 27.7536267042,-26.4562006295,0 27.7525417507,-26.4555582404,0 27.7517920732,-26.4551049471,0 27.7512677014,-26.4547508955,0 27.7509887516,-26.4545188844,0 27.7506347001,-26.4541836083,0 27.7500459552,-26.4535278082,0 27.7418866754,-26.4445008337,0 27.7385634184,-26.4408329129,0 27.7368347347,-26.4389298856,0 27.7367717028,-26.4388601482,0 27.7363841236,-26.4384028316,0 27.7356813848,-26.4375753701,0 27.735170424,-26.4369665086,0 27.7340278029,-26.4356066287,0 27.7312892675,-26.4322592318,0 27.7286566794,-26.429079473,0 27.7286285162,-26.4290446043,0 27.7262815833,-26.4262001216,0 27.7242310345,-26.4237110317,0 27.7229180932,-26.4221325517,0 27.7221818268,-26.4212474227,0 27.7203793824,-26.4190614223,0 27.7198107541,-26.4183707535,0 27.7174463868,-26.4155249298,0 27.7170480788,-26.415040791,0 27.7170065045,-26.4149911702,0 27.7161589265,-26.4139612019,0 27.7149827778,-26.4125342667,0 27.7141325176,-26.4115056396,0 27.7136014402,-26.4108632505,0 27.713022083,-26.4101631939,0 27.7108830214,-26.4075708389,0 27.7103666961,-26.4069512486,0 27.7097672224,-26.4063088596,0 27.7076107264,-26.4040209353,0 27.7066987753,-26.4030513167,0 27.7060550451,-26.4023700356,0 27.7056822181,-26.4019703865,0 27.705463618,-26.4017383754,0 27.704872191,-26.4011214674,0 27.7040849626,-26.4002980292,0 27.7026513219,-26.3987436891,0 27.7006825805,-26.3966582716,0 27.700138092,-26.3960708678,0 27.7001340687,-26.3960668445,0 27.6982913911,-26.3941088319,0 27.6972171664,-26.3929903507,0 27.695902884,-26.3915915787,0 27.69333601,-26.3888677955,0 27.6922148466,-26.3876755536,0 27.6907838881,-26.3861507177,0 27.6905250549,-26.3858757913,0 27.6880560815,-26.3832458854,0 27.6861597598,-26.3812234998,0 27.6836532354,-26.378557384,0 27.6814672351,-26.3762332499,0 27.6799343526,-26.3746105134,0 27.6794421673,-26.3741438091,0 27.6791605353,-26.3739185035,0 27.6788547635,-26.3737079501,0 27.6781842113,-26.3733418286,0 27.6746758819,-26.3716332614,0 27.6712962985,-26.3699689507,0 27.6708389819,-26.3697463274,0 27.6700879633,-26.3693802059,0 27.6696494222,-26.3691481948,0 27.6692605019,-26.3688920438,0 27.6689574122,-26.3686493039,0 27.6686583459,-26.3683542609,0 27.6686100662,-26.3682992756,0 27.6684330404,-26.3681007922,0 27.6682265103,-26.3678325713,0 27.6680266857,-26.3675160706,0 27.6678563654,-26.3671660423,0 27.6677128673,-26.366802603,0 27.6676270366,-26.3665142655,0 27.667555958,-26.3661360741,0 27.6675277948,-26.3657940924,0 27.6674634218,-26.3653770089,0 27.6674795151,-26.3650672138,0 27.667517066,-26.364774853,0 27.6679006219,-26.3633318245,0 27.6679033041,-26.3632071018,0 27.6679180562,-26.3631588221,0 27.6679998636,-26.3628973067,0 27.6681447029,-26.3623635471,0 27.6683163643,-26.3617265224,0 27.668479979,-26.3611914217,0 27.6685591042,-26.3610935211,0 27.6691398025,-26.3594265282,0 27.6698921621,-26.3566705585,0 27.6706217229,-26.3540929556,0 27.6708845794,-26.3529664278,0 27.6709194481,-26.3528457284,0 27.6711112261,-26.3523387909,0 27.6711849868,-26.3519538939,0 27.6712681353,-26.3514147699,0 27.6716315746,-26.3483168185,0 27.671764344,-26.3471983373,0 27.6719494164,-26.3453368843,0 27.6719896495,-26.3450539112,0 27.6720526814,-26.3445952535,0 27.6720231771,-26.3445349038,0 27.6720754802,-26.3439971209,0 27.672264576,-26.3426157832,0 27.6723785698,-26.3417829573,0 27.6723852754,-26.3415522873,0 27.6724147797,-26.3413108885,0 27.6724268496,-26.3410761952,0 27.6724912226,-26.3405880332,0 27.6727192104,-26.3386675715,0 27.6727621257,-26.3382907212,0 27.6728761196,-26.3374176621,0 27.6730223,-26.3362897933,0 27.673227489,-26.3349929452,0 27.6733776927,-26.3337524235,0 27.6735024154,-26.3327251375,0 27.6737330854,-26.3307872415,0 27.6740509272,-26.3281157613,0 27.6743794978,-26.3254053891,0 27.6744358242,-26.3249440491,0 27.674472034,-26.324647665,0 27.6750285923,-26.3200087845,0 27.6750795543,-26.3195849955,0 27.6754269004,-26.3167364895,0 27.6756857336,-26.3145558536,0 27.6757420599,-26.3140891492,0 27.6759418845,-26.3124100864,0 27.67594859,-26.3123430312,0 27.6760800183,-26.3112419844,0 27.676089406,-26.3111655414,0 27.6762060821,-26.3102026284,0 27.6764152944,-26.3084578514,0 27.6764219999,-26.3084082305,0 27.6764260232,-26.3083733618,0 27.6769047976,-26.3044385612,0 27.6770670712,-26.3030961156,0 27.677205205,-26.3019387424,0 27.6772588491,-26.3014894724,0 27.6775592566,-26.2989775836,0 27.6780863106,-26.2946109474,0 27.6781278849,-26.2942756712,0 27.6784899831,-26.2912836671,0 27.6789003611,-26.2878678739,0 27.6792785525,-26.2847028673,0 27.679297328,-26.2845392525,0 27.6793630421,-26.2839893997,0 27.6798726618,-26.2797689438,0 27.6802508533,-26.2766884267,0 27.6807001233,-26.2729091942,0 27.68114537,-26.2692546844,0 27.6815517247,-26.2658536434,0 27.6818668842,-26.2631513178,0 27.6818910241,-26.2630239129,0 27.6819044352,-26.2629380822,0 27.6819942892,-26.2622795999,0 27.6821270585,-26.2613193691,0 27.6822035015,-26.260702461,0 27.682313472,-26.2597797811,0 27.6824328303,-26.2587444484,0 27.6825883985,-26.2574757636,0 27.6827184856,-26.2564122677,0 27.6827788353,-26.2559227645,0 27.6829464734,-26.2545521557,0 27.6830993593,-26.2532673776,0 27.6832455397,-26.252014786,0 27.683390379,-26.2508735061,0 27.6835003495,-26.250000447,0 27.6835660636,-26.2493379414,0 27.6838235557,-26.2471358478,0 27.6840046048,-26.245598942,0 27.6841843128,-26.2441009283,0 27.6844082773,-26.242236793,0 27.6844511926,-26.2418934703,0 27.6846027374,-26.2406556308,0 27.6847408712,-26.2395036221,0 27.6847918332,-26.2390691042,0 27.6847985387,-26.2390141189,0 27.6848253608,-26.2387727201,0 27.6848763227,-26.2383127213,0 27.6849044859,-26.2380619347,0 27.6849192381,-26.2379264832,0 27.6849447191,-26.2376958132,0 27.6849849522,-26.2373350561,0 27.6850144565,-26.2370762229,0 27.6850613952,-26.2366779149,0 27.6851968467,-26.2355004251,0 27.6853564382,-26.2341941893,0 27.6855522394,-26.2325164676,0 27.6857091486,-26.2312477827,0 27.6858137548,-26.2304015458,0 27.6858472824,-26.2301172316,0 27.6860296726,-26.2285575271,0 27.6860538125,-26.2284059823,0 27.6861195266,-26.2279781699,0 27.6862764359,-26.2272043526,0 27.6863273978,-26.2269575894,0 27.6863931119,-26.2267228961,0 27.6864159107,-26.2266424298,0 27.6865527034,-26.2261663377,0 27.6868034899,-26.2254112959,0 27.6869724691,-26.2249915302,0 27.6872809231,-26.2242686749,0 27.6872996986,-26.2242271006,0 27.6876550913,-26.2233942747,0 27.6881861687,-26.2221778929,0 27.688241154,-26.2220531702,0 27.6883564889,-26.2217876315,0 27.6885281503,-26.2213933468,0 27.6885455847,-26.2213531137,0 27.689102143,-26.2200750411,0 27.6898424327,-26.2183691561,0 27.6906269789,-26.216558665,0 27.690653801,-26.2164956331,0 27.6911191642,-26.2154200673,0 27.6913377643,-26.2149144709,0 27.6921236515,-26.2131039798,0 27.6921504736,-26.213042289,0 27.6924468577,-26.2123583257,0 27.6929323375,-26.2112371624,0 27.6932971179,-26.2104097009,0 27.6933158934,-26.2103654444,0 27.6933775842,-26.2102259696,0 27.6934473217,-26.2100663781,0 27.693580091,-26.2097619474,0 27.6940280199,-26.2087252736,0 27.6941755414,-26.2083873153,0 27.6943485439,-26.2079836428,0 27.694400847,-26.2078629434,0 27.6947629452,-26.2070596218,0 27.6949842274,-26.2065245211,0 27.6950968802,-26.2062710524,0 27.6951786876,-26.2060846388,0 27.6956440508,-26.2050278485,0 27.6957835257,-26.2047086656,0 27.6958465576,-26.2045638263,0 27.6961000264,-26.2039777637,0 27.6964983344,-26.2030510604,0 27.6969368756,-26.2020599842,0 27.6970911026,-26.2017126381,0 27.6972734928,-26.201299578,0 27.6973606646,-26.2011037767,0 27.6973968744,-26.2010206282,0 27.6975645125,-26.200645119,0 27.6977106929,-26.200312525,0 27.6978220046,-26.1999692023,0 27.6979762316,-26.1993804574,0 27.6979990304,-26.1992946267,0 27.6982860267,-26.1982472241,0 27.6984858513,-26.1976316571,0 27.6985515654,-26.1974398792,0 27.6987782121,-26.1967854202,0 27.6991805434,-26.1956937611,0 27.699251622,-26.195499301,0 27.699663341,-26.1943741143,0 27.6997840405,-26.1941488087,0 27.700009346,-26.1937531829,0 27.7002252638,-26.193408519,0 27.7005940676,-26.1928237975,0 27.7007710934,-26.1925408244,0 27.7010326087,-26.1921089888,0 27.7010835707,-26.1920285225,0 27.701869458,-26.1908175051,0 27.7023871243,-26.1899846792,0 27.7025493979,-26.1896587908,0 27.7026432753,-26.1893999577,0 27.7027156949,-26.1891424656,0 27.7027975023,-26.1886060238,0 27.7029369771,-26.187774539,0 27.7029651403,-26.1876015365,0 27.7030402422,-26.1871482432,0 27.7030616999,-26.1870221794,0 27.7031730115,-26.1863945425,0 27.7031850815,-26.1862979829,0 27.703205198,-26.1861746013,0 27.7032668889,-26.1858125031,0 27.7033473551,-26.1853270233,0 27.7034036815,-26.1849421263,0 27.7035458386,-26.1840811372,0 27.7036598325,-26.1833891273,0 27.703692019,-26.1831866205,0 27.703832835,-26.1823390424,0 27.7039495111,-26.1816349626,0 27.7040366828,-26.1810877919,0 27.704192251,-26.1800993979,0 27.7042767406,-26.1796997488,0 27.7043907344,-26.1788910627,0 27.7045114338,-26.1782366037,0 27.7045986056,-26.1777685583,0 27.704629451,-26.1775794625,0 27.7047367394,-26.1768954992,0 27.7047877014,-26.1765776575,0 27.7048306167,-26.1763054132,0 27.7049566805,-26.1756764352,0 27.7050451934,-26.1754605174,0 27.705168575,-26.1752593517,0 27.7051793039,-26.1752486229,0 27.7053228021,-26.1750823259,0 27.7054743469,-26.1749602854,0 27.7057211101,-26.1748154461,0 27.7062763274,-26.1745995283,0 27.7066491544,-26.1744627357,0 27.7072003484,-26.17426157,0 27.7074404061,-26.1741583049,0 27.7074471116,-26.1741247773,0 27.7074497938,-26.1740791798,0 27.7074430883,-26.1740067601,0 27.7074256539,-26.1739571393,0 27.7074122429,-26.173927635,0 27.7073961496,-26.1738914251,0 27.7073398232,-26.1738565564,0 27.7068047225,-26.173530668,0 27.7067470551,-26.1734890938,0 27.7061167359,-26.1731189489,0 27.7054207027,-26.1727099121,0 27.7050867677,-26.172516793,0 27.7047488093,-26.1723008752,0 27.7045798302,-26.1722069979,0 27.7041935921,-26.1719857156,0 27.7039535344,-26.1718448997,0 27.7028511465,-26.1711984873,0 27.7021028101,-26.170758605,0 27.7019324899,-26.1706580222,0 27.7015060186,-26.1704045534,0 27.7010983229,-26.1701631546,0 27.7010419965,-26.1701309681,0 27.7009561658,-26.1700813472,0 27.700599432,-26.1698278785,0 27.7001206577,-26.1695086956,0 27.6997196674,-26.1692123115,0 27.6995909214,-26.1691224575,0 27.6993092895,-26.1689266562,0 27.6988935471,-26.1686262488,0 27.6988117397,-26.168551147,0 27.6986186206,-26.1682923138,0 27.6985649765,-26.1682198942,0 27.6982940733,-26.1678551137,0 27.698122412,-26.167615056,0 27.6979963481,-26.1674393713,0 27.6978434622,-26.1672261357,0 27.6976047456,-26.166870743,0 27.6971487701,-26.1662578583,0 27.6970776916,-26.1661626399,0 27.6967638731,-26.1657254398,0 27.6965492964,-26.1654277146,0 27.6960423589,-26.1647129059,0 27.6954361796,-26.1638478935,0 27.6950928569,-26.1632122099,0 27.6945148408,-26.1621326208,0 27.6938992739,-26.1609752476,0 27.6938804984,-26.1609376967,0 27.6936793327,-26.1605527997,0 27.6934379339,-26.1600901186,0 27.6929605007,-26.1592049897,0 27.6927807927,-26.1588723958,0 27.6926359534,-26.1586068571,0 27.6926212013,-26.1585813761,0 27.6922617853,-26.1579108238,0 27.6921544969,-26.1577002704,0 27.6920954883,-26.1575527489,0 27.692027092,-26.1572536826,0 27.691962719,-26.1568915844,0 27.6918393373,-26.1562894285,0 27.6917266846,-26.1556886137,0 27.6915630698,-26.15485847,0 27.6914048195,-26.154012233,0 27.6911272109,-26.1526013911,0 27.6909220219,-26.1515150964,0 27.6908938587,-26.1514024436,0 27.691372633,-26.1514440179,0 27.6925930381,-26.1515553296,0 27.6927794516,-26.1515714228,0 27.6934379339,-26.1516264081,0 27.6945134997,-26.1517256498,0 27.695312798,-26.1517940462,0 27.6957795024,-26.1518369615,0 27.6969918609,-26.1519442499,0 27.6974599063,-26.1519858241,0 27.6978220046,-26.1520180106,0 27.6980499923,-26.1520260572,0 27.6977978647,-26.1513461173,0 27.6976060867,-26.1508217454,0 27.6975752413,-26.150675565,0 27.6975524426,-26.1504770815,0 27.6975095272,-26.1499044299,0 27.6974706352,-26.1497595906,0 27.6974545419,-26.1497327685,0 27.6973968744,-26.1496241391,0 27.6972842216,-26.1494940519,0 27.6972104609,-26.1494296789,0 27.6971367002,-26.149366647,0 27.6968792081,-26.1491963267,0 27.696582824,-26.1490085721,0 27.6963025331,-26.1488690972,0 27.6962824166,-26.1488610506,0 27.6961389184,-26.1488194764,0 27.6960437,-26.1487980187,0 27.6959766448,-26.1487832665,0 27.6958063245,-26.1487577856,0 27.695504576,-26.1487336457,0 27.6953718066,-26.1487282813,0 27.6942895353,-26.1486893892,0 27.6939542592,-26.1486773193,0 27.693310529,-26.1486384273,0 27.692964524,-26.1486169696,0 27.6926614344,-26.1485633254,0 27.6922886074,-26.1484546959,0 27.6921960711,-26.1484278738,0 27.6911178231,-26.1480523646,0 27.6906940341,-26.1479021609,0 27.6905934513,-26.1478659511,0 27.6901200414,-26.1476996541,0 27.6894012094,-26.1474448442,0 27.6887078583,-26.1472155154,0 27.6882787049,-26.1470653117,0 27.6876913011,-26.1468587816,0 27.6873278618,-26.1467354,0 27.6868155599,-26.1465623975,0 27.686521858,-26.1464631557,0 27.6863622665,-26.1464081705,0 27.6863260567,-26.1463987827,0 27.6862214506,-26.1463652551,0 27.6861409843,-26.1463411152,0 27.6860229671,-26.1463062465,0 27.6858969033,-26.1462526023,0 27.6856152713,-26.1461278796,0 27.685392648,-26.1460232735,0 27.685072124,-26.1458730698,0 27.6846671104,-26.1456799507,0 27.6844324172,-26.145568639,0 27.6838383079,-26.145285666,0 27.6837176085,-26.1452253163,0 27.6833662391,-26.1450630426,0 27.6831610501,-26.1449638009,0 27.683069855,-26.1449208856,0 27.6828995347,-26.1448431015,0 27.6827050745,-26.1447559297,0 27.6822826266,-26.1445480585,0 27.6813974977,-26.1441417038,0 27.6812767982,-26.1440786719,0 27.6811829209,-26.1440397799,0 27.6808610559,-26.1438801885,0 27.6803353429,-26.1436240375,0 27.6798552275,-26.1433772743,0 27.6794663072,-26.1431398988,0 27.6793120801,-26.1430312693,0 27.6792155206,-26.142962873,0 27.6790103316,-26.142808646,0 27.678809166,-26.1426396668,0 27.67843768,-26.1423030496,0 27.6780755818,-26.141911447,0 27.6778073609,-26.1415748298,0 27.6774854958,-26.1410866678,0 27.6774519682,-26.1410397291,0 27.6771904528,-26.140524745,0 27.6769919693,-26.1400580406,0 27.6769423485,-26.1399279535,0 27.6768176258,-26.1395578086,0 27.6767143607,-26.1392506957,0 27.6765628159,-26.1387732625,0 27.6762141287,-26.1376333237,0 27.675909698,-26.1367093027,0 27.6755972207,-26.1357557774,0 27.6752740145,-26.1347781122,0 27.6751412451,-26.134365052,0 27.6748663187,-26.1335577071,0 27.6746222377,-26.1328026652,0 27.674497515,-26.1324191093,0 27.6742601395,-26.1316613853,0 27.6739422977,-26.1307185888,0 27.6736190915,-26.1297127604,0 27.6732851565,-26.1286988854,0 27.6728613675,-26.1274302006,0 27.6725059748,-26.1263103783,0 27.6721170545,-26.1251047254,0 27.6717469096,-26.1239634454,0 27.6713553071,-26.1227242649,0 27.6713392138,-26.1226719618,0 27.6710321009,-26.1217707396,0 27.6706820726,-26.1207072437,0 27.6706270874,-26.1205409467,0 27.6704151928,-26.1198945343,0 27.6702716947,-26.1194707453,0 27.6701000333,-26.1190550029,0 27.6697446406,-26.1182262003,0 27.6695300639,-26.1177782714,0 27.6691760123,-26.1171077192,0 27.6685349643,-26.1160469055,0 27.6683150232,-26.1157344282,0 27.66828686,-26.115694195,0 27.6680025458,-26.1152891815,0 27.6676337421,-26.1148278415,0 27.6672635972,-26.1143490672,0 27.6669377089,-26.1139319837,0 27.6666520536,-26.1135658622,0 27.66624704,-26.1130964756,0 27.6660472155,-26.1128564179,0 27.6655630767,-26.1122784019,0 27.66489923,-26.1114791036,0 27.6644191146,-26.1108957231,0 27.6636680961,-26.1100253463,0 27.6625053585,-26.1086775362,0 27.6618348062,-26.1078353226,0 27.6614378393,-26.1073002219,0 27.6605111361,-26.1059215665,0 27.6599264145,-26.10499084,0 27.6584176719,-26.1023917794,0 27.6573246717,-26.1005169153,0 27.6572053134,-26.1003130674,0 27.655775696,-26.0978923738,0 27.6555195451,-26.0974216461,0 27.655326426,-26.0970394313,0 27.6550702751,-26.0964761674,0 27.6549629867,-26.0961730778,0 27.6547926664,-26.0956098139,0 27.6546451449,-26.0950291157,0 27.6545391977,-26.0944591463,0 27.6544493437,-26.0938382149,0 27.6544037461,-26.0932293534,0 27.6543930173,-26.092761308,0 27.6544104517,-26.0921806097,0 27.6544640958,-26.0915891826,0 27.6545284688,-26.0911211371,0 27.6546250284,-26.0906799138,0 27.6547524333,-26.0901769996,0 27.6548650861,-26.0897867382,0 27.6549066603,-26.0896459222,0 27.6549173892,-26.0896150768,0 27.6549951732,-26.0893857479,0 27.6552835107,-26.088719219,0 27.6555195451,-26.0882230103,0 27.6558722556,-26.0875605047,0 27.6568807662,-26.0857245326,0 27.6578758657,-26.0839274526,0 27.6585303247,-26.0827405751,0 27.6586470008,-26.0825313628,0 27.657340765,-26.0818165541,0 27.6566903293,-26.0814571381,0 27.6564945281,-26.0813485086,0 27.6559795439,-26.0810709,0 27.6558145881,-26.0809823871,0 27.6549214125,-26.0804834962,0 27.6541422307,-26.0800610483,0 27.6538793743,-26.079916209,0 27.6527421176,-26.0792993009,0 27.6516290009,-26.0786877573,0 27.6507626474,-26.0782116652,0 27.6505279541,-26.0780802369,0 27.6498828828,-26.0777208209,0 27.649294138,-26.0773453116,0 27.6489414275,-26.0771039128,0 27.6484961808,-26.0767498612,0 27.6483473182,-26.0766090453,0 27.6478859782,-26.0761651397,0 27.6477639377,-26.0760337114,0 27.6476821303,-26.0759451985,0 27.6475077868,-26.0757561028,0 27.6473334432,-26.0755348206,0 27.6471631229,-26.0753068328,0 27.6470853388,-26.0752035677,0 27.6468063891,-26.0748293996,0 27.6467849314,-26.0747972131,0 27.6465140283,-26.0743868351,0 27.6462645829,-26.0739442706,0 27.6460285485,-26.0734708607,0 27.6458287239,-26.0730041564,0 27.6456543803,-26.0724824667,0 27.6454719901,-26.0718870163,0 27.6453405619,-26.0713666677,0 27.6453003287,-26.071189642,0 27.6452855766,-26.0711252689,0 27.6449784636,-26.0697788,0 27.6449275017,-26.0695521533,0 27.6444071531,-26.0672749579,0 27.6443481445,-26.0670268536,0 27.6443240047,-26.0669222474,0 27.6442314684,-26.0665293038,0 27.6440960169,-26.066070646,0 27.644085288,-26.0660371184,0 27.6440785825,-26.0660170019,0 27.643956542,-26.0656884313,0 27.6439364254,-26.0656347871,0 27.6437500119,-26.0652177036,0 27.6427844167,-26.0629284382,0 27.6425202191,-26.062400043,0 27.6421608031,-26.0617053509,0 27.64119789,-26.0599659383,0 27.6405890286,-26.058934629,0 27.6402845979,-26.0584451258,0 27.6402027905,-26.0583338141,0 27.6401464641,-26.0582453012,0 27.6391084492,-26.0566963255,0 27.6385988295,-26.055931896,0 27.637693584,-26.054572016,0 27.6367990673,-26.0532309115,0 27.6362988353,-26.0524825752,0 27.6362103224,-26.0523498058,0 27.6350368559,-26.05060637,0 27.6339653134,-26.0490010679,0 27.6335576177,-26.0483895242,0 27.6320099831,-26.0460761189,0 27.6312468946,-26.044934839,0 27.6304636896,-26.0437613726,0 27.6296456158,-26.0425369442,0 27.6294538379,-26.0422512889,0 27.6293666661,-26.0421198606,0 27.6290300488,-26.0416156054,0 27.6289978623,-26.0415673256,0 27.6274716854,-26.0392834246,0 27.6274368167,-26.0392324626,0 27.6267340779,-26.0382038355,0 27.6264631748,-26.0378685594,0 27.6262056828,-26.0376150906,0 27.6258744299,-26.037337482,0 27.6256290078,-26.0371550918,0 27.6251475513,-26.036862731,0 27.6245695353,-26.0365998745,0 27.6239821315,-26.0363893211,0 27.6235181093,-26.0362645984,0 27.6203557849,-26.0357227921,0 27.6189784706,-26.0354921222,0 27.616944015,-26.0351514816,0 27.6147258282,-26.0347773135,0 27.6137602329,-26.0346136987,0 27.6121737063,-26.0343468189,0 27.6110605896,-26.0341590643,0 27.6108621061,-26.0341255367,0 27.6101660728,-26.0339967906,0 27.6095746458,-26.0338680446,0 27.6089644432,-26.0337004066,0 27.6083515584,-26.0334871709,0 27.6054359972,-26.0323606431,0 27.6050135493,-26.0321983695,0 27.604816407,-26.0321232677,0 27.6046152413,-26.0320428014,0 27.6029334962,-26.0314191878,0 27.6024439931,-26.0312233865,0 27.6020376384,-26.0311160982,0 27.6019276679,-26.0310906172,0 27.6017211378,-26.0310436785,0 27.6013536751,-26.0309591889,0 27.6009567082,-26.0308666527,0 27.6008199155,-26.0308344662,0 27.5998771191,-26.030613184,0 27.5997617841,-26.0305863619,0 27.5990509987,-26.0304200649,0 27.5986526906,-26.0303275287,0 27.5984568894,-26.0302819312,0 27.5981229544,-26.030202806,0 27.5944013894,-26.0293230414,0 27.5943222642,-26.0293056071,0 27.5938595831,-26.0291661322,0 27.5933392346,-26.028970331,0 27.5928537548,-26.0287450254,0 27.5925479829,-26.0285666585,0 27.5921443105,-26.028303802,0 27.5918130577,-26.0280422866,0 27.5914885104,-26.027751267,0 27.5911532342,-26.0273945332,0 27.5908608735,-26.0270123184,0 27.5906436145,-26.0266877711,0 27.5904612243,-26.0263779759,0 27.5902922451,-26.0260131955,0 27.5902587175,-26.0259394348,0 27.5897692144,-26.0249000788,0 27.5893226266,-26.0238929093,0 27.5891630352,-26.0235334933,0 27.5890356302,-26.0232438147,0 27.5887070596,-26.0226094723,0 27.5884576142,-26.0221776366,0 27.5882618129,-26.0218785703,0 27.588108927,-26.0216720402,0 27.5878058374,-26.0212616622,0 27.5876154006,-26.0210376978,0 27.5875389576,-26.0209478438,0 27.5872640312,-26.0206595063,0 27.5869716704,-26.02036044,0 27.5863654912,-26.0198146105,0 27.5860154629,-26.019526273,0 27.5856949389,-26.0192862153,0 27.5847347081,-26.0186451674,0 27.5838120282,-26.0180269182,0 27.5837288797,-26.0179719329,0 27.5833815336,-26.0177399218,0 27.5807864964,-26.01607427,0 27.5803264976,-26.0157926381,0 27.5794064999,-26.0152830184,0 27.5790819526,-26.0151033103,0 27.5767712295,-26.0138815641,0 27.5759612024,-26.0134269297,0 27.5741332769,-26.0124023259,0 27.571516782,-26.0109016299,0 27.571067512,-26.0106374323,0 27.5699731708,-26.0099253058,0 27.5678448379,-26.0083602369,0 27.5678005815,-26.0083307326,0 27.567563206,-26.0081738234,0 27.5673566759,-26.0080571473,0 27.5670455396,-26.0079243779,0 27.5667893887,-26.0078573227,0 27.5667196512,-26.0078506172,0 27.5664688647,-26.0078278184,0 27.5662113726,-26.0078345239,0 27.5659994781,-26.0078693926,0 27.5659190118,-26.0078814626,0 27.5658224523,-26.0079149902,0 27.5656092167,-26.0079847276,0 27.5654684007,-26.0080584884,0 27.5653986633,-26.0080879927,0 27.5653409958,-26.0081282258,0 27.5652833283,-26.0081698,0 27.5651277602,-26.0082770884,0 27.5646583736,-26.0086150467,0 27.5640548766,-26.0091394186,0 27.5629216433,-26.0101211071,0 27.5626547635,-26.0103531182,0 27.5622873008,-26.0106052458,0 27.5620566308,-26.0107339919,0 27.5618138909,-26.0108412802,0 27.5615496933,-26.0109271109,0 27.5612640381,-26.0109834373,0 27.5608979166,-26.0110263526,0 27.5606055558,-26.011043787,0 27.5602944195,-26.0110156238,0 27.5598920882,-26.0109338164,0 27.5595957041,-26.0108453035,0 27.5592215359,-26.0106803477,0 27.5585053861,-26.010273993,0 27.5573895872,-26.0096034408,0 27.5570181012,-26.0093539953,0 27.5567512214,-26.0091474652,0 27.556501776,-26.0089409351,0 27.5564669073,-26.0089047253,0 27.5559385121,-26.0083307326,0 27.5552263856,-26.0074844956,0 27.5551606715,-26.0074080527,0 27.5545397401,-26.0066758096,0 27.5544016063,-26.006513536,0 27.554141432,-26.0062493384,0 27.554051578,-26.0061688721,0 27.5540287793,-26.0061460733,0 27.5537914038,-26.0059355199,0 27.5535580516,-26.0057558119,0 27.5533743203,-26.005614996,0 27.5517462194,-26.0044053197,0 27.5513291359,-26.0040874779,0 27.5494515896,-26.0026484728,0 27.5485610962,-26.0019953549,0 27.5483867526,-26.0018666089,0 27.5478006899,-26.0014361143,0 27.5477416813,-26.0013864934,0 27.5476303697,-26.0012939572,0 27.5466580689,-26.0004879534,0 27.5464957952,-26.0003444552,0 27.5458185375,-25.9997946024,0 27.5454457104,-25.9994968772,0 27.5452029705,-25.9993077815,0 27.5451506674,-25.9992675483,0 27.5449964404,-25.9991455078,0 27.5448435545,-25.9990221262,0 27.5442226231,-25.9985366464,0 27.5441622734,-25.9984789789,0 27.544144839,-25.9984628856,0 27.5440576673,-25.9983770549,0 27.5439704955,-25.9982416034,0 27.5439168513,-25.9981021285,0 27.5439034402,-25.998069942,0 27.5438645482,-25.9978996217,0 27.543861866,-25.9977145493,0 27.5438860059,-25.9973819554,0 27.5439758599,-25.9964163601,0 27.5439785421,-25.9960448742,0 27.5439396501,-25.9957887232,0 27.5439034402,-25.9956492484,0 27.5438511372,-25.9954467416,0 27.5435198843,-25.9941539168,0 27.5434863567,-25.994027853,0 27.5433656573,-25.9936389327,0 27.5431658328,-25.9931252897,0 27.5429338217,-25.9925767779,0 27.5424054265,-25.9913228452,0 27.5419092178,-25.9901587665,0 27.5417536497,-25.9897953272,0 27.5413969159,-25.9890215099,0 27.5413767993,-25.9889759123,0 27.5412869453,-25.9886728227,0 27.5412480533,-25.9884019196,0 27.5412480533,-25.9881699085,0 27.5412708521,-25.9877367318,0 27.5412869453,-25.9874242544,0 27.541269511,-25.9872150421,0 27.5412158668,-25.9870259464,0 27.5411273539,-25.9868502617,0 27.5410629809,-25.9867577255,0 27.5401054323,-25.9857974946,0 27.5400678813,-25.9857599437,0 27.5399002433,-25.9855923057,0 27.5395582616,-25.9852208197,0 27.5394254923,-25.9850330651,0 27.5392082334,-25.9846682847,0 27.5389869511,-25.9842297435,0 27.538882345,-25.9840205312,0 27.5387187302,-25.9836892784,0 27.5383847952,-25.9830214083,0 27.5382989645,-25.9827746451,0 27.5382882357,-25.9826150537,0 27.5383070111,-25.9823441505,0 27.5383499265,-25.9821416438,0 27.5385028124,-25.9817031026,0 27.5387696922,-25.9808836877,0 27.5389869511,-25.9802117944,0 27.539024502,-25.9801085293,0 27.5393973291,-25.9790571034,0 27.5395649672,-25.9786762297,0 27.5397285819,-25.9783691168,0 27.5398465991,-25.978205502,0 27.5398640335,-25.9781894088,0 27.5400289893,-25.9780338407,0 27.5403106213,-25.9778380394,0 27.5404594839,-25.9776958823,0 27.5406458974,-25.9774920344,0 27.5408551097,-25.9771715105,0 27.5409664214,-25.9769327939,0 27.5410093367,-25.9767758846,0 27.5410227478,-25.9765934944,0 27.5410053134,-25.9764043987,0 27.5409704447,-25.9762045741,0 27.5409087539,-25.976036936,0 27.5408484042,-25.9759376943,0 27.5407089293,-25.9757633507,0 27.5405278802,-25.9755916893,0 27.5398680568,-25.975099504,0 27.5397433341,-25.9750029445,0 27.5395327806,-25.9748540819,0 27.5393114984,-25.9747427702,0 27.5390942395,-25.9746824205,0 27.5385805964,-25.9746073186,0 27.5383633375,-25.9745550156,0 27.5382131338,-25.9744919837,0 27.5381661952,-25.9744638205,0 27.5379744172,-25.9743511677,0 27.5377719104,-25.9741902351,0 27.5371992588,-25.9736323357,0 27.5370517373,-25.9734888375,0 27.5369162858,-25.9733386338,0 27.5368304551,-25.9732031822,0 27.5366842747,-25.9728531539,0 27.5365447998,-25.9724977612,0 27.5364884734,-25.9722295403,0 27.5364710391,-25.9719344974,0 27.5365421176,-25.971031934,0 27.5365447998,-25.9707891941,0 27.5364992023,-25.9705612063,0 27.5364415348,-25.970441848,0 27.5363852084,-25.9703224897,0 27.5362457335,-25.9701400995,0 27.5357428193,-25.9696023166,0 27.5353834033,-25.9692201018,0 27.5353552401,-25.9691892564,0 27.5351259112,-25.9689612687,0 27.5347611308,-25.968670249,0 27.5345733762,-25.9685227275,0 27.5324597955,-25.966835618,0 27.5318790972,-25.966372937,0 27.5311401486,-25.9656836092,0 27.528744936,-25.9632991254,0 27.5284700096,-25.963024199,0 27.5272361934,-25.9616348147,0 27.5269424915,-25.961304903,0 27.5268808007,-25.9612351656,0 27.5264838338,-25.9606571496,0 27.526255846,-25.9602977335,0 27.5260318816,-25.9598980844,0 27.5258736312,-25.9596043825,0 27.5255464017,-25.9589955211,0 27.5254565477,-25.9588265419,0 27.5253801048,-25.9586843848,0 27.5248557329,-25.9577013552,0 27.5245915353,-25.9572520852,0 27.5244279206,-25.9569999576,0 27.524124831,-25.9565681219,0 27.5238955021,-25.9562717378,0 27.5230868161,-25.9553302824,0 27.5228668749,-25.955080837,0 27.5214077532,-25.9534232318,0 27.5199392438,-25.9517656267,0 27.5196750462,-25.9514947236,0 27.5192579627,-25.9511205554,0 27.5178779662,-25.9499336779,0 27.5176137686,-25.94972983,0 27.5172503293,-25.9494803846,0 27.5167500973,-25.9491679072,0 27.5156356394,-25.9484705329,0 27.5154317915,-25.948343128,0 27.5153070688,-25.9482653439,0 27.5148899853,-25.9480038285,0 27.514038384,-25.9474767745,0 27.5137460232,-25.947266221,0 27.5135006011,-25.9470637143,0 27.5132967532,-25.9468665719,0 27.5131358206,-25.9466814995,0 27.5126342475,-25.9460149705,0 27.5125859678,-25.9459505975,0 27.5110222399,-25.9438182414,0 27.5108371675,-25.9435728192,0 27.5106802583,-25.9434118867,0 27.5104911625,-25.9432522953,0 27.5102806091,-25.9431087971,0 27.5100633502,-25.9430028498,0 27.5097173452,-25.9428848326,0 27.5093820691,-25.9428164363,0 27.5060306489,-25.9424033761,0 27.5059984624,-25.9423993528,0 27.5025907159,-25.9419862926,0 27.5001887977,-25.9416872263,0 27.497369796,-25.9413412213,0 27.4958476424,-25.9411467612,0 27.4941498041,-25.9409308434,0 27.4940291047,-25.9409160912,0 27.4919088185,-25.9406559169,0 27.4911524355,-25.9405633807,0 27.4908949435,-25.9405311942,0 27.4908533692,-25.9405258298,0 27.4904631078,-25.9404788911,0 27.4874483049,-25.9400980175,0 27.4859690666,-25.9399089217,0 27.4855653942,-25.9398579597,0 27.4852046371,-25.9398110211,0 27.4846561253,-25.9397654235,0 27.4835416675,-25.939694345,0 27.4818210304,-25.9395830333,0 27.4814294279,-25.9395481646,0 27.4811048806,-25.9394945204,0 27.4808084965,-25.9394086897,0 27.4804919958,-25.939283967,0 27.4786345661,-25.9384498,0 27.4753287435,-25.9369517863,0 27.4722348154,-25.9355583787,0 27.4720068276,-25.935433656,0 27.4717533588,-25.9352660179,0 27.4715468287,-25.935113132,0 27.4711860716,-25.9347778559,0 27.4703921378,-25.9340254962,0 27.4696317315,-25.933329463,0 27.4694667757,-25.9331926703,0 27.4691395462,-25.9329204261,0 27.4687023461,-25.9325918555,0 27.4686540663,-25.9325556457,0 27.4680022895,-25.9320674837,0 27.4653925002,-25.9301778674,0 27.4650371075,-25.9299243987,0 27.4650076032,-25.929902941,0 27.4637067318,-25.9289735556,0 27.463375479,-25.9287308156,0 27.4631541967,-25.9286020696,0 27.4628189206,-25.9284384549,0 27.4625909328,-25.9283392131,0 27.4622918665,-25.9282426536,0 27.4618063867,-25.9281460941,0 27.4596820772,-25.9278966486,0 27.4594286084,-25.9278644621,0 27.4591402709,-25.9277866781,0 27.4588693678,-25.927683413,0 27.4586199224,-25.9275399148,0 27.4584764242,-25.9274473786,0 27.4582310021,-25.9272260964,0 27.4580419064,-25.9269954264,0 27.4579064548,-25.9267526865,0 27.4578246474,-25.9265354276,0 27.457678467,-25.9259037673,0 27.4571500719,-25.923487097,0 27.4570146203,-25.9228943288,0 27.4568402767,-25.9223203361,0 27.4568080902,-25.9222264588,0 27.4567008018,-25.9219112992,0 27.4565157294,-25.9214472771,0 27.4562729895,-25.9209054708,0 27.4560852349,-25.9204830229,0 27.4556198716,-25.9194436669,0 27.4555246532,-25.9192331135,0 27.4554388225,-25.9190413356,0 27.4546730518,-25.9173823893,0 27.4544799328,-25.9170055389,0 27.4542559683,-25.9166447818,0 27.4540695548,-25.9163913131,0 27.4536953866,-25.9160466492,0 27.4534352124,-25.9158548713,0 27.4532260001,-25.9157422185,0 27.4527418613,-25.9155289829,0 27.4515576661,-25.9150314331,0 27.4504633248,-25.9145781398,0 27.4500462413,-25.9144386649,0 27.4497243762,-25.9143300354,0 27.4492777884,-25.9142294526,0 27.4492187798,-25.9142160416,0 27.4489089847,-25.9141784906,0 27.4482518435,-25.9141328931,0 27.4462066591,-25.9140363336,0 27.4457265437,-25.9140135348,0 27.4455656111,-25.9140054882,0 27.4441628158,-25.9139370918,0 27.4438007176,-25.9139223397,0 27.443485558,-25.9139089286,0 27.4429102242,-25.9138847888,0 27.4414980412,-25.9137184918,0 27.4398605525,-25.9134623408,0 27.4359606206,-25.9129406512,0 27.433680743,-25.9126093984,0 27.429304719,-25.9121869504,0 27.4281191826,-25.9120582044,0 27.4271455407,-25.9119066596,0 27.4265500903,-25.9117484093,0 27.4259760976,-25.9115378559,0 27.4252291024,-25.9111824632,0 27.4242272973,-25.9106513858,0 27.4216899276,-25.9093035758,0 27.4196514487,-25.9082320333,0 27.4162343144,-25.9064362943,0 27.4135185778,-25.9049731493,0 27.4126347899,-25.904482305,0 27.411827445,-25.9039914608,0 27.41149351,-25.903763473,0 27.411352694,-25.9036669135,0 27.4094805121,-25.9020213783,0 27.407348156,-25.9001974761,0 27.406822443,-25.899746865,0 27.4061304331,-25.8991540968,0 27.4053150415,-25.8984299004,0 27.4048000574,-25.8979859948,0 27.4045157433,-25.8977513015,0 27.4041160941,-25.897449553,0 27.4037231505,-25.8972001076,0 27.4032859504,-25.8969587088,0 27.4027347565,-25.8967253566,0 27.401240766,-25.8962036669,0 27.3984633386,-25.8952233195,0 27.3974373937,-25.8948612213,0 27.396351099,-25.8944615722,0 27.395529002,-25.894189328,0 27.3950301111,-25.8939774334,0 27.3947136104,-25.8937963843,0 27.3929701746,-25.8925813437,0 27.3902986944,-25.8905442059,0 27.3873563111,-25.8883179724,0 27.3870451748,-25.8880926669,0 27.3846325278,-25.8863411844,0 27.3828206956,-25.8849906921,0 27.3814031482,-25.8839191496,0 27.3804442585,-25.8832928538,0 27.3795832694,-25.8827872574,0 27.3775689304,-25.881768018,0 27.3732827604,-25.8796410263,0 27.3730266094,-25.8795122802,0 27.3700533807,-25.8780182898,0 27.3674422503,-25.8766597509,0 27.3657135665,-25.8758068085,0 27.3633076251,-25.8745998144,0 27.3622736335,-25.8740794659,0 27.3613898456,-25.8736489713,0 27.3604014516,-25.873272121,0 27.3593151569,-25.872939527,0 27.3584850132,-25.8727289736,0 27.3571117222,-25.8724138141,0 27.3569561541,-25.8723776042,0 27.3566745222,-25.8723132312,0 27.3565806448,-25.8722944558,0 27.3560938239,-25.8721978962,0 27.3529314995,-25.8715742826,0 27.3517647386,-25.871335566,0 27.3488263786,-25.8707360923,0 27.3477172852,-25.8705094457,0 27.3471969366,-25.8703820407,0 27.3466980457,-25.8702157438,0 27.3462300003,-25.8700118959,0 27.3453998566,-25.8695666492,0 27.3410385847,-25.8672344685,0 27.341029197,-25.8672304451,0 27.3373948038,-25.8652576804,0 27.3356661201,-25.8643296361,0 27.3347528279,-25.8638387918,0 27.3337121308,-25.8633103967,0 27.3329718411,-25.862993896,0 27.3322851956,-25.8627524972,0 27.3317044973,-25.8625862002,0 27.3311385512,-25.8624655008,0 27.3305122554,-25.8623676002,0 27.3290558159,-25.8622173965,0 27.3227244616,-25.8618620038,0 27.3161289096,-25.8615227044,0 27.3136894405,-25.8613711596,0 27.3129598796,-25.8613269031,0 27.3112016916,-25.8612290025,0 27.3102508485,-25.8611083031,0 27.3097157478,-25.8610251546,0 27.3058453202,-25.8603478968,0 27.3034930229,-25.8599415421,0 27.3031657934,-25.8598852158,0 27.3010227084,-25.8595150709,0 27.2993396223,-25.8592294157,0 27.298964113,-25.8591771126,0 27.2983539104,-25.8590939641,0 27.2978831828,-25.8590631187,0 27.2972045839,-25.8590550721,0 27.2954839468,-25.8590470254,0 27.293831706,-25.8590403199,0 27.293189317,-25.8589799702,0 27.2924047709,-25.8588592708,0 27.2921714187,-25.8588096499,0 27.291970253,-25.8587680757,0 27.2918321192,-25.8587385714,0 27.2912500799,-25.8585722744,0 27.2908423841,-25.8584435284,0 27.2901490331,-25.8581578732,0 27.2897185385,-25.8579459786,0 27.2891378403,-25.8575919271,0 27.2880515456,-25.8568663895,0 27.2868204117,-25.8559463918,0 27.2861793637,-25.8554783463,0 27.285681814,-25.8550706506,0 27.2847832739,-25.8542566001,0 27.2835534811,-25.8530563116,0 27.2829124331,-25.8524300158,0 27.2824443877,-25.8520075679,0 27.282088995,-25.8516977727,0 27.281010747,-25.8508823812,0 27.279856056,-25.8500723541,0 27.2785806656,-25.8491778374,0 27.2772449255,-25.8481062949,0 27.2767849267,-25.8477213979,0 27.2762565315,-25.847261399,0 27.2751165926,-25.8461818099,0 27.2746056318,-25.8456802368,0 27.2735622525,-25.8446569741,0 27.2721514106,-25.8432541788,0 27.2716605663,-25.8427338302,0 27.2714567184,-25.8424843848,0 27.2713373601,-25.8422724903,0 27.2712314129,-25.8420847356,0 27.2711549699,-25.841820538,0 27.2710691392,-25.8413015306,0 27.2710342705,-25.8410426974,0 27.2710195184,-25.840574652,0 27.2709967196,-25.8388473094,0 27.270951122,-25.8382880688,0 27.2708840668,-25.8379943669,0 27.2707633674,-25.8377154171,0 27.2705890238,-25.8374136686,0 27.2703623772,-25.8370891213,0 27.2700767219,-25.8367793262,0 27.2696234286,-25.8363796771,0 27.2691379488,-25.8360014856,0 27.2687409818,-25.8356930315,0 27.2683641315,-25.8353684843,0 27.2679711878,-25.8349983394,0 27.267511189,-25.8345463872,0 27.2670954466,-25.8340018988,0 27.2670310736,-25.8339039981,0 27.2661298513,-25.8325240016,0 27.2643783689,-25.8297841251,0 27.2640015185,-25.8291658759,0 27.2637453675,-25.8286441863,0 27.2635187209,-25.8281694353,0 27.2632022202,-25.8273473382,0 27.2629192472,-25.8265091479,0 27.2627797723,-25.8260947466,0 27.261300534,-25.8216114342,0 27.2607265413,-25.8199068904,0 27.2602745891,-25.8186690509,0 27.2600398958,-25.8180883527,0 27.2592325509,-25.8164508641,0 27.2571766376,-25.8123672009,0 27.2567126155,-25.811471343,0 27.2561989725,-25.8106707036,0 27.2559119761,-25.8102174103,0 27.2557242215,-25.8099679649,0 27.2554895282,-25.8097265661,0 27.2552414238,-25.8095388114,0 27.2547961771,-25.8092746139,0 27.254357636,-25.8090560138,0 27.2541497648,-25.8089822531,0 27.2540666163,-25.8089540899,0 27.2517398,-25.8081427217,0 27.2511698306,-25.8079536259,0 27.2497214377,-25.8074721694,0 27.2467415035,-25.8064448833,0 27.2453722358,-25.8059687912,0 27.2437025607,-25.8053894341,0 27.2422206402,-25.8048959076,0 27.2419001162,-25.8047805727,0 27.2415313125,-25.8046290278,0 27.2412081063,-25.804477483,0 27.2409184277,-25.8043192327,0 27.2406354547,-25.8041475713,0 27.2404168546,-25.8040094376,0 27.2401995957,-25.8038377762,0 27.2398240864,-25.8035601676,0 27.2394888103,-25.8032503724,0 27.2391320765,-25.8028882742,0 27.238908112,-25.8026374876,0 27.23865062,-25.8023223281,0 27.2384923697,-25.8020916581,0 27.2383019328,-25.8017617464,0 27.2381302714,-25.8014251292,0 27.2380484641,-25.8012212813,0 27.2379720211,-25.8010201156,0 27.2377681732,-25.8003777266,0 27.2376917303,-25.8000893891,0 27.237662226,-25.7999753952,0 27.2376032174,-25.7996924222,0 27.2375106812,-25.7990124822,0 27.2372961044,-25.7973951101,0 27.2370386124,-25.7954330742,0 27.2370332479,-25.7953915,0 27.2368575633,-25.7942515612,0 27.2367797792,-25.7937459648,0 27.2366335988,-25.7927910984,0 27.2366242111,-25.7926945388,0 27.2365880013,-25.792349875,0 27.2365745902,-25.7919475436,0 27.2365947068,-25.7916511595,0 27.2366671264,-25.7913011312,0 27.2367797792,-25.7908987999,0 27.2368977964,-25.7905688882,0 27.2370225191,-25.7903395593,0 27.2371552885,-25.7901021838,0 27.2373725474,-25.7897990942,0 27.2376233339,-25.78951478,0 27.237919718,-25.7892116904,0 27.2381825745,-25.7889743149,0 27.2383743525,-25.7888361812,0 27.2387337685,-25.7886148989,0 27.2392876446,-25.7883252203,0 27.2405093908,-25.7878236473,0 27.2408433259,-25.7876855135,0 27.241743207,-25.7872992754,0 27.2420194745,-25.7871866226,0 27.2420798242,-25.7871611416,0 27.2427302599,-25.7869036496,0 27.2433646023,-25.786652863,0 27.2434397042,-25.7866220176,0 27.2435081005,-25.7865938544,0 27.2444374859,-25.7862170041,0 27.2463297844,-25.7854485512,0 27.2482810915,-25.784650594,0 27.2487129271,-25.7844427228,0 27.2489127517,-25.7843287289,0 27.2491139174,-25.7842120528,0 27.2491259873,-25.7842053473,0 27.2494317591,-25.7840162516,0 27.2495296597,-25.7839559019,0 27.2496181726,-25.7838928699,0 27.2511389852,-25.7827140391,0 27.2514018416,-25.7825289667,0 27.2515507042,-25.7824377716,0 27.2516164184,-25.7823975384,0 27.2519087791,-25.7822862267,0 27.2522601485,-25.7821883261,0 27.2525672615,-25.7821547985,0 27.2528006136,-25.7821588218,0 27.253113091,-25.782212466,0 27.2537259758,-25.7823827863,0 27.2545212507,-25.782597363,0 27.2547934949,-25.782636255,0 27.255037576,-25.7826322317,0 27.2552078962,-25.7826027274,0 27.2554264963,-25.7825289667,0 27.2555726767,-25.7824511826,0 27.2557926178,-25.7823050022,0 27.2559683025,-25.7821440697,0 27.2563035786,-25.7817256451,0 27.2566013038,-25.7813662291,0 27.2573322058,-25.7805079222,0 27.2574770451,-25.7803550363,0 27.257784158,-25.7801404595,0 27.258028239,-25.7799915969,0 27.2582428157,-25.7798843086,0 27.2584225237,-25.7798480988,0 27.2585351765,-25.7798253,0 27.2587350011,-25.7797850668,0 27.2596362233,-25.7795798779,0 27.2599728405,-25.7795128226,0 27.260646075,-25.7793679833,0 27.2607426345,-25.7793451846,0 27.2608754039,-25.779311657,0 27.2612643242,-25.7791936398,0 27.2614091635,-25.77914536,0 27.2616103292,-25.779055506,0 27.2617001832,-25.7790125906,0 27.262160182,-25.7787792385,0 27.2625759244,-25.7785512507,0 27.262634933,-25.7785150409,0 27.26280123,-25.7784064114,0 27.2630265355,-25.7782454789,0 27.2632464767,-25.7780738175,0 27.2632746398,-25.7780523598,0 27.2634932399,-25.7778672874,0 27.2636635602,-25.7777224481,0 27.2644145787,-25.7770290971,0 27.2650060058,-25.7764779031,0 27.2671893239,-25.7744796574,0 27.2697038949,-25.7721488178,0 27.2697213292,-25.772022754,0 27.2701276839,-25.7716526091,0 27.2703127563,-25.7714541256,0 27.2706761956,-25.7710410655,0 27.2708424926,-25.7708452642,0 27.2709310055,-25.770727247,0 27.2710543871,-25.7705314457,0 27.2711791098,-25.7703343034,0 27.2713105381,-25.7700499892,0 27.2712944448,-25.7700298727,0 27.2712783515,-25.769996345,0 27.2712703049,-25.7699601352,0 27.2712703049,-25.7699239254,0 27.2712783515,-25.7698890567,0 27.2712944448,-25.7698555291,0 27.2713172436,-25.7698246837,0 27.2713467479,-25.7698005438,0 27.2713802755,-25.7697804272,0 27.2714191675,-25.7697683573,0 27.2714352608,-25.7697656751,0 27.2715117037,-25.7695819438,0 27.2715894878,-25.769392848,0 27.2716699541,-25.7690870762,0 27.271797359,-25.768609643,0 27.2718402743,-25.7682676613,0 27.271861732,-25.7678666711,0 27.2718550265,-25.7675568759,0 27.2718469799,-25.7672175765,0 27.2718040645,-25.7665979862,0 27.2717598081,-25.7658751309,0 27.2717289627,-25.7655908167,0 27.2716967762,-25.7652930915,0 27.2716632485,-25.7648143172,0 27.2716458142,-25.7646091282,0 27.2716283798,-25.7643771172,0 27.271605581,-25.7639291883,0 27.2715331614,-25.7629984617,0 27.2714915872,-25.7624472678,0 27.271463424,-25.7622259855,0 27.2714205086,-25.7617901266,0 27.271386981,-25.7617740333,0 27.2713588178,-25.7617539167,0 27.2713440657,-25.7617418468,0 27.2713212669,-25.7617123425,0 27.2713051736,-25.7616788149,0 27.271297127,-25.7616426051,0 27.271297127,-25.7616063952,0 27.2713051736,-25.7615701854,0 27.2713212669,-25.7615366578,0 27.2713440657,-25.7615071535,0 27.2713641822,-25.7614910603,0 27.2713896632,-25.7614736259,0 27.2713588178,-25.7611624897,0 27.2713065147,-25.7604329288,0 27.2712931037,-25.760140568,0 27.2712877393,-25.7600681484,0 27.2712568939,-25.7596242428,0 27.2711831331,-25.7586398721,0 27.2711630166,-25.7584306598,0 27.2710825503,-25.7575978339,0 27.2709846497,-25.7567730546,0 27.2708424926,-25.7551141083,0 27.2708277404,-25.7549276948,0 27.2707821429,-25.754570961,0 27.2707781196,-25.7545307279,0 27.2707204521,-25.7540787756,0 27.2706775367,-25.7540693879,0 27.2706587613,-25.7540626824,0 27.2706238925,-25.7540439069,0 27.2705930471,-25.7540184259,0 27.2705702484,-25.7539889216,0 27.2705541551,-25.753955394,0 27.2705447674,-25.7539191842,0 27.2705447674,-25.7538829744,0 27.2705541551,-25.7538481057,0 27.2705702484,-25.7538145781,0 27.2705930471,-25.7537837327,0 27.2706238925,-25.7537595928,0 27.2706413269,-25.7537488639,0 27.2706748545,-25.7537341118,0 27.2706493735,-25.7535463572,0 27.2706373036,-25.7534269989,0 27.2706265748,-25.753275454,0 27.2705635428,-25.7526022196,0 27.2704482079,-25.7513509691,0 27.2703959048,-25.7510666549,0 27.2703328729,-25.7504336536,0 27.2702993453,-25.7501144707,0 27.2702483833,-25.7496196032,0 27.2702148557,-25.7493165135,0 27.2701786458,-25.7489651442,0 27.2701437771,-25.74868083,0 27.2701022029,-25.7482972741,0 27.270078063,-25.748077333,0 27.2700686753,-25.7478775084,0 27.2700405121,-25.7476146519,0 27.27001369,-25.747448355,0 27.2699949145,-25.7473102212,0 27.2699841857,-25.7472378016,0 27.2699600458,-25.7470755279,0 27.2699452937,-25.7468944788,0 27.2699077427,-25.7466946542,0 27.269872874,-25.746678561,0 27.2698527575,-25.7466651499,0 27.2698393464,-25.74665308,0 27.2698152065,-25.7466249168,0 27.2697991133,-25.7465927303,0 27.2697910666,-25.7465565205,0 27.2697910666,-25.7465216517,0 27.2697991133,-25.7464854419,0 27.2698152065,-25.7464532554,0 27.2698393464,-25.7464250922,0 27.2698500752,-25.7464157045,0 27.2698071599,-25.7462239265,0 27.2697427869,-25.7459194958,0 27.2696878016,-25.7455708086,0 27.2696529329,-25.7453548908,0 27.269628793,-25.7452476025,0 27.2695536911,-25.7449002564,0 27.2695147991,-25.7447420061,0 27.2693914175,-25.744189471,0 27.2693377733,-25.7439883053,0 27.2692988813,-25.7438461483,0 27.2692385316,-25.7436034083,0 27.2692063451,-25.7434907556,0 27.2691781819,-25.7433915138,0 27.2690239549,-25.7428470254,0 27.268897891,-25.7424513996,0 27.2688616812,-25.7423307002,0 27.2687865794,-25.7421027124,0 27.2687262297,-25.7419297099,0 27.2686216235,-25.7416078448,0 27.2685129941,-25.7412685454,0 27.2683735192,-25.740917176,0 27.2682957351,-25.7407066226,0 27.2682394087,-25.7405523956,0 27.268140167,-25.7402680814,0 27.2681133449,-25.7401889563,0 27.2680905461,-25.7401192188,0 27.2680529952,-25.7400119305,0 27.2680288553,-25.7399341464,0 27.2679980099,-25.7398603857,0 27.2679792345,-25.7398013771,0 27.2679416835,-25.7397048175,0 27.2679027915,-25.7396189868,0 27.2678799927,-25.7396189868,0 27.2678424418,-25.7396122813,0 27.2678075731,-25.7395975292,0 27.2677767277,-25.7395760715,0 27.2677512467,-25.7395505905,0 27.2677324712,-25.7395197451,0 27.2677204013,-25.7394862175,0 27.267716378,-25.7394513488,0 27.2677204013,-25.739415139,0 27.2677324712,-25.7393816113,0 27.2677512467,-25.7393507659,0 27.2677820921,-25.739325285,0 27.2677364945,-25.7392273843,0 27.2676506639,-25.7390154898,0 27.2676023841,-25.7388746738,0 27.2675487399,-25.7387177646,0 27.2674454749,-25.7383905351,0 27.2673757374,-25.7381598651,0 27.2673475742,-25.7380646467,0 27.2672791779,-25.7378380001,0 27.2672308981,-25.737695843,0 27.2671799362,-25.7375214994,0 27.2671504319,-25.7374182343,0 27.2671169043,-25.7373256981,0 27.2670941055,-25.7372559607,0 27.2670699656,-25.7371714711,0 27.2670136392,-25.7369635999,0 27.2669774294,-25.7367812097,0 27.2668661177,-25.7363681495,0 27.2668151557,-25.7361629605,0 27.2667749226,-25.7359953225,0 27.2666917741,-25.7356841862,0 27.2666662931,-25.7355715334,0 27.2665737569,-25.735193342,0 27.2664664686,-25.7347601652,0 27.266432941,-25.7346059382,0 27.2664020956,-25.7344906032,0 27.2663538158,-25.7342652977,0 27.2662813962,-25.7340118289,0 27.266241163,-25.7338710129,0 27.2662116587,-25.7337637246,0 27.2660949826,-25.733409673,0 27.266048044,-25.7332567871,0 27.2660265863,-25.7331910729,0 27.2659836709,-25.733063668,0 27.2658763826,-25.7327565551,0 27.2658576071,-25.7327538729,0 27.2658200562,-25.7327404618,0 27.2657851875,-25.7327216864,0 27.2657570243,-25.7326962054,0 27.2657328844,-25.7326667011,0 27.2657167912,-25.7326331735,0 27.2657087445,-25.7325983047,0 27.2657087445,-25.7325607538,0 27.2657167912,-25.7325258851,0 27.2657328844,-25.7324923575,0 27.2657570243,-25.7324628532,0 27.265766412,-25.7324534655,0 27.2657033801,-25.7322871685,0 27.2656188905,-25.7320685685,0 27.2654820979,-25.7317051291,0 27.2653305531,-25.7312947512,0 27.2652983665,-25.7312317193,0 27.26527825,-25.7311914861,0 27.2652205825,-25.7310841978,0 27.2651347518,-25.7309232652,0 27.2647967935,-25.7303331792,0 27.2646787763,-25.7301306725,0 27.2644628584,-25.7297457755,0 27.2642952204,-25.7294520736,0 27.2641812265,-25.729252249,0 27.2639733553,-25.7288901508,0 27.2638660669,-25.7286997139,0 27.2637601197,-25.7285119593,0 27.2635388374,-25.7281297445,0 27.2634623945,-25.7279916108,0 27.2632679343,-25.7276375592,0 27.2630935907,-25.727327764,0 27.2629112005,-25.726980418,0 27.2628562152,-25.7268758118,0 27.2628065944,-25.7267832756,0 27.2627355158,-25.7266451418,0 27.2626322508,-25.7264466584,0 27.2625236213,-25.7262307405,0 27.2624069452,-25.7260014117,0 27.2622849047,-25.7257439196,0 27.2622473538,-25.7256634533,0 27.2621065378,-25.7253603637,0 27.2620368004,-25.7252021134,0 27.2620207071,-25.7251645625,0 27.2619965672,-25.7251122594,0 27.2619456053,-25.7250009477,0 27.2618329525,-25.7247541845,0 27.2617900372,-25.7246549428,0 27.2617793083,-25.7246562839,0 27.2617377341,-25.7246495783,0 27.261698842,-25.7246375084,0 27.2616639733,-25.7246187329,0 27.261634469,-25.7245932519,0 27.2616103292,-25.7245624065,0 27.2615942359,-25.7245288789,0 27.2615861893,-25.7244926691,0 27.2615861893,-25.7244564593,0 27.2615942359,-25.7244202495,0 27.2616103292,-25.7243867218,0 27.261634469,-25.7243572176,0 27.2616545856,-25.7243384421,0 27.2614641488,-25.7238851488,0 27.2613957524,-25.7237201929,0 27.261339426,-25.7235834002,0 27.2612509131,-25.7233446836,0 27.261236161,-25.7233084738,0 27.2609679401,-25.7226365805,0 27.2608485818,-25.7223629951,0 27.2607345879,-25.7220880687,0 27.2606742382,-25.7219338417,0 27.2606232762,-25.7218077779,0 27.2605803609,-25.7216978073,0 27.2604449093,-25.7213652134,0 27.2603872418,-25.7212217152,0 27.260145843,-25.720628947,0 27.2600989044,-25.7205162942,0 27.2598615289,-25.7199288905,0 27.2597180307,-25.7195734978,0 27.2595383227,-25.7191255689,0 27.2594793141,-25.7189793885,0 27.2593170404,-25.7185448706,0 27.2592781484,-25.7184389234,0 27.2590917349,-25.7179373503,0 27.2590555251,-25.7179319859,0 27.259016633,-25.7179185748,0 27.2589831054,-25.7178997993,0 27.2589536011,-25.7178743184,0 27.2589308023,-25.7178448141,0 27.2589147091,-25.7178112864,0 27.2589066625,-25.7177764177,0 27.2589066625,-25.7177402079,0 27.2589147091,-25.7177039981,0 27.2589308023,-25.7176704705,0 27.2589536011,-25.7176409662,0 27.2589763999,-25.7176221907,0 27.2589120269,-25.7174398005,0 27.2585861385,-25.7165050507,0 27.2585700452,-25.7164567709,0 27.2583246231,-25.7156896591,0 27.2582924366,-25.7155837119,0 27.2582736611,-25.7155273855,0 27.2581784427,-25.7151921093,0 27.2580362856,-25.7147106528,0 27.2580268979,-25.7146811485,0 27.2579813004,-25.7145242393,0 27.2578069568,-25.7139287889,0 27.2577425838,-25.7137128711,0 27.2576312721,-25.7133346796,0 27.2574944794,-25.7128545642,0 27.2572691739,-25.7121182978,0 27.2571592033,-25.7117468119,0 27.2570116818,-25.7112452388,0 27.2569620609,-25.7110789418,0 27.256885618,-25.7107906044,0 27.2567649186,-25.7103413343,0 27.2567300498,-25.7102112472,0 27.2565838695,-25.7095178962,0 27.2565288842,-25.7092805207,0 27.2563786805,-25.7086716592,0 27.2562995553,-25.7083551586,0 27.2562405467,-25.7081083953,0 27.256154716,-25.7077006996,0 27.2560313344,-25.7070609927,0 27.2560018301,-25.7069416344,0 27.2559884191,-25.7068692148,0 27.2558771074,-25.7063287497,0 27.255744338,-25.7056970894,0 27.2557108104,-25.7054878771,0 27.2555297613,-25.7046228647,0 27.2554801404,-25.7044136524,0 27.2554063797,-25.7040837407,0 27.2552213073,-25.7032737136,0 27.2551985085,-25.7031784952,0 27.2550885379,-25.7027332485,0 27.2550590336,-25.7026259601,0 27.2549946606,-25.702290684,0 27.2549343109,-25.7020761073,0 27.2548873723,-25.7018762827,0 27.254704982,-25.7010756433,0 27.2546473145,-25.7008261979,0 27.2546191514,-25.700712204,0 27.2544045746,-25.6997586787,0 27.2543482482,-25.6995145977,0 27.2542905807,-25.6992101669,0 27.2542530298,-25.6990197301,0 27.2540988028,-25.6983397901,0 27.2539325058,-25.6975324452,0 27.2538131475,-25.6969504058,0 27.2537004948,-25.696464926,0 27.2534564137,-25.6953531504,0 27.253331691,-25.6947174668,0 27.2532914579,-25.694450587,0 27.2532592714,-25.6942507625,0 27.2532552481,-25.6942158937,0 27.2531935573,-25.6937411427,0 27.253126502,-25.6931188703,0 27.2530943155,-25.6927058101,0 27.2530902922,-25.6926521659,0 27.2530581057,-25.6919293106,0 27.2530581057,-25.6910844147,0 27.2530835867,-25.6905131042,0 27.2531144321,-25.6900061667,0 27.2531318665,-25.6897741556,0 27.2531506419,-25.6895957887,0 27.2530420125,-25.6894442439,0 27.2528837621,-25.6892350316,0 27.2527523339,-25.6890700758,0 27.2526396811,-25.6890432537,0 27.2523245215,-25.6889399886,0 27.2522480786,-25.6888863444,0 27.2521796823,-25.6888380647,0 27.2521206737,-25.6887763739,0 27.2520710528,-25.6886892021,0 27.2520254552,-25.6886020303,0 27.2519624233,-25.6884558499,0 27.2519154847,-25.6883364916,0 27.2518631816,-25.6881594658,0 27.2518993914,-25.6880642474,0 27.2518645227,-25.6878148019,0 27.2518377006,-25.6876015663,0 27.2518189251,-25.6874594092,0 27.2518001497,-25.6872475147,0 27.2517907619,-25.687173754,0 27.251778692,-25.6870879233,0 27.251714319,-25.6864629686,0 27.2515641153,-25.685737431,0 27.2515051067,-25.6854383647,0 27.2514554858,-25.6851822138,0 27.2514340281,-25.6850494444,0 27.251354903,-25.6845492125,0 27.2513468564,-25.6844875216,0 27.2513079643,-25.6841750443,0 27.2512704134,-25.6839229167,0 27.2512328625,-25.6836359203,0 27.2511966527,-25.6833221018,0 27.2511778772,-25.6831759214,0 27.2511510551,-25.6830270588,0 27.2510960698,-25.6826461852,0 27.251085341,-25.6825777888,0 27.2510679066,-25.6824450195,0 27.2510531545,-25.6822948158,0 27.2510290146,-25.6822089851,0 27.2510102391,-25.6821405888,0 27.2509042919,-25.6818240881,0 27.2508318722,-25.6815987825,0 27.2507353127,-25.6813251972,0 27.250700444,-25.6812259555,0 27.2506870329,-25.6811870635,0 27.2506709397,-25.6811414659,0 27.2506655753,-25.6811186671,0 27.2506387532,-25.6810677052,0 27.2506025434,-25.6810234487,0 27.2505649924,-25.6809832156,0 27.250495255,-25.6809362769,0 27.250430882,-25.680898726,0 27.2502981126,-25.6808330119,0 27.2499078512,-25.6806895137,0 27.2491005063,-25.6804145873,0 27.248904705,-25.6803609431,0 27.2487464547,-25.6803193688,0 27.2487330437,-25.6803153455,0 27.2486619651,-25.6802938879,0 27.2484259307,-25.6802228093,0 27.2482314706,-25.680167824,0 27.2475931048,-25.6799907982,0 27.2468581796,-25.679782927,0 27.2466275096,-25.6797158718,0 27.2465524077,-25.6796944141,0 27.2463552654,-25.6796380877,0 27.246197015,-25.6795924902,0 27.2460454702,-25.6795616448,0 27.2458872199,-25.6795401871,0 27.2457785904,-25.6795348227,0 27.2456739843,-25.6795348227,0 27.2455412149,-25.6795468926,0 27.2454755008,-25.679564327,0 27.2453856468,-25.6795763969,0 27.2453065217,-25.6796018779,0 27.2452273965,-25.6796313822,0 27.2451509535,-25.679667592,0 27.2450651228,-25.6797118485,0 27.2450047731,-25.6797520816,0 27.2449457645,-25.6797923148,0 27.2448304296,-25.6798714399,0 27.2446547449,-25.6799948215,0 27.2444669902,-25.6801356375,0 27.2443717718,-25.6802080572,0 27.2440928221,-25.6804105639,0 27.2438420355,-25.6805956364,0 27.2437629104,-25.6806586683,0 27.2436958551,-25.6807163358,0 27.2435684502,-25.6808316708,0 27.2434557974,-25.6809443235,0 27.2433874011,-25.6810127199,0 27.2433109581,-25.6811065972,0 27.2431755066,-25.6812755764,0 27.2430615127,-25.6814177334,0 27.2429743409,-25.681527704,0 27.2426444292,-25.6819461286,0 27.2425827384,-25.6820252538,0 27.242436558,-25.682207644,0 27.2422689199,-25.6824208796,0 27.2422407568,-25.6824584305,0
            </coordinates>
        </LineString>
        </Placemark>
  </Folder>
        </Document>
    </kml>
    