<?xml version="1.0" encoding="UTF-8"?>
    <kml xmlns="http://www.opengis.net/kml/2.2">
    <Document>
        <name>Colored Path</name>
        <Folder>
            <name>Day 5</name>
            <open>1</open>
            <Style id="blackLine">
            <LineStyle>
                <color>ff000000</color>
                <width>4</width>
            </LineStyle>
            </Style>
            <Style id="redLine">
            <LineStyle>
                <color>ff0000ff</color>
                <width>4</width>
            </LineStyle>
            </Style>
        <Placemark>
        <name>Segment 1 (True)</name>
        <styleUrl>#blackLine</styleUrl>
        <LineString>
            <tessellate>1</tessellate>
            <coordinates>
            22.8607611358,-27.9124858975,0 22.8591088951,-27.9127192497,0 22.8587709367,-27.9127635062,0 22.8549796343,-27.9133079946,0 22.8521083295,-27.9136995971,0 22.8507618606,-27.9138940573,0 22.8502951562,-27.9139597714,0 22.8480421007,-27.9142829776,0 22.8466795385,-27.9144760966,0 22.844812721,-27.914737612,0 22.8435842693,-27.9149132967,0 22.8425274789,-27.9150594771,0 22.8408162296,-27.9153008759,0 22.8398613632,-27.9154390097,0 22.8391264379,-27.9155342281,0 22.836766094,-27.9158748686,0 22.8342930973,-27.9162208736,0 22.8329144418,-27.9164153337,0 22.8305272758,-27.916751951,0 22.8275124729,-27.9171743989,0 22.8247068822,-27.9175727069,0 22.8230546415,-27.9177993536,0 22.8211127222,-27.9180836678,0 22.8163383901,-27.9187381268,0 22.813924402,-27.9190894961,0 22.8119073808,-27.9193684459,0 22.8104321659,-27.9195776582,0 22.8083400428,-27.9198713601,0 22.8064034879,-27.9201409221,0 22.8055720031,-27.9202643037,0 22.8046171367,-27.920397073,0 22.8027288616,-27.9206572473,0 22.8007386625,-27.9209415615,0 22.7996711433,-27.921089083,0 22.7975897491,-27.9213881493,0 22.7936254442,-27.9219420254,0 22.7913402021,-27.9222652316,0 22.7870647609,-27.9228620231,0 22.7849780023,-27.9231610894,0 22.7816359699,-27.9236197472,0 22.7795116603,-27.9239241779,0 22.7782832086,-27.9240944982,0 22.7716206014,-27.9250238836,0 22.7676817775,-27.9255737364,0 22.7672807872,-27.9256421328,0 22.7667832375,-27.9257118702,0 22.7656459808,-27.925939858,0 22.7649110556,-27.9260873795,0 22.7643303573,-27.9262255132,0 22.7637080848,-27.9263958335,0 22.7622154355,-27.926774025,0 22.7616132796,-27.9269228876,0 22.7603338659,-27.9272407293,0 22.7587902546,-27.9276430607,0 22.7579949796,-27.9278482497,0 22.7553288639,-27.9285255075,0 22.754970789,-27.9286167026,0 22.753521055,-27.9289868474,0 22.7533976734,-27.9290190339,0 22.7515013516,-27.9295031726,0 22.7513162792,-27.9295501113,0 22.7500744164,-27.9298652709,0 22.7495513856,-27.9299980402,0 22.7482371032,-27.9303319752,0 22.7474243939,-27.9305385053,0 22.7460336685,-27.930893898,0 22.7433742583,-27.9315805435,0 22.7426125109,-27.9317817092,0 22.7424140275,-27.9318313301,0 22.7422262728,-27.9318930209,0 22.7418936789,-27.9320190847,0 22.7417032421,-27.9321116209,0 22.7415047586,-27.9322229326,0 22.7414444089,-27.9322564602,0 22.7413330972,-27.9323194921,0 22.7410112321,-27.9325447977,0 22.7407135069,-27.9327996075,0 22.7405042946,-27.9330208898,0 22.7403487265,-27.9332073033,0 22.7403084934,-27.9332569242,0 22.7402468026,-27.9333427548,0 22.7401556075,-27.9334808886,0 22.7400536835,-27.9336552322,0 22.7399973571,-27.9337652028,0 22.7399142087,-27.9339167476,0 22.7398310602,-27.9341205955,0 22.7397720516,-27.9342935979,0 22.7395869792,-27.9348260164,0 22.7394931018,-27.9351063073,0 22.739468962,-27.9351934791,0 22.7393563092,-27.9355086386,0 22.7392409742,-27.9358492792,0 22.7391819656,-27.9360155761,0 22.7391336858,-27.936155051,0 22.7391014993,-27.9362502694,0 22.7390532196,-27.9363897443,0 22.7390022576,-27.9365345836,0 22.7387742698,-27.9372051358,0 22.7387340367,-27.9373137653,0 22.7384121716,-27.9382672906,0 22.7383773029,-27.9383665323,0 22.7382163703,-27.9388426244,0 22.7380366623,-27.9393455386,0 22.7379991114,-27.9394380748,0 22.7379696071,-27.9395225644,0 22.7378542721,-27.9398618639,0 22.7378408611,-27.9400120676,0 22.7377925813,-27.9401904345,0 22.7377308905,-27.9403996468,0 22.7376933396,-27.9405136406,0 22.7375726402,-27.9408636689,0 22.7373661101,-27.9414564371,0 22.7373312414,-27.9415529966,0 22.7372963727,-27.9416629672,0 22.7371059358,-27.9422289133,0 22.7370013297,-27.9425185919,0 22.7369664609,-27.9426191747,0 22.7368538082,-27.9429276288,0 22.7367304265,-27.9432763159,0 22.7366285026,-27.9435727,0 22.7365882695,-27.9436907172,0 22.73624897,-27.9446603358,0 22.7362342179,-27.9447032511,0 22.7362167835,-27.9447542131,0 22.7361778915,-27.9448641837,0 22.7360974252,-27.945086807,0 22.73603037,-27.9453000426,0 22.7359472215,-27.9455159605,0 22.7358882129,-27.9456889629,0 22.7358587086,-27.9457828403,0 22.7356682718,-27.9463072121,0 22.7355636656,-27.9466196895,0 22.7355207503,-27.9467403889,0 22.7354885638,-27.9468329251,0 22.7351532876,-27.947794497,0 22.7351211011,-27.9478991032,0 22.734797895,-27.9488191009,0 22.734785825,-27.9488539696,0 22.7347509563,-27.9489532113,0 22.7345873415,-27.9494293034,0 22.734555155,-27.9495151341,0 22.7345283329,-27.9495808482,0 22.7345015109,-27.9496358335,0 22.7344827354,-27.9496827722,0 22.7344612777,-27.9497283697,0 22.7344344556,-27.9497806728,0 22.7344076335,-27.949822247,0 22.734375447,-27.9498705268,0 22.7343432605,-27.9499147832,0 22.7343137562,-27.9499657452,0 22.7342735231,-27.9500073195,0 22.7342225611,-27.9500596225,0 22.734131366,-27.9501454532,0 22.7340428531,-27.9502111673,0 22.7339838445,-27.9502420127,0 22.7338953316,-27.9502876103,0 22.7338309586,-27.9503251612,0 22.7337183058,-27.950386852,0 22.733643204,-27.950424403,0 22.7335520089,-27.9504579306,0 22.733412534,-27.9505075514,0 22.7331791818,-27.9505853355,0 22.7330262959,-27.9506336153,0 22.7328304946,-27.9506993294,0 22.7327097952,-27.9507476091,0 22.7326400578,-27.9507730901,0 22.7325086296,-27.9508374631,0 22.7324254811,-27.9508817196,0 22.7323047817,-27.9509501159,0 22.7321599424,-27.9510426521,0 22.7321130037,-27.9510802031,0 22.7320955694,-27.9510949552,0 22.7320338786,-27.9511459172,0 22.7319721878,-27.9512035847,0 22.7319172025,-27.9512625933,0 22.731808573,-27.9513859749,0 22.731757611,-27.9514476657,0 22.7317133546,-27.9515093565,0 22.7316664159,-27.9515790939,0 22.7316114306,-27.9516756535,0 22.7315805852,-27.9517346621,0 22.7315591276,-27.951772213,0 22.73151353,-27.9518540204,0 22.7314679325,-27.951965332,0 22.7314424515,-27.9520538449,0 22.7314183116,-27.9521343112,0 22.7314022183,-27.9522107542,0 22.731384784,-27.9522992671,0 22.7313686907,-27.9523824155,0 22.7313552797,-27.9524722695,0 22.7313445508,-27.9526023567,0 22.7313418686,-27.9529201984,0 22.7313686907,-27.9534941912,0 22.7313378453,-27.953555882,0 22.7313660085,-27.954018563,0 22.731435746,-27.9550284147,0 22.7314411104,-27.9551330209,0 22.7314652503,-27.9554146528,0 22.7314800024,-27.9555863142,0 22.7315068245,-27.9558478296,0 22.7315229177,-27.9559980333,0 22.7315819263,-27.9568040371,0 22.7316181362,-27.9571741819,0 22.7316623926,-27.9577562213,0 22.731693238,-27.9581692815,0 22.7318286896,-27.959690094,0 22.7318930626,-27.9605416954,0 22.7319681644,-27.9613383114,0 22.7319949865,-27.9616132379,0 22.7319949865,-27.9616226256,0 22.7320861816,-27.9628457129,0 22.7321532369,-27.9636624455,0 22.7321451902,-27.9645086825,0 22.7321076393,-27.9650464654,0 22.7320995927,-27.9651604593,0 22.7320808172,-27.9652503133,0 22.7319467068,-27.9659248888,0 22.7317844331,-27.9665029049,0 22.7316704392,-27.9668140411,0 22.7315175533,-27.9672284424,0 22.7310454845,-27.9682651162,0 22.7304661274,-27.9694694281,0 22.7278912067,-27.9748512805,0 22.7259117365,-27.9789872468,0 22.7234762907,-27.9840753973,0 22.7225482464,-27.9860307276,0 22.7215451002,-27.9881536961,0 22.72113204,-27.9889878631,0 22.7207243443,-27.9897683859,0 22.7203756571,-27.9903464019,0 22.7199840546,-27.9909619689,0 22.719475776,-27.9916861653,0 22.7190868556,-27.9921676219,0 22.7187716961,-27.9925632477,0 22.7181172371,-27.9932700098,0 22.7156066895,-27.9958838224,0 22.7147108316,-27.9968212545,0 22.713316083,-27.9982481897,0 22.7126026154,-27.9989616573,0 22.712213695,-27.9993224144,0 22.7112829685,-28.0001029372,0 22.7106124163,-28.0005763471,0 22.7094617486,-28.0013555288,0 22.7086436749,-28.0018155277,0 22.7069123089,-28.0027288198,0 22.7047048509,-28.003872782,0 22.7031411231,-28.0046908557,0 22.7017664909,-28.0053412914,0 22.7001866698,-28.0059930682,0 22.6989085972,-28.0064369738,0 22.690435499,-28.0093511939,0 22.6853138208,-28.0111147463,0 22.6822654903,-28.0121782422,0 22.6814635098,-28.0124410987,0 22.6801452041,-28.0129252374,0 22.6794853806,-28.0132269859,0 22.6785412431,-28.013703078,0 22.6779457927,-28.0140517652,0 22.6770325005,-28.0146002769,0 22.6760320365,-28.0153231323,0 22.6743409038,-28.0164898932,0 22.6720529795,-28.0180777609,0 22.6668588817,-28.0216853321,0 22.6659791172,-28.0223183334,0 22.6652723551,-28.0229057372,0 22.66473189,-28.0233670771,0 22.6639151573,-28.0241985619,0 22.6637153327,-28.0244144797,0 22.6633183658,-28.0248677731,0 22.6622870564,-28.0262249708,0 22.6609928906,-28.0280046165,0 22.6596343517,-28.0298298597,0 22.6580625772,-28.031950146,0 22.655839026,-28.0349837244,0 22.6539963484,-28.0374768376,0 22.6512417197,-28.0412091315,0 22.6505711675,-28.0421197414,0 22.6501366496,-28.0426508188,0 22.6496136189,-28.0432100594,0 22.6489725709,-28.0438765883,0 22.6481451094,-28.0446155369,0 22.647318989,-28.0452512205,0 22.6464687288,-28.0458386242,0 22.6442679763,-28.0472373962,0 22.6429657638,-28.0479991436,0 22.6402044296,-28.0497050285,0 22.6375302672,-28.051315695,0 22.6327049732,-28.0542916059,0 22.6298081875,-28.0560699105,0 22.6271340251,-28.0577047169,0 22.6219519973,-28.0608938634,0 22.618984133,-28.0626882613,0 22.6144444942,-28.0654737353,0 22.6125012338,-28.0666713417,0 22.6081989706,-28.0692824721,0 22.6062396169,-28.0705055594,0 22.6009623706,-28.0737268925,0 22.5978121161,-28.0756634474,0 22.5927561522,-28.0787667632,0 22.5889474154,-28.0810908973,0 22.5845190883,-28.0837972462,0 22.58078143,-28.0860757828,0 22.5748296082,-28.0897343159,0 22.5712193549,-28.0919404328,0 22.5670203567,-28.0945113301,0 22.5640685856,-28.0962963402,0 22.5612670183,-28.0980102718,0 22.5577037036,-28.1002016366,0 22.5545226038,-28.102144897,0 22.5521568954,-28.1035892665,0 22.5476494431,-28.1063438952,0 22.5430078804,-28.1091856956,0 22.5418813527,-28.1097958982,0 22.5403900445,-28.1105428934,0 22.5386278331,-28.1113046408,0 22.5376676023,-28.1116452813,0 22.5362715125,-28.1121052802,0 22.5344382226,-28.1126846373,0 22.5290094316,-28.1144066155,0 22.5264063478,-28.115208596,0 22.5176301599,-28.1179940701,0 22.5158759952,-28.1185492873,0 22.5126546621,-28.1195497513,0 22.5104874372,-28.1202404201,0 22.5076778233,-28.1211362779,0 22.5044564903,-28.1221528351,0 22.5014095008,-28.123113066,0 22.4946315587,-28.125256151,0 22.4915845692,-28.1262163818,0 22.486949712,-28.1276835501,0 22.4840140343,-28.1286048889,0 22.4808476865,-28.1295892596,0 22.4786496162,-28.1303107738,0 22.4763590097,-28.1310269237,0 22.4752914906,-28.1313568354,0 22.4722217023,-28.1323358417,0 22.4685618281,-28.133482486,0 22.4675694108,-28.1338003278,0 22.4647665024,-28.1347323954,0 22.4637445807,-28.1350703537,0 22.452558428,-28.1386055052,0 22.4430379272,-28.1415975094,0 22.4418215454,-28.1419797242,0 22.437762022,-28.1432510912,0 22.4352407455,-28.1440664828,0 22.4274140596,-28.1465126574,0 22.4240371585,-28.1475667655,0 22.4210961163,-28.1484921277,0 22.4073779583,-28.1527970731,0 22.4003076553,-28.1550166011,0 22.3972392082,-28.155874908,0 22.3964332044,-28.1561243534,0 22.3936007917,-28.1567828357,0 22.3891054094,-28.1576572359,0 22.3795473576,-28.1593631208,0 22.3719500005,-28.1607484818,0 22.3703433573,-28.1611441076,0 22.3691377044,-28.1614767015,0 22.3677992821,-28.1619125605,0 22.3667626083,-28.1622679532,0 22.3653128743,-28.1629022956,0 22.3624710739,-28.1642246246,0 22.3615390062,-28.1646792591,0 22.3537069559,-28.1684115529,0 22.3499800265,-28.1701630354,0 22.3447027802,-28.1726038456,0 22.3433697224,-28.1732422113,0 22.34295398,-28.1734447181,0 22.3152011633,-28.1846147776,0 22.3151595891,-28.1851485372,0 22.3151247203,-28.1855535507,0 22.3037682474,-28.1913122535,0 22.302133441,-28.1916609406,0 22.301324755,-28.1918406487,0 22.2997060418,-28.1921893358,0 22.2987364233,-28.1923905015,0 22.2967529297,-28.192782104,0 22.2941967845,-28.1933386624,0 22.2907568514,-28.1940467656,0 22.2862158716,-28.194989562,0 22.2829087079,-28.1956829131,0 22.281088829,-28.1960611045,0 22.2589579225,-28.2018345594,0 22.2579091787,-28.2021939754,0 22.2557151318,-28.2029463351,0 22.2535116971,-28.2036705315,0 22.252945751,-28.203882426,0 22.2519828379,-28.2042016089,0 22.2496600449,-28.2049740851,0 22.2473426163,-28.2057639956,0 22.2442728281,-28.206795305,0 22.2415839136,-28.2076951861,0 22.2380071878,-28.2089075446,0 22.2354617715,-28.2097537816,0 22.2347563505,-28.2099924982,0 22.1523521841,-28.2371941209,0 22.1514482796,-28.2372799516,0 22.1491643786,-28.2375347614,0 22.1455930173,-28.2378780842,0 22.1449868381,-28.2379411161,0 22.1421973407,-28.239813298,0 22.1420739591,-28.2396255434,0 22.1332092583,-28.2428991795,0 22.1329021454,-28.2425692677,0 22.1126890182,-28.248668611,0 22.1122813225,-28.2488483191,0 22.1085315943,-28.2504200935,0 22.1066768467,-28.2512569427,0 22.1016356349,-28.253441602,0 22.1006794274,-28.2538560033,0 22.0945841074,-28.2564671338,0 22.0945023,-28.2563209534,0 22.0943386853,-28.2561399043,0 22.0941455662,-28.2559132576,0 22.0940490067,-28.2557603717,0 22.0821480453,-28.2598856091,0 22.0820434391,-28.2597193122,0 22.0820206404,-28.2596871257,0 21.9866319001,-28.2922182977,0 21.986323446,-28.2920050621,0 21.9860927761,-28.2918401062,0 21.9859224558,-28.2916966081,0 21.9423110783,-28.3074183762,0 21.9381013513,-28.3072480559,0 21.8851129711,-28.3260583878,0 21.8846140802,-28.3256734908,0 21.8845751882,-28.3256426454,0 21.8187309802,-28.348287195,0 21.8184064329,-28.3481691778,0 21.8180751801,-28.3480887115,0 21.8177586794,-28.3480672538,0 21.8174354732,-28.3480297029,0 21.8172289431,-28.3479559422,0 21.7137090862,-28.3730506897,0 21.713501215,-28.3730252087,0 21.7100398242,-28.3725853264,0 21.7035837471,-28.3717672527,0 21.7010450363,-28.3714440465,0 21.6993364692,-28.3712254465,0 21.6967669129,-28.3709022403,0 21.6931767762,-28.3704395592,0 21.6882763803,-28.3698239923,0 21.6852401197,-28.3694310486,0 21.684820354,-28.3693787456,0 21.684230268,-28.3693090081,0 21.683434993,-28.3691976964,0 21.6810451448,-28.3688999712,0 21.6789060831,-28.3686250448,0 21.6771693528,-28.3684118092,0 21.6757518053,-28.3682160079,0 21.673643589,-28.3679611981,0 21.6714991629,-28.3676849306,0 21.6689349711,-28.3673456311,0 21.6666778922,-28.3670639992,0 21.6653622687,-28.3669044077,0 21.6635611653,-28.3666710556,0 21.6627658904,-28.3665758371,0 21.6611351073,-28.3663626015,0 21.6603545845,-28.3662673831,0 21.658911556,-28.3660635352,0 21.6585601866,-28.3660340309,0 21.6573129594,-28.3658690751,0 21.6550035775,-28.3655820787,0 21.6530495882,-28.3653272688,0 21.6492059827,-28.3648350835,0 21.6490866244,-28.3648189902,0 21.6488277912,-28.3647854626,0 21.6471084952,-28.3645789325,0 21.6447401047,-28.3642758429,0 21.6427753866,-28.3640263975,0 21.6416341066,-28.3638721704,0 21.640753001,-28.3637608588,0 21.6391865909,-28.3635543287,0 21.6357573867,-28.3631184697,0 21.6322530806,-28.3626946807,0 21.6311962903,-28.3626142144,0 21.6305914521,-28.3625940979,0 21.6297465563,-28.3625726402,0 21.6294702888,-28.362583369,0 21.6292583942,-28.3625780046,0 21.6285207868,-28.3626356721,0 21.6277348995,-28.3626839519,0 21.6267411411,-28.3628167212,0 21.6261202097,-28.3629226685,0 21.6255837679,-28.3630286157,0 21.6233441234,-28.3635020256,0 21.6211031377,-28.3640116453,0 21.6192819178,-28.3644045889,0 21.6166225076,-28.3650040627,0 21.6144190729,-28.3654814959,0 21.6125683486,-28.3658771217,0 21.6096192598,-28.3665329218,0 21.6057273746,-28.3673898876,0 21.6036875546,-28.3678284287,0 21.6008900106,-28.3684574068,0 21.5991935134,-28.3688382804,0 21.5971429646,-28.3692835271,0 21.5934844315,-28.3700868487,0 21.5925469995,-28.3702974021,0 21.5920521319,-28.3704087138,0 21.5908518434,-28.3706782758,0 21.5887583792,-28.3711288869,0 21.5865428746,-28.3716143668,0 21.5837413073,-28.3722379804,0 21.5820233524,-28.3726134896,0 21.5797501802,-28.3731164038,0 21.5780952573,-28.3736085892,0 21.5770371258,-28.3739680052,0 21.5760970116,-28.3743327856,0 21.5735596418,-28.3754110336,0 21.5726342797,-28.3758080006,0 21.5725122392,-28.3758603036,0 21.5713709593,-28.3763471246,0 21.5689972043,-28.3773623407,0 21.5662318468,-28.3785304427,0 21.5646466613,-28.3792077005,0 21.5629018843,-28.3799640834,0 21.561537981,-28.3805139363,0 21.5607346594,-28.3807888627,0 21.5601633489,-28.3809578419,0 21.5594176948,-28.3811482787,0 21.559022069,-28.3812381327,0 21.5584869683,-28.3813279867,0 21.5576045215,-28.3814553916,0 21.5570023656,-28.3815130591,0 21.5565678477,-28.3815452456,0 21.5561038256,-28.3815613389,0 21.555442661,-28.3815653622,0 21.5549196303,-28.3815599978,0 21.5544328094,-28.3815291524,0 21.5536656976,-28.3814500272,0 21.5528154373,-28.3813387156,0 21.5515145659,-28.381126821,0 21.5483428538,-28.3806145191,0 21.5456137061,-28.3801558614,0 21.5449914336,-28.3800552785,0 21.5434156358,-28.3798004687,0 21.5422676504,-28.3796167374,0 21.5413610637,-28.379470557,0 21.5411733091,-28.379433006,0 21.5373337269,-28.3788053691,0 21.5352255106,-28.3784687519,0 21.5330046415,-28.3781053126,0 21.5327578783,-28.3780677617,0 21.5318258107,-28.3779121935,0 21.5311029553,-28.3777995408,0 21.5301467478,-28.3776412904,0 21.5287895501,-28.3774240315,0 21.5286232531,-28.3773945272,0 21.5284059942,-28.3773609996,0 21.5282262862,-28.3773288131,0 21.5275382996,-28.3772416413,0 21.5266987681,-28.3771571517,0 21.5265311301,-28.3771450818,0 21.5253831446,-28.3770874143,0 21.5246643126,-28.3770780265,0 21.5245060623,-28.3770874143,0 21.5243719518,-28.3770874143,0 21.5240205824,-28.3770994842,0 21.5231944621,-28.3771423995,0 21.5227894485,-28.3771571517,0 21.5224421024,-28.3771745861,0 21.5212471783,-28.3772201836,0 21.5205296874,-28.3772577345,0 21.52022928,-28.3772617579,0 21.5197196603,-28.3772872388,0 21.5191791952,-28.3773140609,0 21.5188667178,-28.3773247898,0 21.517957449,-28.3773650229,0 21.5167289972,-28.3774079382,0 21.5158452094,-28.3774521947,0 21.5154281259,-28.3774682879,0 21.5142117441,-28.3775232732,0 21.5132394433,-28.3775755763,0 21.5122443438,-28.377610445,0 21.5114410222,-28.3776520193,0 21.5112385154,-28.3776560426,0 21.5097633004,-28.3777230978,0 21.5086729825,-28.3777593076,0 21.508153975,-28.3777861297,0 21.5076228976,-28.3778102696,0 21.5071105957,-28.3778344095,0 21.5059532225,-28.3778826892,0 21.5057627857,-28.3778934181,0 21.5049701929,-28.3779256046,0 21.5046054125,-28.3779376745,0 21.5039978921,-28.3779658377,0 21.5035781264,-28.3779886365,0 21.5028566122,-28.3780167997,0 21.5024368465,-28.3780248463,0 21.5016308427,-28.3780771494,0 21.5004895627,-28.3781160414,0 21.5000577271,-28.3781442046,0 21.4994314313,-28.3781643212,0 21.4983840287,-28.3782072365,0 21.4972454309,-28.378251493,0 21.496643275,-28.3782823384,0 21.4963294566,-28.3783024549,0 21.4960840344,-28.3783064783,0 21.4958184958,-28.3783225715,0 21.4949306846,-28.3783507347,0 21.4941300452,-28.3783856034,0 21.49382025,-28.3784016967,0 21.4938041568,-28.3784030378,0 21.4824007452,-28.3784539998,0 21.4822867513,-28.3784419298,0 21.4816685021,-28.378354758,0 21.4814539254,-28.3783225715,0 21.4812675118,-28.3782917261,0 21.480037719,-28.3780892193,0 21.4794717729,-28.3779577911,0 21.4786148071,-28.3777566254,0 21.4777980745,-28.3775661886,0 21.4775915444,-28.3775098622,0 21.4774923027,-28.3774830401,0 21.477291137,-28.3774347603,0 21.4768539369,-28.377327472,0 21.4761525393,-28.3771491051,0 21.4756415784,-28.3770270646,0 21.4751654863,-28.3769157529,0 21.4746934175,-28.3767963946,0 21.4743997157,-28.376725316,0 21.4740040898,-28.3766260743,0 21.4733214676,-28.376455754,0 21.4729177952,-28.3763565123,0 21.472080946,-28.3761459589,0 21.4714694023,-28.3760038018,0 21.4704595506,-28.3757543564,0 21.4702838659,-28.3757060766,0 21.4701028168,-28.375659138,0 21.4694993198,-28.3755277097,0 21.4693531394,-28.3754968643,0 21.4688931406,-28.3754056692,0 21.4682668447,-28.3753024042,0 21.467294544,-28.3751910925,0 21.4669941366,-28.3751548827,0 21.4667084813,-28.3751361072,0 21.466485858,-28.3751240373,0 21.4661291242,-28.3750998974,0 21.4656570554,-28.3750677109,0 21.4646190405,-28.3750489354,0 21.4640597999,-28.3750650287,0 21.4634844661,-28.3750878274,0 21.463111639,-28.3750998974,0 21.4625175297,-28.3751562238,0 21.4618080854,-28.3752192557,0 21.4615264535,-28.3752514422,0 21.460800916,-28.3753345907,0 21.4603717625,-28.3753815293,0 21.4598084986,-28.3754445612,0 21.459107101,-28.3755210042,0 21.4581643045,-28.3756242692,0 21.4575849473,-28.3756873012,0 21.4569707215,-28.375762403,0 21.4559984207,-28.3758696914,0 21.4551897347,-28.3759608865,0 21.4548249543,-28.3759997785,0 21.4540041983,-28.3760842681,0 21.4536836743,-28.3761231601,0 21.4532317221,-28.3761674166,0 21.4517726004,-28.3763256669,0 21.4513327181,-28.3763726056,0 21.450483799,-28.376428932,0 21.450214237,-28.376455754,0 21.44982934,-28.376467824,0 21.4492821693,-28.3764839172,0 21.4488261938,-28.3764919639,0 21.4481556416,-28.3764959872,0 21.4476849139,-28.3765000105,0 21.4474502206,-28.3764919639,0 21.4470693469,-28.3764839172,0 21.446685791,-28.3764691651,0 21.4462217689,-28.3764530718,0 21.4455673099,-28.3764249086,0 21.444619149,-28.3763846755,0 21.4435690641,-28.3763296902,0 21.4432793856,-28.3763176203,0 21.4430460334,-28.3763055503,0 21.4419476688,-28.3762465417,0 21.4410075545,-28.3762036264,0 21.4402069151,-28.3761553466,0 21.4400325716,-28.3761553466,0 21.4398421347,-28.3761432767,0 21.4394961298,-28.3761352301,0 21.4392198622,-28.3761191368,0 21.4388148487,-28.376096338,0 21.4381335676,-28.3760601282,0 21.4375662804,-28.3760373294,0 21.4364437759,-28.3759850264,0 21.4358054101,-28.375954181,0 21.4357303083,-28.3759501576,0 21.4348572493,-28.3759018779,0 21.4333431423,-28.3758307993,0 21.4325854182,-28.3757986128,0 21.4314951003,-28.3757476509,0 21.4302867651,-28.3756886423,0 21.4293023944,-28.3756443858,0 21.4280538261,-28.3755813539,0 21.4253769815,-28.3754459023,0 21.4249934256,-28.3754311502,0 21.4244100451,-28.375402987,0 21.4231923223,-28.3753359318,0 21.4218203723,-28.3752715588,0 21.4209526777,-28.3752326667,0 21.4203344285,-28.3752004802,0 21.4184984565,-28.3751173317,0 21.4178963006,-28.3750851452,0 21.4174550772,-28.3750703931,0 21.4168569446,-28.37503016,0 21.4156915247,-28.3749751747,0 21.4147594571,-28.3749349415,0 21.4143075049,-28.3749188483,0 21.4139145613,-28.3749108016,0 21.4136651158,-28.3749081194,0 21.4132292569,-28.3749000728,0 21.412396431,-28.3749228716,0 21.4120075107,-28.3749389648,0 21.411575675,-28.3749631047,0 21.4109775424,-28.3750140667,0 21.4098966122,-28.3751307428,0 21.4054964483,-28.3757154644,0 21.4038026333,-28.3759340644,0 21.3969482481,-28.3768607676,0 21.3930496573,-28.3773650229,0 21.3910996914,-28.3776131272,0 21.3896405697,-28.3778169751,0 21.3879172504,-28.3780422807,0 21.3841018081,-28.3785398304,0 21.3826869428,-28.3787423372,0 21.3816328347,-28.3788710833,0 21.3795849681,-28.3791567385,0 21.3766653836,-28.3795335889,0 21.375348419,-28.3797065914,0 21.3717663288,-28.3801800013,0 21.3695307076,-28.3804737031,0 21.3685530424,-28.3806239069,0 21.3675887883,-28.3808344603,0 21.3667613268,-28.3810611069,0 21.3658587635,-28.3813172579,0 21.364954859,-28.3816324174,0 21.3642776012,-28.3818885684,0 21.3634796441,-28.3822345734,0 21.3627876341,-28.3825966716,0 21.3621814549,-28.3829373121,0 21.3617630303,-28.3832122386,0 21.3614076376,-28.3834308386,0 21.3611233234,-28.3836132288,0 21.3607987761,-28.3838358521,0 21.3605882227,-28.3839847147,0 21.3600705564,-28.3843763173,0 21.3596320152,-28.3847250044,0 21.3588997722,-28.3853647113,0 21.3578376174,-28.3863168955,0 21.3572756946,-28.3868251741,0 21.3563422859,-28.3876499534,0 21.3559010625,-28.3880415559,0 21.3552506268,-28.3886276186,0 21.3537834585,-28.3899258077,0 21.3531987369,-28.3904528618,0 21.3526810706,-28.3909074962,0 21.3520815969,-28.391443938,0 21.3517154753,-28.3917751908,0 21.3511414826,-28.3922915161,0 21.3506506383,-28.3927233517,0 21.3501705229,-28.3931525052,0 21.3495884836,-28.3936674893,0 21.3490654528,-28.3941328526,0 21.3484834135,-28.3946505189,0 21.3479724526,-28.3951024711,0 21.3476277888,-28.3954082429,0 21.3472335041,-28.395755589,0 21.3461713493,-28.3966514468,0 21.345077008,-28.3977028728,0 21.3436956704,-28.3989138901,0 21.3434395194,-28.3991351724,0 21.342933923,-28.3995723724,0 21.3424055278,-28.400041759,0 21.3418181241,-28.4005580842,0 21.3412803411,-28.401042223,0 21.3408927619,-28.401389569,0 21.3406164944,-28.4016390145,0 21.3399392366,-28.4022505581,0 21.3391748071,-28.4029358625,0 21.3384734094,-28.4035608172,0 21.3376526535,-28.4042917192,0 21.3372194767,-28.4046860039,0 21.3368707895,-28.4049797058,0 21.3355833292,-28.4061330557,0 21.3320709765,-28.4092524648,0 21.331730336,-28.4095555544,0 21.3313253224,-28.409909606,0 21.3310061395,-28.4101872146,0 21.3307459652,-28.4104353189,0 21.3304267824,-28.4107142687,0 21.3298635185,-28.4112158418,0 21.3293860853,-28.4116436541,0 21.3287584484,-28.412193507,0 21.3281308115,-28.4127594531,0 21.3274817169,-28.4133280814,0 21.3268192112,-28.4139195085,0 21.3262023032,-28.4144666791,0 21.3257490098,-28.4148676693,0 21.3252554834,-28.415299505,0 21.3247136772,-28.4157863259,0 21.3239814341,-28.4164327383,0 21.3233752549,-28.4169624746,0 21.3231231272,-28.4171850979,0 21.322811991,-28.4174653888,0 21.3225384057,-28.4177081287,0 21.3222192228,-28.4180058539,0 21.3220100105,-28.4182231128,0 21.3216613233,-28.4185878932,0 21.3213340938,-28.4189513326,0 21.3211034238,-28.4192182124,0 21.3208325207,-28.4195172787,0 21.3204918802,-28.4198994935,0 21.3200975955,-28.4203474224,0 21.3194297254,-28.4210930765,0 21.3186626136,-28.4219500422,0 21.3180966675,-28.4226058424,0 21.3175146282,-28.4232482314,0 21.3168802857,-28.4239496291,0 21.3165678084,-28.4243090451,0 21.3163465261,-28.4245397151,0 21.3161547482,-28.4247542918,0 21.3159428537,-28.4249782562,0 21.3156397641,-28.4252880514,0 21.3153769076,-28.4255240858,0 21.3147251308,-28.4261155128,0 21.3140465319,-28.4267243743,0 21.3132928312,-28.4274123609,0 21.3126303256,-28.4280212224,0 21.3116620481,-28.4288969636,0 21.3112945855,-28.4292308986,0 21.3110102713,-28.4294910729,0 21.3104335964,-28.4300194681,0 21.309800595,-28.4306001663,0 21.3092775643,-28.4310641885,0 21.3089717925,-28.4313538671,0 21.3086016476,-28.431686461,0 21.3080960512,-28.4321531653,0 21.3077031076,-28.4325072169,0 21.3074858487,-28.4327083826,0 21.3074080646,-28.4327794611,0 21.3070486486,-28.4330879152,0 21.3068877161,-28.4332099557,0 21.3067482412,-28.4333078563,0 21.3065309823,-28.433444649,0 21.3064102829,-28.4335130453,0 21.3063029945,-28.4335720539,0 21.3061474264,-28.433649838,0 21.305873841,-28.4337598085,0 21.3056029379,-28.4338657558,0 21.3055318594,-28.4338872135,0 21.3053293526,-28.4339462221,0 21.3050879538,-28.4340025485,0 21.3048921525,-28.4340387583,0 21.3043744862,-28.4341205657,0 21.303961426,-28.4341795743,0 21.3033552468,-28.4342627227,0 21.302754432,-28.4343498945,0 21.3017271459,-28.4344893694,0 21.3008286059,-28.4346114099,0 21.2995518744,-28.4347911179,0 21.2986989319,-28.4348917007,0 21.298135668,-28.4349815547,0 21.2974946201,-28.4350687265,0 21.2966363132,-28.4351947904,0 21.296119988,-28.43526721,0 21.2957431376,-28.4353221953,0 21.2956143916,-28.4353396297,0 21.29526034,-28.4353879094,0 21.2947668135,-28.4354563057,0 21.2942142785,-28.4355340898,0 21.2931896746,-28.4356695414,0 21.2923528254,-28.4357888997,0 21.2915052474,-28.4359069169,0 21.2907837331,-28.4360155463,0 21.2898476422,-28.4361442924,0 21.2887747586,-28.4362904727,0 21.2879110873,-28.4364138544,0 21.2872217596,-28.4365077317,0 21.2863527238,-28.4366257489,0 21.2857680023,-28.4367088974,0 21.284802407,-28.4368403256,0 21.2843410671,-28.4369046986,0 21.2840996683,-28.4369368851,0 21.2838314474,-28.436974436,0 21.283673197,-28.4369958937,0 21.2829060853,-28.4371072054,0 21.2822462618,-28.4372037649,0 21.2819968164,-28.4372533858,0 21.2818077207,-28.4372909367,0 21.2816052139,-28.4373311698,0 21.2812136114,-28.4374250472,0 21.2807549536,-28.4375403821,0 21.2803526223,-28.4376610816,0 21.2799476087,-28.4377978742,0 21.2795747817,-28.4379346669,0 21.2791241705,-28.4381264448,0 21.2786775827,-28.4383276105,0 21.2788707018,-28.4386360645,0 21.2789256871,-28.4387259185,0 21.2788237631,-28.4387876093,0 21.2784643471,-28.4390062094,0 21.2782739103,-28.439168483,0 21.2781706452,-28.4392355382,0 21.2778782845,-28.439463526,0 21.2778621912,-28.4394796193,0 21.2777763605,-28.4395694733,0 21.2777388096,-28.4396083653,0 21.2776234746,-28.4396794438,0 21.2774719298,-28.4397505224,0 21.2769730389,-28.4399704635,0 21.2755796313,-28.4406061471,0 21.2757995725,-28.441054076,0 21.2745805085,-28.4416213632,0 21.2742894888,-28.4417568147,0 21.2733533978,-28.4421913326,0 21.2719559669,-28.4428042173,0 21.2714999914,-28.4420223534,0 21.2713752687,-28.4420840442,0 21.2711258233,-28.4422060847,0 21.2708951533,-28.4423241019,0 21.270545125,-28.4425064921,0 21.2698759139,-28.4428471327,0 21.2687037885,-28.4434519708,0 21.2686635554,-28.4434720874,0 21.268363148,-28.4436276555,0 21.2678776681,-28.4438730776,0 21.267516911,-28.4440594912,0 21.2672688067,-28.4441868961,0 21.2670864165,-28.4442834556,0 21.2669764459,-28.4443478286,0 21.2667417526,-28.4444859624,0 21.266399771,-28.4447152913,0 21.2660457194,-28.4449821711,0 21.2659531832,-28.4450505674,0 21.2659330666,-28.4450653195,0 21.2651780248,-28.4456218779,0 21.2645128369,-28.4460912645,0 21.264154762,-28.4463433921,0 21.2640488148,-28.4464292228,0 21.2639911473,-28.4464788437,0 21.2637014687,-28.4466961026,0 21.2632803619,-28.4469924867,0 21.2628445029,-28.4472969174,0 21.2626808882,-28.4474135935,0 21.2624019384,-28.4476080537,0 21.2622208893,-28.4477381408,0 21.2619607151,-28.4479218721,0 21.2608999014,-28.4486675262,0 21.260714829,-28.4487989545,0 21.2606437504,-28.4488485754,0 21.2595467269,-28.4496197104,0 21.2594273686,-28.4497068822,0 21.2593589723,-28.4497699142,0 21.2592248619,-28.4499053657,0 21.2590920925,-28.4500555694,0 21.2589794397,-28.450229913,0 21.258815825,-28.4504324198,0 21.2587098777,-28.4505571425,0 21.2585033476,-28.4507878125,0 21.2584148347,-28.450884372,0 21.2583424151,-28.4509554505,0 21.2582565844,-28.4510050714,0 21.2580956519,-28.4510788321,0 21.2569355965,-28.4515066445,0 21.2562610209,-28.4517547488,0 21.2560330331,-28.4518446028,0 21.2537974119,-28.4527203441,0 21.2532100081,-28.4529617429,0 21.252874732,-28.4531280398,0 21.2525595725,-28.4532594681,0 21.2522175908,-28.4534311295,0 21.2514303625,-28.4538294375,0 21.2511017919,-28.4539943933,0 21.2510816753,-28.4540319443,0 21.2509864569,-28.4540842474,0 21.2508563697,-28.4541539848,0 21.250782609,-28.4542022645,0 21.2507155538,-28.4542532265,0 21.2506592274,-28.4543041885,0 21.2505827844,-28.4543792903,0 21.2504003942,-28.4545885026,0 21.2503038347,-28.4547038376,0 21.2502005696,-28.454836607,0 21.2500597537,-28.4550176561,0 21.2499712408,-28.4551303089,0 21.2497834861,-28.455375731,0 21.2493436038,-28.4559255838,0 21.2492510676,-28.4560342133,0 21.249192059,-28.456094563,0 21.2491209805,-28.4561643004,0 21.2489788234,-28.4562984109,0 21.2488742173,-28.4563989937,0 21.2477906048,-28.4574128687,0 21.2460806966,-28.4589846432,0 21.2450306118,-28.459956944,0 21.2449729443,-28.4599073231,0 21.2443587184,-28.4593802691,0 21.2436358631,-28.458788842,0 21.2430229783,-28.4582872689,0 21.2429465353,-28.458224237,0 21.2428794801,-28.4581665695,0 21.2426769733,-28.4579922259,0 21.2423041463,-28.457673043,0 21.2413184345,-28.4568281472,0
            </coordinates>
        </LineString>
        </Placemark>
  </Folder>
        </Document>
    </kml>
    