<?xml version="1.0" encoding="UTF-8"?>
    <kml xmlns="http://www.opengis.net/kml/2.2">
    <Document>
        <name>Colored Path</name>
        <Folder>
            <name>Day 3</name>
            <open>1</open>
            <Style id="blackLine">
            <LineStyle>
                <color>ff000000</color>
                <width>4</width>
            </LineStyle>
            </Style>
            <Style id="redLine">
            <LineStyle>
                <color>ff0000ff</color>
                <width>4</width>
            </LineStyle>
            </Style>
        <Placemark>
        <name>Segment 1 (True)</name>
        <styleUrl>#blackLine</styleUrl>
        <LineString>
            <tessellate>1</tessellate>
            <coordinates>
            24.7276416421,-26.9483873248,0 24.7276242077,-26.9484959543,0 24.7275491059,-26.9489532709,0 24.7274686396,-26.949493736,0 24.7274297476,-26.9497539103,0 24.7274002433,-26.9499443471,0 24.7273573279,-26.9502232969,0 24.7272929549,-26.9505853951,0 24.7273653746,-26.9505947828,0 24.7309568524,-26.9510561228,0 24.7334311903,-26.9513712823,0 24.7334164381,-26.9514705241,0 24.7331281006,-26.9532220066,0 24.7329832613,-26.9541031122,0 24.7328343987,-26.9550324976,0 24.7326855361,-26.9559819996,0 24.732542038,-26.9569019973,0 24.7323958576,-26.9578447938,0 24.7323261201,-26.9583195448,0 24.7323046625,-26.9584496319,0 24.7322590649,-26.9587285817,0 24.7322027385,-26.9591134787,0 24.7321169078,-26.9596204162,0 24.7319640219,-26.9605766237,0 24.731797725,-26.9615596533,0 24.7317440808,-26.9618788362,0 24.7316528857,-26.9624568522,0 24.7314168513,-26.9638891518,0 24.7313739359,-26.9641627371,0 24.7313068807,-26.9645744562,0 24.7312840819,-26.9647233188,0 24.7312532365,-26.9648949802,0 24.7312130034,-26.965187341,0 24.7311687469,-26.9655065238,0 24.7311392426,-26.965765357,0 24.7311338782,-26.9658605754,0 24.7311325371,-26.9659289718,0 24.7311110795,-26.9663339853,0 24.731131196,-26.966855675,0 24.7311379015,-26.9669307768,0 24.7311834991,-26.9673988223,0 24.73123312,-26.9678333402,0 24.7313377261,-26.9682732224,0 24.7314141691,-26.968511939,0 24.7314865887,-26.9687385857,0 24.7315362096,-26.9688887894,0 24.7315482795,-26.9689504802,0 24.7315818071,-26.9690537453,0 24.7315992415,-26.9691114128,0 24.7316367924,-26.969203949,0 24.7319358587,-26.9701212645,0 24.7320109606,-26.9703505933,0 24.732426703,-26.9715884328,0 24.732504487,-26.9718150795,0 24.7326761484,-26.9723542035,0 24.7329765558,-26.9732929766,0 24.7330234945,-26.9734364748,0 24.7330825031,-26.9736175239,0 24.7332179546,-26.9740359485,0 24.7335344553,-26.974992156,0 24.7335827351,-26.9751383364,0 24.7338697314,-26.9760087132,0 24.7340413928,-26.9765277207,0 24.7341808677,-26.9769461453,0 24.7345282137,-26.977994889,0 24.7346100211,-26.9782429934,0 24.7349748015,-26.9793507457,0 24.7351022065,-26.9797584414,0 24.7352135181,-26.9800856709,0 24.736019522,-26.9824889302,0 24.7360865772,-26.9826807082,0 24.7362568974,-26.983179599,0 24.7363843024,-26.9835484028,0 24.7366538644,-26.9843369722,0 24.7368563712,-26.9849283993,0 24.7369153798,-26.9850866497,0 24.7369757295,-26.9852542877,0 24.7371742129,-26.9857397676,0 24.7372050583,-26.9858135283,0 24.7372882068,-26.9860160351,0 24.7374022007,-26.9863124192,0 24.7377535701,-26.9872310758,0 24.7381317616,-26.988132298,0 24.7382564843,-26.988427341,0 24.7385193408,-26.9889973104,0 24.7387942672,-26.9896544516,0 24.7388707101,-26.9898314774,0 24.7390812635,-26.9903089106,0 24.7391684353,-26.990506053,0 24.7395332158,-26.9912785292,0 24.7395814955,-26.9913817942,0 24.7398470342,-26.991904825,0 24.7399878502,-26.9921824336,0 24.7400227189,-26.9922494888,0 24.7407053411,-26.9935946167,0 24.7415743768,-26.9952119887,0 24.7416548431,-26.9953554869,0 24.7423200309,-26.9965356588,0 24.742577523,-26.9969688356,0 24.7426499426,-26.997089535,0 24.7435417771,-26.9985862076,0 24.7435645759,-26.9986250997,0 24.7435685992,-26.9986331463,0 24.7437013686,-26.9988718629,0 24.7445999086,-27.0004999638,0 24.7459128499,-27.0027369261,0 24.7467859089,-27.0042040944,0 24.7469615936,-27.0045018196,0 24.7479191422,-27.0061191916,0 24.7483952343,-27.006919831,0 24.7487291694,-27.007484436,0 24.7488699853,-27.0077218115,0 24.7496598959,-27.0090132952,0 24.7503237426,-27.0100955665,0 24.7510144114,-27.0112234354,0 24.7518351674,-27.0125953853,0 24.7518888116,-27.0126906037,0 24.7521972656,-27.0132257044,0 24.7525687516,-27.0140022039,0 24.7527578473,-27.0144072175,0 24.7530300915,-27.0151542127,0 24.7531507909,-27.0155605674,0 24.7532714903,-27.016043365,0 24.7533841431,-27.0165610313,0 24.7534444928,-27.0169150829,0 24.7535128891,-27.0174072683,0 24.7535611689,-27.0180590451,0 24.7536469996,-27.0197501779,0 24.7536496818,-27.0197944343,0 24.7537113726,-27.0208257437,0 24.7539621592,-27.0276707411,0 24.7541955113,-27.033393234,0 24.7543846071,-27.038244009,0 24.7546032071,-27.0429633558,0 24.7546085715,-27.0430585742,0 24.754652828,-27.044018805,0 24.7546635568,-27.0453330874,0 24.754666239,-27.045544982,0 24.754678309,-27.0460988581,0 24.754666239,-27.0465521514,0 24.7546608746,-27.046636641,0 24.7546219826,-27.0472173393,0 24.7545965016,-27.0478127897,0 24.7545535862,-27.0484082401,0 24.7545361519,-27.0489688218,0 24.7545361519,-27.0493228734,0 24.7545750439,-27.0501208305,0 24.7546903789,-27.0531637967,0 24.7547547519,-27.054887116,0 24.7547601163,-27.0550279319,0 24.754845947,-27.056735158,0 24.7549036145,-27.0581138134,0 24.7549210489,-27.0585376024,0 24.7549331188,-27.0586529374,0 24.7549545765,-27.0588567853,0 24.7549974918,-27.0592188835,0 24.7550497949,-27.0595380664,0 24.75515306,-27.0599873364,0 24.7552134097,-27.0603065193,0 24.755230844,-27.06039235,0 24.7552737594,-27.0607128739,0 24.7553475201,-27.0615363121,0 24.7556371987,-27.0682820678,0 24.7558571398,-27.0743720233,0 24.7559644282,-27.0770958066,0 24.7560167313,-27.0787346363,0 24.7560167313,-27.0796760917,0 24.7559952736,-27.0800381899,0 24.7559738159,-27.0804016292,0 24.7558705509,-27.0811405778,0 24.7556935251,-27.0820458233,0 24.7555285692,-27.0826761425,0 24.7553220391,-27.0833574235,0 24.7549639642,-27.0843538642,0 24.7531722486,-27.0889766514,0 24.7514247894,-27.0935122669,0 24.7510278225,-27.0945221186,0 24.7508467734,-27.0950236917,0 24.7506040335,-27.0958860219,0 24.7505007684,-27.0963259041,0 24.75040555,-27.0969133079,0 24.7503197193,-27.0975516737,0 24.7502593696,-27.0981310308,0 24.7502245009,-27.0988471806,0 24.7502204776,-27.0992226899,0 24.7503049672,-27.1030569077,0 24.750315696,-27.1035303175,0 24.7504095733,-27.108027041,0 24.75040555,-27.1091710031,0 24.7501426935,-27.1148023009,0 24.7498543561,-27.1199682355,0 24.7496424615,-27.1243952215,0 24.7495029867,-27.1267327666,0 24.7494614124,-27.1275025606,0 24.7492307425,-27.1318759024,0 24.7491046786,-27.1343207359,0 24.7490724921,-27.1349497139,0 24.7490416467,-27.1352823079,0 24.7486875951,-27.1378880739,0 24.7485280037,-27.1389596164,0 24.7484757006,-27.1394504607,0 24.7483925521,-27.140853256,0 24.7483778,-27.1411120892,0 24.7482611239,-27.1430271864,0 24.7482155263,-27.1440772712,0 24.7482074797,-27.1445681155,0 24.7482611239,-27.1460554004,0 24.7482986748,-27.1469767392,0 24.7482986748,-27.147731781,0 24.7482450306,-27.1487443149,0 24.7481927276,-27.1496656537,0 24.748096168,-27.1513621509,0 24.7477997839,-27.1564771235,0 24.7475852072,-27.1602228284,0 24.7475798428,-27.1603287756,0 24.7475758195,-27.160397172,0 24.7475087643,-27.1615639329,0 24.7473961115,-27.163194716,0 24.7471868992,-27.1674433351,0 24.7470259666,-27.1709355712,0 24.7465726733,-27.1774238348,0 24.7464439273,-27.1797117591,0 24.7461381555,-27.1839174628,0 24.7458980978,-27.1869014204,0 24.7458431125,-27.1875599027,0 24.7457264364,-27.1889707446,0 24.7455494106,-27.1910507977,0 24.7453643382,-27.1931831539,0 24.7452422976,-27.1947535872,0 24.7450706363,-27.1968336403,0 24.7449056804,-27.1988251805,0 24.7448694706,-27.1991953254,0 24.7448305786,-27.1995963156,0 24.7447755933,-27.2002547979,0 24.7447031736,-27.2008851171,0 24.7446146607,-27.2014939785,0 24.7444926202,-27.2020746768,0 24.7443665564,-27.2025883198,0 24.7441452742,-27.2033138573,0 24.7440004349,-27.2037389874,0 24.7437818348,-27.2043344378,0 24.7430630028,-27.2063031793,0 24.7421121597,-27.2087869048,0 24.7417272627,-27.2097846866,0 24.7407978773,-27.2122912109,0 24.7401125729,-27.2141325474,0 24.7398738563,-27.2147803009,0 24.7397692502,-27.2151504457,0 24.7396861017,-27.2155380249,0 24.739625752,-27.2158531845,0 24.7395761311,-27.2162461281,0 24.7395399213,-27.2165974975,0 24.7394661605,-27.2177025676,0 24.7393843532,-27.2189860046,0 24.7392435372,-27.2211572528,0 24.7390839458,-27.2240620852,0 24.7389726341,-27.2261300683,0 24.7388894856,-27.2275516391,0 24.7388626635,-27.227999568,0 24.7387902439,-27.2285306454,0 24.7387433052,-27.2288323939,0 24.7385555506,-27.2300434113,0 24.7384884953,-27.2305691242,0 24.7384442389,-27.2309727967,0 24.7383785248,-27.2316044569,0 24.7383128107,-27.2325566411,0 24.738291353,-27.2328731418,0 24.7382846475,-27.2329831123,0 24.7382618487,-27.233313024,0 24.7381706536,-27.2348472476,0 24.7380821407,-27.2365021706,0 24.738035202,-27.2377936542,0 24.7380298376,-27.2384011745,0 24.738035202,-27.2388933599,0 24.7380848229,-27.2400118411,0 24.7381129861,-27.2406032681,0 24.7381237149,-27.241012305,0 24.7381076217,-27.2415661812,0 24.7380459309,-27.2427543998,0 24.7379332781,-27.2447043657,0 24.7377669811,-27.2474978864,0 24.7375953197,-27.2505904734,0 24.7373458743,-27.2550952435,0 24.7371728718,-27.2581462562,0 24.7370427847,-27.2605884075,0 24.7370561957,-27.2609196603,0 24.7371071577,-27.2613300383,0 24.7371849418,-27.2618597746,0 24.7372587025,-27.2622419894,0 24.7373874485,-27.2626926005,0 24.7375027835,-27.2630426288,0 24.7382739186,-27.2648866475,0 24.7393575311,-27.2675232589,0 24.7395010293,-27.2679966688,0 24.7395788133,-27.2683466971,0 24.7396753728,-27.2688817978,0 24.7397249937,-27.2694182396,0 24.7397424281,-27.2699144483,0 24.7397196293,-27.2704951465,0 24.7396579385,-27.2709256411,0 24.7395788133,-27.2713346779,0 24.7395050526,-27.2716350853,0 24.7393347323,-27.2721876204,0 24.7389350832,-27.2733382881,0 24.7381035984,-27.2757670283,0 24.7370374203,-27.2789092362,0 24.7361013293,-27.281729579,0 24.7351035476,-27.2846880555,0 24.7349332273,-27.2852084041,0 24.7347950935,-27.2857287526,0 24.7346153855,-27.2863456607,0 24.7338053584,-27.2898311913,0 24.7332340479,-27.2919514775,0 24.7331079841,-27.2924208641,0 24.7328451276,-27.2933059931,0 24.7320954502,-27.295832634,0 24.7309555113,-27.2996655107,0 24.7308911383,-27.2998800874,0 24.7297860682,-27.303584218,0 24.7290122509,-27.3061537743,0 24.7287748754,-27.3069436848,0 24.7280479968,-27.3093751073,0 24.727421701,-27.3114417493,0 24.7266881168,-27.3139187694,0 24.7265003622,-27.3145504296,0 24.7264802456,-27.3146161437,0 24.7254878283,-27.3179796338,0 24.7242218256,-27.3222202063,0 24.723752439,-27.3238308728,0 24.7234104574,-27.3250056803,0 24.7230014205,-27.3263092339,0 24.7229021788,-27.3265881836,0 24.7228901088,-27.3266203701,0 24.7226835787,-27.3271983862,0 24.7224810719,-27.3277133703,0 24.7223201394,-27.3280459642,0 24.7222571075,-27.3281599581,0 24.7220988572,-27.3284496367,0 24.7218225896,-27.3289109766,0 24.7214859724,-27.329454124,0 24.7213545442,-27.329659313,0 24.7211439908,-27.3299865425,0 24.7204774618,-27.3309186101,0 24.7204385698,-27.3309709132,0 24.7199504077,-27.3316991329,0 24.7199195623,-27.3317487538,0 24.7196741402,-27.3321457207,0 24.7194904089,-27.3324863613,0 24.7194166481,-27.3326392472,0 24.7193576396,-27.3327626288,0 24.719222188,-27.3331569135,0 24.7190974653,-27.3335444927,0 24.7189646959,-27.3340031505,0 24.7189097106,-27.3342204094,0 24.7187903523,-27.3347072303,0 24.7185046971,-27.3358900845,0 24.7184684873,-27.3360416293,0 24.7184590995,-27.3360791802,0 24.7182995081,-27.3367390037,0 24.7181291878,-27.3374377191,0 24.7172454,-27.3411995173,0 24.7171716392,-27.3415106535,0 24.7164608538,-27.344494611,0 24.7160679102,-27.3461025953,0 24.7156186402,-27.3479479551,0 24.7148126364,-27.3513369262,0 24.7144478559,-27.3528563976,0 24.7141836584,-27.3539534211,0 24.7140227258,-27.3546266556,0 24.7139409184,-27.3550249636,0 24.7138617933,-27.3554179072,0 24.7137974203,-27.3557813466,0 24.7137732804,-27.356056273,0 24.7137598693,-27.3562051356,0 24.7137370706,-27.3565833271,0 24.7136954963,-27.3579834402,0 24.7136445343,-27.3612007499,0 24.7136083245,-27.3642450571,0 24.7135560215,-27.3681744933,0 24.7135426104,-27.3691803217,0 24.713511765,-27.3708218336,0 24.7135157883,-27.3713810742,0 24.7134889662,-27.3719108105,0 24.7134701908,-27.3723439872,0 24.7134380043,-27.3727396131,0 24.7133937478,-27.3730735481,0 24.713357538,-27.3733136058,0 24.7132971883,-27.3735898733,0 24.7132100165,-27.3739573359,0 24.7128304839,-27.375549227,0 24.7127969563,-27.3756806552,0 24.7124147415,-27.3771558702,0 24.7118903697,-27.3792319,0 24.7111795843,-27.3820562661,0 24.710765183,-27.3838479817,0 24.7106873989,-27.3842489719,0 24.710649848,-27.384442091,0 24.7106176615,-27.3846767843,0 24.7105693817,-27.3850978911,0 24.7103346884,-27.3876580596,0 24.7103279829,-27.3877170682,0 24.7102917731,-27.388073802,0 24.7102461755,-27.3885177076,0 24.7102381289,-27.3885954916,0 24.7100557387,-27.3904234171,0 24.7099685669,-27.3912763596,0 24.7098143399,-27.392795831,0 24.7096668184,-27.3947297037,0 24.7095729411,-27.3957274854,0 24.7095501423,-27.3964221776,0 24.7095501423,-27.3965026438,0 24.7095581889,-27.39704445,0 24.7095796466,-27.3978424072,0 24.7096078098,-27.3984096944,0 24.7096574306,-27.3991043866,0 24.7096882761,-27.3994664848,0 24.7097794712,-27.4003314972,0 24.709866643,-27.4009537697,0 24.7100262344,-27.4017892778,0 24.710483551,-27.4038827419,0 24.710637778,-27.4045881629,0 24.7107048333,-27.4048992991,0 24.7110454738,-27.406476438,0 24.7112506628,-27.40742594,0 24.7115336359,-27.4087442458,0 24.7123356164,-27.41240412,0 24.713023603,-27.41556108,0 24.7137719393,-27.4189285934,0 24.714205116,-27.4208879471,0 24.7142238915,-27.4209684134,0 24.7143539786,-27.4215598404,0 24.7146101296,-27.4226997793,0 24.7146289051,-27.4227802455,0 24.7146449983,-27.4228540063,0 24.7147992253,-27.4235339463,0 24.7150057554,-27.4245196581,0 24.7152283788,-27.4255724251,0 24.7157554328,-27.4279649556,0 24.7162623703,-27.4302649498,0 24.7168296576,-27.4328412116,0 24.7173379362,-27.4352243543,0 24.7173634171,-27.4353450537,0 24.717952162,-27.4379454553,0 24.7185516357,-27.4406558275,0 24.719132334,-27.44330585,0 24.7197318077,-27.4459478259,0 24.7204010189,-27.4489478767,0 24.7207577527,-27.4505853653,0 24.7211077809,-27.4522081017,0 24.7216643393,-27.4547374249,0 24.7220398486,-27.4564138055,0 24.7223603725,-27.4579171836,0 24.7228190303,-27.4599422514,0 24.7229893506,-27.4607804418,0 24.7230711579,-27.4612525105,0 24.7231221199,-27.4617058039,0 24.7231328487,-27.4621778727,0 24.7231328487,-27.4625842273,0 24.7231020033,-27.4628859758,0 24.7230657935,-27.4632199109,0 24.7230041027,-27.4635498226,0 24.7229383886,-27.4638435245,0 24.7227908671,-27.4644416571,0 24.7226272523,-27.4650464952,0 24.7224716842,-27.4657398462,0 24.7224019468,-27.4662011862,0 24.7223523259,-27.4665927887,0 24.7223201394,-27.4670340121,0 24.7223228216,-27.4673035741,0 24.7223496437,-27.4679017067,0 24.7223925591,-27.4682825804,0 24.7224636376,-27.4687117338,0 24.7226004303,-27.4692508578,0 24.7226017714,-27.4692575634,0 24.7227144241,-27.4696478248,0 24.7230537236,-27.4705959857,0 24.723623693,-27.4721208215,0 24.7239629924,-27.4730274081,0 24.7247676551,-27.4751758575,0 24.7257426381,-27.477761507,0 24.7257573903,-27.477799058,0 24.7257708013,-27.47783795,0 24.7257855535,-27.4778755009,0 24.7259505093,-27.4783113599,0 24.7267243266,-27.4803552032,0 24.7272205353,-27.4816654623,0 24.7275410593,-27.4825626612,0 24.7278347611,-27.4833726883,0 24.7280037403,-27.4838890135,0 24.7281673551,-27.484460324,0 24.7284959257,-27.4856927991,0 24.7294266522,-27.4898475409,0 24.730437845,-27.4944113195,0 24.7311365604,-27.4975307286,0 24.7317695618,-27.5004583597,0 24.7319680452,-27.5013059378,0 24.7327324748,-27.5047807395,0 24.7334177792,-27.5077794492,0 24.7337396443,-27.509214431,0 24.7341661155,-27.5111107528,0 24.7341768444,-27.5111550093,0 24.7349613905,-27.5147344172,0 24.7359403968,-27.5191265345,0 24.7365626693,-27.5218731165,0 24.7371125221,-27.5244010985,0 24.7377093136,-27.5270913541,0 24.738279283,-27.5295670331,0 24.7387205064,-27.53154248,0 24.7391228378,-27.5333409011,0 24.7401380539,-27.5379247963,0 24.7409695387,-27.5415940583,0 24.7412256896,-27.5427594781,0 24.7412525117,-27.5428815186,0 24.7416763008,-27.5448127091,0 24.7423616052,-27.547852993,0 24.7429637611,-27.5505687296,0 24.7431837022,-27.5516268611,0 24.743360728,-27.5527144969,0 24.7434559464,-27.5534896553,0 24.7434666753,-27.5536237657,0 24.7435082495,-27.554128021,0 24.7435766459,-27.5549286604,0 24.743591398,-27.5553940237,0 24.7435927391,-27.555436939,0 24.7436115146,-27.5559774041,0 24.7436182201,-27.5561530888,0 24.7436074913,-27.5573775172,0 24.7435136139,-27.5591732562,0 24.7434800863,-27.5598250329,0 24.7434653342,-27.5601053238,0 24.7434277833,-27.5605921447,0 24.7434720397,-27.5608442724,0 24.7434961796,-27.5609180331,0 24.7435377538,-27.5610199571,0 24.7435511649,-27.5610387325,0 24.7435618937,-27.5610601902,0 24.7435699403,-27.5610910356,0 24.7435685992,-27.5611191988,0 24.7435632348,-27.5611433387,0 24.7435565293,-27.5611634552,0 24.7435417771,-27.5611889362,0 24.7435323894,-27.5612023473,0 24.7435042262,-27.5612251461,0 24.7434586287,-27.5612466037,0 24.7434425354,-27.5612935424,0 24.7434344888,-27.5613445044,0 24.743425101,-27.5614665449,0 24.7434090078,-27.5619372725,0 24.7433996201,-27.5621840358,0 24.7433821857,-27.5625112653,0 24.7433714569,-27.5627928972,0 24.7433137894,-27.5641219318,0 24.7432950139,-27.5645363331,0 24.7432681918,-27.5652833283,0 24.743245393,-27.5658908486,0 24.7432105243,-27.5666579604,0 24.7431783378,-27.5673888624,0 24.7431501746,-27.5679454207,0 24.743116647,-27.568000406,0 24.7431005538,-27.569206059,0 24.7430254519,-27.5710996985,0 24.7430200875,-27.5712633133,0 24.7429637611,-27.5726862252,0 24.7429288924,-27.5734519958,0 24.7428900003,-27.5742982328,0 24.7428376973,-27.5753550231,0 24.7427907586,-27.5762079656,0 24.7427907586,-27.5762441754,0 24.7427907586,-27.5766384602,0 24.7428739071,-27.5771708786,0 24.7428752482,-27.5771762431,0 24.7430214286,-27.5776737928,0 24.7432413697,-27.5781659782,0 24.7434291244,-27.5784690678,0 24.7438274324,-27.5789934397,0 24.7444242239,-27.5795996189,0 24.7454957664,-27.5806550682,0 24.7463808954,-27.581525445,0 24.7479513288,-27.5830838084,0 24.7484247386,-27.583553195,0 24.7490014136,-27.5841204822,0 24.7493648529,-27.5845040381,0 24.7498127818,-27.5850243866,0 24.7501024604,-27.5854200125,0 24.7503747046,-27.5858478248,0 24.7506040335,-27.5862716138,0 24.7507327795,-27.5865478814,0 24.7508226335,-27.5867570937,0 24.7510519624,-27.587364614,0 24.751214236,-27.5879171491,0 24.7512705624,-27.5881491601,0 24.7512732446,-27.5881652534,0 24.7513979673,-27.5887151062,0 24.7515146434,-27.5892528892,0 24.7516688704,-27.5899529457,0 24.7518445551,-27.5907495618,0 24.7520966828,-27.5918479264,0 24.7521047294,-27.5918854773,0 24.752279073,-27.5927142799,0 24.7525902092,-27.594100982,0 24.752920121,-27.5955574214,0 24.753228575,-27.5969548523,0 24.7534391284,-27.5978963077,0 24.7537904978,-27.5995056331,0 24.7539836168,-27.6003170013,0 24.7541539371,-27.6011162996,0 24.7542612255,-27.6016272604,0 24.7544811666,-27.6025928557,0 24.7550551593,-27.6051664352,0 24.7554950416,-27.6071432233,0 24.7556747496,-27.6079076529,0 24.7556975484,-27.6080095768,0 24.7561092675,-27.6097664237,0 24.7565102577,-27.6116198301,0 24.7571633756,-27.6146413386,0 24.7574329376,-27.6158925891,0 24.7581638396,-27.6191219687,0 24.7582027316,-27.619292289,0 24.7586131096,-27.621101439,0 24.7590127587,-27.6228676736,0 24.7594942153,-27.6249919832,0 24.7602304816,-27.6283353567,0 24.7608393431,-27.6310564578,0 24.7613529861,-27.633344382,0 24.7613798082,-27.6334623992,0 24.7614294291,-27.6336783171,0 24.7617633641,-27.6351884007,0 24.7622635961,-27.6374401152,0 24.762570709,-27.6388268173,0 24.7628429532,-27.6400271058,0 24.7629261017,-27.6405112445,0 24.7629877925,-27.6409645379,0 24.7630695999,-27.6417168975,0 24.7631420195,-27.6422734559,0 24.7632654011,-27.6428098977,0 24.7634612024,-27.6433973014,0 24.7637763619,-27.6444943249,0 24.763930589,-27.6450307667,0 24.7642189264,-27.6461438835,0 24.7645072639,-27.6475654542,0 24.765214026,-27.6506111026,0 24.7663982213,-27.6559688151,0 24.766471982,-27.6563040912,0 24.767011106,-27.6587878168,0 24.7676709294,-27.6616846025,0 24.7679901123,-27.6630847156,0 24.768666029,-27.6661303639,0 24.7688819468,-27.667016834,0 24.7690214217,-27.6677021384,0 24.7690723836,-27.6682372391,0 24.7691756487,-27.6690003276,0 24.7693298757,-27.669660151,0 24.7694948316,-27.6704326272,0 24.7701492906,-27.6734367013,0 24.7706750035,-27.6753638685,0 24.7708413005,-27.6759700477,0 24.7710344195,-27.6766701043,0 24.7710907459,-27.6767344773,0 24.771117568,-27.6768819988,0 24.7712275386,-27.6773151755,0 24.7712489963,-27.6773943007,0 24.7714045644,-27.6780661941,0 24.7714716196,-27.6783585548,0 24.7715078294,-27.6785342395,0 24.7715829313,-27.6788963377,0 24.771707654,-27.6794756949,0 24.7717747092,-27.6797197759,0 24.7718712687,-27.6801207662,0 24.7719168663,-27.6803071797,0 24.7718819976,-27.6803809404,0 24.7725351155,-27.6834587753,0 24.7736120224,-27.6882961392,0 24.7745762765,-27.692630589,0 24.7753366828,-27.6961617172,0 24.7753863037,-27.6962086558,0 24.7757765651,-27.6977227628,0 24.7758758068,-27.6981988549,0 24.7759026289,-27.6983557642,0 24.7760125995,-27.6988506317,0 24.7760796547,-27.6992154121,0 24.7762097418,-27.6998229325,0 24.7762607038,-27.7001273632,0 24.7762365639,-27.7001957595,0 24.7762526572,-27.7003258467,0 24.7762674093,-27.7003982663,0 24.776853472,-27.7027706802,0 24.7782187164,-27.7088861167,0 24.7795531154,-27.7147655189,0 24.7801740468,-27.717564404,0 24.7801995277,-27.717679739,0 24.7802276909,-27.7178111672,0 24.7819134593,-27.7253897488,0 24.7828656435,-27.7296517789,0 24.7837266326,-27.7335315943,0 24.7844736278,-27.7368964255,0 24.7854472697,-27.7411986887,0 24.7864530981,-27.7457691729,0 24.7868447006,-27.7476024628,0 24.7868822515,-27.7476400137,0 24.7870109975,-27.7481389046,0 24.7871920466,-27.7488510311,0 24.7875514627,-27.7502739429,0 24.7876936197,-27.7509458363,0 24.7881227732,-27.7529789507,0 24.7882542014,-27.7535489202,0 24.7883668542,-27.7540384233,0 24.7885800898,-27.7549946308,0 24.7885854542,-27.7550160885,0 24.7888469696,-27.7563343942,0 24.788826853,-27.7563866973,0 24.7891782224,-27.7579316497,0 24.7892318666,-27.7581703663,0 24.7893163562,-27.7585472167,0 24.789416939,-27.7589978278,0 24.789622128,-27.7599205077,0 24.7897361219,-27.7604287863,0 24.7898340225,-27.7608646452,0 24.7902537882,-27.7627448738,0 24.7910651565,-27.7664221823,0 24.7912327945,-27.7672107518,0 24.7913400829,-27.7679993212,0 24.7914165258,-27.7686819434,0 24.791495651,-27.7693967521,0 24.7916391492,-27.7703636885,0 24.7920924425,-27.7725255489,0 24.7924089432,-27.7741067111,0 24.7924773395,-27.7741657197,0 24.79261145,-27.7746927738,0 24.7927187383,-27.7751326561,0 24.7929494083,-27.7759990096,0 24.7929695249,-27.7760607004,0 24.793214947,-27.7768050134,0 24.7932565212,-27.7769498527,0 24.7933168709,-27.7771604061,0 24.7933249176,-27.7771872282,0 24.7934871912,-27.7777156234,0 24.7935073078,-27.7777786553,0 24.7935716808,-27.7779597044,0 24.793638736,-27.7781622112,0 24.7938613594,-27.7789722383,0 24.7939163446,-27.7792002261,0 24.7938868403,-27.7792753279,0 24.7940933704,-27.7801778913,0 24.7943615913,-27.7813647687,0 24.7944957018,-27.7819414437,0 24.7947907448,-27.7833174169,0 24.7955551744,-27.7867037058,0 24.7970491648,-27.7933810651,0 24.7972999513,-27.7944941819,0 24.7973200679,-27.7945129573,0 24.7974461317,-27.7949675918,0 24.797552079,-27.7953873575,0 24.7976928949,-27.7960284054,0 24.7978524864,-27.796741873,0 24.7979021072,-27.7969832718,0 24.7979463637,-27.7971951663,0 24.7980844975,-27.7978134155,0 24.7981797159,-27.7982707322,0 24.7982347012,-27.7985523641,0 24.7983030975,-27.7988621593,0 24.798374176,-27.7992403507,0 24.798411727,-27.7994307876,0 24.7983969748,-27.7994643152,0 24.79846403,-27.7997848392,0 24.7987939417,-27.8011594713,0 24.7992646694,-27.8032797575,0 24.7999218106,-27.8062234819,0 24.8015016317,-27.8133018315,0 24.8018087447,-27.8145155311,0 24.8018731177,-27.8147931397,0 24.8019012809,-27.8148186207,0 24.8019844294,-27.8151378036,0 24.8021413386,-27.8157547116,0 24.802275449,-27.816375643,0 24.8022969067,-27.8164936602,0 24.802377373,-27.8169335425,0 24.8025020957,-27.817504853,0 24.8026227951,-27.8180547059,0 24.8026040196,-27.8180855513,0 24.8032906651,-27.8212317824,0 24.8048114777,-27.8280499578,0 24.8061029613,-27.8336745501,0 24.8061619699,-27.8337268531,0 24.8062853515,-27.8342109919,0 24.8066501319,-27.8357331455,0 24.8066984117,-27.8359504044,0 24.8067373037,-27.8361207247,0 24.8071222007,-27.838076055,0 24.807253629,-27.8387264907,0 24.8072348535,-27.8387787938,0 24.8077484965,-27.8411874175,0 24.8078370094,-27.8415709734,0 24.8083305359,-27.8441163898,0 24.8084646463,-27.844773531,0 24.8093417287,-27.848700285,0 24.8099881411,-27.8513543308,0 24.8104012012,-27.852986455,0 24.8110355437,-27.8558926284,0 24.8114687204,-27.8578399122,0 24.8127132654,-27.8633773327,0 24.8137485981,-27.8679746389,0 24.8148348927,-27.8728120029,0 24.8148791492,-27.8728562593,0 24.8153485358,-27.8747928143,0 24.8155161738,-27.8754727542,0 24.8161290586,-27.8784875572,0 24.8161076009,-27.8785438836,0 24.8166024685,-27.8807379305,0 24.8168760538,-27.8819516301,0 24.8178778589,-27.8863866627,0 24.8183164001,-27.8883245587,0 24.8189789057,-27.891292423,0 24.8191291094,-27.891972363,0 24.819855988,-27.8952540457,0 24.820497036,-27.8980797529,0 24.8206982017,-27.8989487886,0 24.8209959269,-27.900300622,0 24.8210817575,-27.9006721079,0 24.8212319613,-27.9013761878,0 24.8214921355,-27.9025804996,0 24.8216155171,-27.9032228887,0 24.8218891025,-27.9048013687,0 24.821999073,-27.9053874314,0 24.8221465945,-27.9060646892,0 24.822294116,-27.906755358,0 24.8223987222,-27.9071885347,0 24.8225623369,-27.9079140723,0 24.822717905,-27.9085913301,0 24.8227594793,-27.9087804258,0 24.8227661848,-27.9088126123,0 24.8233146966,-27.9113084078,0 24.8237371445,-27.9128345847,0 24.824269563,-27.9150433838,0 24.8242816329,-27.9150997102,0 24.824437201,-27.9157568514,0 24.8246236145,-27.916572243,0 24.8247121274,-27.9169745743,0 24.8247416317,-27.9171046615,0 24.8251466453,-27.9189406335,0 24.8255623877,-27.920768559,0 24.8261578381,-27.9233890772,0 24.8264099658,-27.9244861007,0 24.8267291486,-27.9259935021,0 24.8271475732,-27.927840203,0 24.8276370764,-27.93003425,0 24.8278731108,-27.9310628772,0 24.8281131685,-27.932112962,0 24.8282928765,-27.9329364002,0 24.8283465207,-27.9333481193,0 24.8283478618,-27.9334406555,0 24.8283518851,-27.9337222874,0 24.8283465207,-27.9341635108,0 24.8283411562,-27.9345242679,0 24.8283143342,-27.9348407686,0 24.8283196986,-27.9352015257,0 24.8283304274,-27.9358881712,0 24.8284377158,-27.9378220439,0 24.8284618556,-27.9382444918,0 24.8287662864,-27.9437564313,0 24.828813225,-27.9446133971,0 24.8288668692,-27.9455897212,0 24.8289956152,-27.9479970038,0 24.8290492594,-27.9489961267,0 24.8291350901,-27.950617522,0 24.8293121159,-27.9537020624,0 24.8293550313,-27.9546260834,0 24.8293563724,-27.9546381533,0 24.8296071589,-27.95915097,0 24.8298163712,-27.9628618062,0 24.8299612105,-27.9653589427,0 24.8301006854,-27.9678601027,0 24.8302669823,-27.9708454013,0 24.8303957283,-27.9731990397,0 24.8305352032,-27.9756626487,0 24.8305512965,-27.9758906364,0 24.8305566609,-27.9761937261,0 24.830583483,-27.9765343666,0 24.8307175934,-27.9789416492,0 24.8308624327,-27.9817083478,0 24.8310609162,-27.985227406,0 24.8310770094,-27.9853561521,0 24.8310877383,-27.9856310785,0 24.8311628401,-27.9870378971,0 24.8313345015,-27.9901170731,0 24.8314739764,-27.9925793409,0 24.8318508267,-27.999586612,0 24.8319031298,-28.0005562305,0 24.83208552,-28.0037011206,0 24.8321177065,-28.0044923723,0 24.8321606219,-28.0052353442,0 24.832187444,-28.0056805909,0 24.8323000968,-28.0076560378,0 24.832482487,-28.0109377205,0 24.8325844109,-28.0126811564,0 24.8326970637,-28.0147746205,0 24.8327828944,-28.0163893104,0 24.8328848183,-28.0180804431,0 24.8329813778,-28.0199083686,0 24.8330564797,-28.0212105811,0 24.8331905901,-28.0237063766,0 24.8332764208,-28.0251306295,0 24.8333568871,-28.0264905095,0 24.8335070908,-28.0289527774,0 24.8335982859,-28.0307324231,0 24.8336572945,-28.031693995,0 24.8337216675,-28.0329117179,0 24.8337967694,-28.0340999365,0 24.8339630663,-28.0371630192,0 24.8340918124,-28.0394643545,0 24.8342312872,-28.041831404,0 24.8343493044,-28.0440764129,0 24.8344029486,-28.0449467897,0 24.834445864,-28.0456052721,0 24.8344619572,-28.046041131,0 24.8344726861,-28.0462342501,0 24.834510237,-28.0468310416,0 24.8346175253,-28.0489097536,0 24.8347945511,-28.0519540608,0 24.8349393904,-28.0544820428,0 24.8350198567,-28.0559679866,0 24.8351968825,-28.0591169,0 24.8353363574,-28.0617293715,0 24.8354811966,-28.0642332137,0 24.8355455697,-28.0653315783,0 24.8356689513,-28.0674666166,0 24.835717231,-28.0684697628,0 24.835754782,-28.069165796,0 24.8359425366,-28.0724555254,0 24.8360390961,-28.074349165,0 24.8361517489,-28.0761998892,0 24.8361892998,-28.0768100917,0 24.8363341391,-28.0794802308,0 24.8364146054,-28.0808334053,0 24.8364521563,-28.0815146863,0 24.8365165293,-28.0827833712,0 24.8365594447,-28.0833600461,0 24.836666733,-28.0853676796,0 24.8367203772,-28.0862943828,0 24.8367525637,-28.0870802701,0 24.8368276656,-28.0882443488,0 24.8369564116,-28.0905644596,0 24.8371173441,-28.0932895839,0 24.8372139037,-28.0954286456,0 24.8374070227,-28.0985708535,0 24.8374606669,-28.0995927751,0 24.8375009,-28.1002606452,0 24.8375357687,-28.10086146,0 24.8376108706,-28.1019303203,0 24.837680608,-28.1023567915,0 24.837936759,-28.1032459438,0 24.8380078375,-28.1034350395,0 24.8381097615,-28.1036791205,0 24.8381875455,-28.1038601696,0 24.8382438719,-28.1039741635,0 24.8383015394,-28.1040117145,0 24.8385550082,-28.1044355035,0 24.8388406634,-28.1048378348,0 24.8389707506,-28.1050041318,0 24.8390847445,-28.1051436067,0 24.8392537236,-28.105352819,0 24.8394709826,-28.1055754423,0 24.8395112157,-28.1056156754,0 24.8396842182,-28.1057846546,0 24.8399028182,-28.1059710681,0 24.8401294649,-28.1061547995,0 24.8405076563,-28.1064364314,0 24.8406632245,-28.1065477431,0 24.8408778012,-28.106687218,0 24.8410749435,-28.1068079174,0 24.8411057889,-28.1068642437,0 24.8418286443,-28.1072840095,0 24.8422591388,-28.1075254083,0 24.8434661329,-28.1082120538,0 24.8440897465,-28.10853526,0 24.844391495,-28.1087270379,0 24.8449279368,-28.1090167165,0 24.845251143,-28.1091950834,0 24.8452913761,-28.1092178822,0 24.845418781,-28.1092876196,0 24.8457849026,-28.1094673276,0 24.8459230363,-28.1095357239,0 24.8463830352,-28.1097221375,0 24.846804142,-28.1099246442,0 24.8471353948,-28.1100748479,0 24.8476812243,-28.1102894247,0 24.8484845459,-28.1106488407,0 24.8486535251,-28.1107199192,0 24.8489955068,-28.1108687818,0 24.8493763804,-28.1110337377,0 24.8498900235,-28.1112603843,0 24.8502333462,-28.1114079058,0 24.8514483869,-28.1119336188,0 24.8519177735,-28.1121374667,0 24.852438122,-28.1123641133,0 24.8527345061,-28.1124968827,0 24.8530362546,-28.1126323342,0 24.8530510068,-28.1126376987,0 24.8534815013,-28.1128187478,0 24.8533648252,-28.1129099429,0 24.8532655835,-28.1129783392,0 24.8531958461,-28.113026619,0 24.8529557884,-28.113206327,0 24.8519016802,-28.1139962375,0 24.851744771,-28.1141236424,0 24.850987047,-28.1147566438,0 24.8499637842,-28.1157101691,0 24.8488493264,-28.116748184,0 24.8478475213,-28.1177178025,0 24.8471796513,-28.1183494627,0 24.846919477,-28.1185787916,0 24.8467867076,-28.1187048554,0 24.8465573788,-28.1189315021,0 24.8464339972,-28.1190387905,0 24.8461644351,-28.1193445623,0 24.8458895087,-28.1196664274,0 24.845508635,-28.1201143563,0 24.8452471197,-28.1204724312,0 24.8450995982,-28.1206762791,0 24.8449856043,-28.1208372116,0 24.8447589576,-28.1211309135,0 24.8446878791,-28.1212422252,0 24.844584614,-28.1214044988,0 24.8444102705,-28.1217049062,0 24.8440736532,-28.1223151088,0 24.8437182605,-28.1229963899,0 24.8433534801,-28.1238010526,0 24.8431281745,-28.1243884563,0 24.8429779708,-28.1248055398,0 24.8428760469,-28.1251528859,0 24.8427151144,-28.1257201731,0 24.8425327241,-28.126552999,0 24.8423717916,-28.1275507808,0 24.8423355818,-28.1278525293,0 24.8422242701,-28.1288073957,0 24.8421987891,-28.1290648878,0 24.8421545327,-28.1295087934,0 24.8421438038,-28.1296348572,0 24.8419587314,-28.1312642992,0 24.8419386148,-28.1314413249,0 24.8418568075,-28.1322178245,0 24.8417709768,-28.1329219043,0 24.8417374492,-28.1332840025,0 24.8417267203,-28.1334006786,0 24.841722697,-28.1337198615,0 24.8416757584,-28.1342643499,0 24.8416663706,-28.1343528628,0 24.8415791988,-28.1350019574,0 24.8415564001,-28.1351722777,0 24.8414491117,-28.1360238791,0 24.8414196074,-28.1362733245,0 24.8413364589,-28.1369814277,0 24.8412667215,-28.1375996768,0 24.8412264884,-28.1379564106,0 24.8408804834,-28.1410449743,0 24.8407544196,-28.14215675,0 24.8405747116,-28.1437499821,0 24.8403413594,-28.1458045542,0 24.8403199017,-28.1459896266,0 24.8402971029,-28.1461814046,0 24.8402501643,-28.1465891004,0 24.8401468992,-28.1476525962,0 24.8400087655,-28.1490714848,0 24.8398867249,-28.1505842507,0 24.8398558795,-28.1509785354,0 24.8397432268,-28.1522378325,0 24.8395420611,-28.1547027826,0 24.839335531,-28.1571382284,0 24.8392443359,-28.158275485,0 24.8392309248,-28.1584082544,0 24.839169234,-28.1591767073,0 24.8391209543,-28.159737289,0 24.8390968144,-28.159994781,0 24.8389707506,-28.1615008414,0 24.838874191,-28.162599206,0 24.8386891186,-28.164691329,0 24.8386193812,-28.1655026972,0 24.8384986818,-28.1669940054,0 24.8384182155,-28.1679730117,0 24.8382921517,-28.1694723666,0 24.8381902277,-28.1707517803,0 24.8380614817,-28.1722229719,0 24.838052094,-28.1723490357,0 24.8380172253,-28.1727996469,0 24.8379810154,-28.1732650101,0 24.8379488289,-28.173763901,0 24.8379327357,-28.1745390594,0 24.8379354179,-28.1753008068,0 24.8379461467,-28.1757058203,0 24.8379836977,-28.1762865186,0 24.8380158842,-28.1765963137,0 24.8380990326,-28.1773392856,0 24.8381660879,-28.1779038906,0 24.8382291198,-28.1784725189,0 24.8383082449,-28.1789271533,0 24.8384664953,-28.1796902418,0 24.8386475444,-28.1804680824,0 24.8391062021,-28.1823255122,0 24.8392617702,-28.1829303503,0 24.8392724991,-28.1829611957,0 24.839284569,-28.1830094755,0 24.8393274844,-28.1831583381,0 24.839939028,-28.185557574,0 24.8399926722,-28.1857721508,0 24.8401764035,-28.1865164638,0 24.8406632245,-28.1884771585,0 24.8414973915,-28.1917843223,0 24.8416744173,-28.1924374402,0 24.8424455523,-28.1954669952,0 24.8433065414,-28.1988331676,0 24.8441125453,-28.2020545006,0 24.844879657,-28.2050612569,0 24.8454724252,-28.2074001431,0 24.8459900916,-28.2094238698,0 24.8465935886,-28.2118459046,0 24.8469302058,-28.2131065428,0 24.8473995924,-28.2150256634,0 24.8479454219,-28.2171714306,0 24.848601222,-28.2197128236,0 24.8492261767,-28.222193867,0 24.8494501412,-28.2232493162,0 24.8495453596,-28.2237106562,0 24.8496727645,-28.2244844735,0 24.8498162627,-28.2257558405,0 24.8498658836,-28.2262413204,0 24.8498953879,-28.2267643511,0 24.8499181867,-28.22721228,0 24.8499383032,-28.227827847,0 24.8499450088,-28.2280518115,0 24.84992221,-28.2284849882,0 24.8498725891,-28.2296101749,0 24.8498484492,-28.230009824,0 24.8498243093,-28.2304362953,0 24.8497532308,-28.2310330868,0 24.8497277498,-28.2312637568,0 24.8496888578,-28.2315386832,0 24.8496419191,-28.2318229973,0 24.8495802283,-28.2322119176,0 24.8495332897,-28.2325136662,0 24.8494648933,-28.2329079509,0 24.849396497,-28.2332727313,0 24.8492583632,-28.2338802516,0 24.849165827,-28.2341954112,0 24.8491121829,-28.2344126701,0 24.8490665853,-28.2345950603,0 24.8490129411,-28.2347922027,0 24.8488506675,-28.2353380322,0 24.8487661779,-28.2356129587,0 24.848677665,-28.2359012961,0 24.848587811,-28.2361802459,0 24.848523438,-28.2363626361,0 24.8483008146,-28.2370103896,0 24.8479709029,-28.2377828658,0 24.8477764428,-28.2382777333,0 24.8475766182,-28.2386425138,0 24.8473244905,-28.2391802967,0 24.8469597101,-28.2399339974,0 24.846470207,-28.2409706712,0 24.8461349308,-28.2417042553,0 24.8457768559,-28.2424284518,0 24.8454965651,-28.2430386543,0 24.8452109098,-28.2436622679,0 24.8449373245,-28.2442577183,0 24.8445215821,-28.2451106608,0 24.844199717,-28.2457275689,0 24.8430584371,-28.2477995753,0 24.8428867757,-28.2481576502,0 24.8427794874,-28.2483440638,0 24.842658788,-28.2485452294,0 24.84179914,-28.2504281402,0 24.840683341,-28.2528354228,0 24.8399671912,-28.2543347776,0 24.8395192623,-28.2552748919,0 24.839130342,-28.2560916245,0 24.8385858536,-28.2572731376,0 24.8379005492,-28.2586933672,0 24.8375076056,-28.2595288754,0 24.8372098804,-28.2601967454,0 24.8370918632,-28.2605199516,0 24.8369765282,-28.2609048486,0 24.8368960619,-28.2612454891,0 24.8368263245,-28.2616263628,0 24.8367592692,-28.2620112598,0 24.8366935551,-28.2625946403,0 24.8366358876,-28.2632933557,0 24.8366399109,-28.263656795,0 24.8366707563,-28.2642361522,0 24.8368652165,-28.2662008703,0 24.8368960619,-28.2665106654,0 24.8369497061,-28.2674172521,0 24.8369590938,-28.2677981257,0 24.8369456828,-28.2682621479,0 24.8369269073,-28.2685370743,0 24.8368746042,-28.26895684,0 24.836666733,-28.270111531,0 24.8361222446,-28.2728017867,0 24.8356314003,-28.2751594484,0 24.8353484273,-28.2765930891,0 24.835267961,-28.2771509886,0 24.8352156579,-28.2776646316,0 24.8351848125,-28.2782573998,0 24.8351888359,-28.2789386809,0 24.8353041708,-28.2810482383,0 24.8353524506,-28.2823853195,0 24.8354181647,-28.2835789025,0 24.8355200887,-28.2855919003,0 24.8356220126,-28.2875606418,0 24.8357199132,-28.2896138728,0 24.8357024789,-28.2902991772,0 24.8356260359,-28.2916885614,0 24.8355911672,-28.2922062278,0 24.8355562985,-28.2925026119,0 24.8351660371,-28.2951968908,0 24.8349313438,-28.2967458665,0 24.8348522186,-28.2973212004,0 24.8347945511,-28.2976309955,0 24.8347248137,-28.2979139686,0 24.8345732689,-28.2984758914,0 24.8343922198,-28.2990552485,0 24.8341186345,-28.2997539639,0 24.8340167105,-28.2999618351,0 24.8332992196,-28.3013378084,0 24.8330122232,-28.3018863201,0 24.8325254023,-28.3028157055,0 24.8311534524,-28.3055368066,0 24.8298619688,-28.3080151677,0 24.8295870423,-28.3085891604,0 24.8292557895,-28.3093468845,0 24.8288843036,-28.3102709055,0 24.827645123,-28.3133594692,0 24.8266151547,-28.3159732819,0 24.8255744576,-28.3185039461,0 24.8253451288,-28.3190685511,0 24.825066179,-28.3197565377,0 24.8248583078,-28.3202473819,0 24.8246061802,-28.3207435906,0 24.8245082796,-28.320915252,0 24.8244197667,-28.3210533857,0 24.8242869973,-28.3212518692,0 24.8237559199,-28.3220002055,0 24.8232878745,-28.3225487173,0 24.8227393627,-28.323083818,0 24.8222525418,-28.3235129714,0 24.8211555183,-28.3243981004,0 24.8204688728,-28.3249734342,0 24.8198010027,-28.3256413043,0 24.8193490505,-28.3261549473,0 24.8190714419,-28.3265210688,0 24.8185712099,-28.3272117376,0 24.8183941841,-28.3274772763,0 24.8180495203,-28.3280606568,0 24.8178416491,-28.3284683526,0 24.8174071312,-28.3294326067,0 24.8172569275,-28.3298309147,0 24.8171509802,-28.3301353455,0 24.8170007765,-28.3306664228,0 24.8169122636,-28.3310647309,0 24.816827774,-28.3315341175,0 24.8167526722,-28.3320732415,0 24.8166118562,-28.3339977264,0 24.8164187372,-28.3360777795,0 24.8163409531,-28.3369132876,0 24.8161250353,-28.3398033679,0 24.8158715665,-28.3424171805,0 24.8157656193,-28.3437046409,0 24.8157347739,-28.3443161845,0 24.8157575727,-28.3450417221,0 24.8158098757,-28.3456961811,0 24.8158916831,-28.3462299407,0 24.8158983886,-28.3462755382,0 24.8159734905,-28.3465893567,0 24.8161706328,-28.3472009003,0 24.8161947727,-28.3472760022,0 24.8163811862,-28.3477976918,0 24.8164696991,-28.3480095863,0 24.8166520894,-28.3483502269,0 24.816800952,-28.3486291766,0 24.8170222342,-28.349006027,0 24.81719926,-28.3492621779,0 24.8177880049,-28.350045383,0 24.818252027,-28.3506555855,0 24.8185537755,-28.3511464298,0 24.8186731339,-28.3513596654,0 24.8187656701,-28.3515581489,0 24.818854183,-28.3518102765,0 24.8189856112,-28.3522327244,0 24.819098264,-28.3525975049,0 24.8191988468,-28.3529877663,0 24.8192605376,-28.3532626927,0 24.8193141818,-28.353690505,0 24.8193235695,-28.3540043235,0 24.8192310333,-28.356654346,0 24.8191854358,-28.3584433794,0 24.8191720247,-28.3589878678,0 24.8191612959,-28.3594210446,0 24.8190754652,-28.3620361984,0 24.8190540075,-28.3623339236,0 24.8190271854,-28.3625739813,0 24.8189842701,-28.3628864586,0 24.8189145327,-28.3632686734,0 24.8186570406,-28.3643911779,0 24.817943573,-28.367228955,0 24.8174715042,-28.3690689504,0 24.8168492317,-28.3714534342,0 24.8163771629,-28.3732894063,0 24.8159587383,-28.3749228716,0 24.8153686523,-28.3772349358,0 24.8150414228,-28.378546536,0 24.8145639896,-28.3803878725,0 24.8138290644,-28.3832578361,0 24.8131209612,-28.3860459924,0 24.8127508163,-28.3874769509,0 24.8124879599,-28.3885283768,0 24.8120427132,-28.3902516961,0 24.8116135597,-28.3919414878,0 24.8109215498,-28.3946022391,0 24.8102456331,-28.3972026408,0 24.8095160723,-28.3998258412,0 24.8087918758,-28.4025067091,0 24.8082822561,-28.4043346345,0 24.8080837727,-28.4050735831,0 24.8077780008,-28.4060928226,0 24.8072040081,-28.4078201652,0 24.8064637184,-28.4099377692,0 24.805803895,-28.4118488431,0 24.8048651218,-28.4145672619,0 24.8039209843,-28.4172749519,0 24.8029178381,-28.4201717377,0 24.8021185398,-28.4224891663,0 24.8014962673,-28.4242714942,0 24.8005735874,-28.4269322455,0 24.7996777296,-28.4295219183,0 24.7990822792,-28.4312398732,0 24.799028635,-28.4314088523,0 24.7987818718,-28.4321263433,0 24.7982347012,-28.4336780012,0 24.7975802422,-28.4355609119,0 24.7967541218,-28.4379668534,0 24.7959333658,-28.4403111041,0 24.7950696945,-28.4428149462,0 24.7946834564,-28.4438958764,0 24.7945171595,-28.444390744,0 24.7943669558,-28.4448252618,0 24.7942972183,-28.4450277686,0 24.7940504551,-28.4457452595,0 24.7933155298,-28.4478481114,0 24.7923606634,-28.450589329,0 24.7917222977,-28.4524145722,0 24.7916203737,-28.4527726471,0 24.7915399075,-28.4530837834,0 24.7914594412,-28.4535129368,0 24.7914165258,-28.4539984167,0 24.7914272547,-28.4544932842,0 24.7914540768,-28.4548339248,0 24.7915305197,-28.455311358,0 24.7915828228,-28.4555272758,0 24.7916579247,-28.4557525814,0 24.7917222977,-28.4559416771,0 24.7918188572,-28.4561964869,0 24.7919583321,-28.4565035999,0 24.792136699,-28.456877768,0 24.7924169898,-28.4573431313,0 24.7935180366,-28.4591120481,0 24.7936199605,-28.4592930973,0 24.7937768698,-28.4595264494,0 24.793894887,-28.4597195685,0 24.7941094637,-28.4600736201,0 24.7942811251,-28.4604075551,0 24.7945654392,-28.4610901773,0 24.7947062552,-28.4614522755,0 24.7948256135,-28.4618197381,0 24.7950737178,-28.4627839923,0 24.7954773903,-28.4644214809,0 24.7959494591,-28.4663030505,0 24.7963531315,-28.4678895772,0 24.7968788445,-28.4700004756,0 24.7969982028,-28.4705489874,0 24.7971242666,-28.471211493,0 24.7972221673,-28.4719182551,0 24.7972583771,-28.4725083411,0 24.7972798347,-28.473315686,0 24.7972208261,-28.474739939,0 24.7971309721,-28.4762956202,0 24.7969740629,-28.4787753224,0 24.7967299819,-28.4824472666,0 24.7966361046,-28.4841088951,0 24.7965610027,-28.4847874939,0 24.7964859009,-28.4852260351,0 24.796333015,-28.4859663248,0 24.7962793708,-28.4861701727,0 24.7960996628,-28.486828655,0 24.7958260775,-28.4876359999,0 24.794511795,-28.4909780324,0 24.7938627005,-28.4926061332,0 24.7932109237,-28.4942865372,0 24.7925953567,-28.4958341718,0 24.7918483615,-28.4977586567,0 24.791315943,-28.4991306067,0 24.7907741368,-28.5003148019,0 24.7902685404,-28.5012280941,0 24.7898581624,-28.5018973053,0 24.7889220715,-28.5032075644,0 24.7883976996,-28.5039062798,0 24.7873932123,-28.5052675009,0 24.7865080833,-28.506462425,0 24.785977006,-28.5071343184,0 24.7851616144,-28.5082420707,0 24.7846359015,-28.5089206696,0 24.7842442989,-28.5094866157,0 24.7838258743,-28.5101558268,0 24.7835898399,-28.5105809569,0 24.7832947969,-28.5111737251,0 24.783064127,-28.5116887093,0 24.7828817368,-28.5121500492,0 24.7827208042,-28.5126020014,0 24.7825866938,-28.5130740702,0 24.7824150324,-28.5137030482,0 24.7821468115,-28.5148604214,0 24.7816693783,-28.5169833899,0 24.7806850076,-28.5213688016,0 24.7798012197,-28.5252030194,0 24.7788155079,-28.5295817256,0 24.7778472304,-28.5337874293,0 24.7770707309,-28.537299782,0 24.7759924829,-28.5420124233,0 24.7744435072,-28.5488520563,0 24.773979485,-28.5509066284,0 24.7734591365,-28.5532388091,0 24.7728167474,-28.5559532046,0 24.7722186148,-28.5586005449,0 24.7714555264,-28.5619989038,0 24.7706508636,-28.5654965043,0 24.7704577446,-28.5663937032,0 24.7703182697,-28.5673123598,0 24.7702565789,-28.5679748654,0 24.7702378035,-28.568868041,0 24.7702485323,-28.570497483,0 24.7702538967,-28.5711425543,0 24.7702753544,-28.5744698346,0 24.7702968121,-28.5779888928,0 24.7703303397,-28.5820886493,0 24.770347774,-28.5860288143,0 24.7703786194,-28.5904584825,0 24.7703826427,-28.5936167836,0 24.7704148293,-28.5969051719,0 24.7704041004,-28.5979485512,0 24.7704067826,-28.5984648764,0 24.7704309225,-28.6015842855,0 24.7704577446,-28.6056277156,0 24.7704872489,-28.6086425185,0 24.7705435753,-28.6096121371,0 24.7706454992,-28.6105817556,0 24.7708573937,-28.6126309633,0 24.7712355852,-28.6163887382,0 24.7716647387,-28.6206226051,0 24.7717505693,-28.6214366555,0 24.7720992565,-28.6248645186,0 24.772555232,-28.6292955279,0 24.7729736567,-28.6334113777,0 24.7733438015,-28.6369653046,0 24.7738212347,-28.6416779459,0 24.7742503881,-28.6457924545,0 24.7745829821,-28.6491693556,0 24.7746366262,-28.6496628821,0 24.774684906,-28.6500491202,0 24.7747117281,-28.6503924429,0 24.7747653723,-28.65099594,0 24.7748082876,-28.6513392627,0 24.7748404741,-28.6515980959,0 24.7748672962,-28.6519601941,0 24.7749316692,-28.6524738371,0 24.7749638557,-28.6528171599,0 24.7750335932,-28.6534756422,0 24.7750765085,-28.6539141834,0 24.7751355171,-28.6545351148,0 24.7751891613,-28.6549924314,0 24.7752374411,-28.6554443836,0 24.7752588987,-28.6557501554,0 24.7753071785,-28.6561927199,0 24.7753500938,-28.6566728354,0 24.7753930092,-28.6571288109,0 24.7754412889,-28.6575056612,0 24.7755110264,-28.6582124233,0 24.7755539417,-28.6586308479,0 24.7756075859,-28.6591820419,0 24.7756558657,-28.6596527696,0 24.7757041454,-28.6601516604,0 24.7757470608,-28.6604949832,0 24.7757953405,-28.6609697342,0 24.7758167982,-28.6612339318,0 24.7758597136,-28.6616389453,0 24.7759079933,-28.6620949209,0 24.7759348154,-28.6624248326,0 24.775993824,-28.6629237235,0 24.7760152817,-28.6631584167,0 24.7760313749,-28.6633756757,0 24.7760742903,-28.6637283862,0 24.7760957479,-28.6639550328,0 24.7761118412,-28.6641575396,0 24.7761386633,-28.6643922329,0 24.7761815786,-28.6648535728,0 24.7762084007,-28.6650694907,0 24.7762459517,-28.6655174196,0 24.7762942314,-28.6659693718,0 24.7763264179,-28.6661718786,0 24.7763693333,-28.6665339768,0 24.7764122486,-28.6670462787,0 24.7764337063,-28.6673158407,0 24.776481986,-28.6676444113,0 24.7765034437,-28.6678938568,0 24.7765409946,-28.6682465672,0 24.7766000032,-28.6689063907,0 24.7766321898,-28.6691558361,0 24.7766697407,-28.6694803834,0 24.7766965628,-28.6698290706,0 24.7767394781,-28.6701911688,0 24.7767716646,-28.6705774069,0 24.77681458,-28.671014607,0 24.7768360376,-28.6712694168,0 24.7769272327,-28.6720177531,0 24.7769808769,-28.6724643409,0 24.7770237923,-28.6729069054,0 24.7770506144,-28.6732368171,0 24.7770774364,-28.6735238135,0 24.7771257162,-28.6739274859,0 24.777173996,-28.6744317412,0 24.7772169113,-28.6749400198,0 24.7772705555,-28.6754013598,0 24.7773134708,-28.6757916212,0 24.7773778439,-28.6764420569,0 24.7774422169,-28.6770160496,0 24.7775012255,-28.6776316166,0 24.7775387764,-28.6779896915,0 24.7775763273,-28.6783799529,0 24.7776085138,-28.67875278,0 24.7776514292,-28.6791282892,0 24.7776889801,-28.6794957519,0 24.7777211666,-28.6798766255,0 24.7777694464,-28.680305779,0 24.7778230906,-28.6807858944,0 24.7778713703,-28.6813598871,0 24.7779196501,-28.6817407608,0 24.777957201,-28.6821873486,0 24.7780323029,-28.6828283966,0 24.7780644894,-28.6831006408,0 24.7780805826,-28.6833554506,0 24.7781074047,-28.6835767329,0 24.7781342268,-28.6839334667,0 24.7781771421,-28.6844041944,0 24.7782254219,-28.6847662926,0 24.7782737017,-28.6853215098,0 24.7782951593,-28.6855146289,0 24.7783327103,-28.685760051,0 24.7783702612,-28.6861932278,0 24.7784024477,-28.6864466965,0 24.7784399986,-28.6867900193,0 24.7784668207,-28.6870019138,0 24.7784949839,-28.6872768402,0 24.7785378993,-28.6879608035,0 24.7785459459,-28.6881391704,0 24.7785553336,-28.6883765459,0 24.7785714269,-28.6889411509,0 24.7785687447,-28.6893086135,0 24.778496325,-28.6900676787,0 24.7783729434,-28.6910654604,0 24.778355509,-28.6912170053,0 24.7783179581,-28.6916206777,0 24.7782683372,-28.6921852827,0 24.7780966759,-28.6938026547,0 24.7780671716,-28.6940869689,0 24.7778727114,-28.6960141361,0 24.7774730623,-28.6997880042,0 24.7773228586,-28.7012779713,0 24.7771672904,-28.7027183175,0 24.7769419849,-28.7048627436,0 24.7769258916,-28.7050209939,0 24.7768990695,-28.7053214014,0 24.7768454254,-28.7058658898,0 24.7767944634,-28.7063594162,0 24.7767327726,-28.7068931758,0 24.7766657174,-28.7075597048,0 24.7766362131,-28.7078976631,0 24.7765825689,-28.7084273994,0 24.7765316069,-28.7089826167,0 24.776494056,-28.709333986,0 24.7764565051,-28.7096437812,0 24.7764350474,-28.709859699,0 24.7764082253,-28.7101064622,0 24.7763572633,-28.7105865777,0 24.7763036191,-28.7111069262,0 24.7762419283,-28.7116366625,0 24.7761909664,-28.712104708,0 24.7760997713,-28.7129750848,0 24.7760622203,-28.7133532763,0 24.7760273516,-28.7137113512,0 24.7759817541,-28.7140895426,0 24.7759307921,-28.7144891918,0 24.7758878767,-28.7147171795,0 24.7758100927,-28.7150940299,0 24.7757162154,-28.7154735625,0 24.7756035626,-28.7158893049,0 24.7754506767,-28.7163519859,0 24.7753085196,-28.7167529762,0 24.7753031552,-28.7167677283,0 24.7751529515,-28.7171030045,0 24.77499336,-28.7174235284,0 24.77477476,-28.7178607285,0 24.7746406496,-28.7181195617,0 24.7744515538,-28.7184078991,0 24.7742477059,-28.7187042832,0 24.7740156949,-28.7190301716,0 24.773709923,-28.7194190919,0 24.7735342383,-28.7196537852,0 24.773209691,-28.720061481,0 24.7730782628,-28.7202438712,0 24.77296561,-28.7203873694,0 24.7729146481,-28.7204584479,0 24.772708118,-28.7207239866,0 24.7714528441,-28.7223762274,0 24.7710599005,-28.7228898704,0 24.7701331973,-28.7240217626,0 24.7698247433,-28.724373132,0 24.7692762315,-28.7250007689,0 24.768961072,-28.7253534794,0 24.7685989738,-28.7258000672,0 24.7684192657,-28.7260119617,0 24.7680383921,-28.7264451385,0 24.7675958276,-28.7269453704,0 24.7669440508,-28.7278157473,0 24.765792042,-28.7294666469,0 24.765702188,-28.7295927107,0 24.7656257451,-28.7297067046,0 24.7648465633,-28.7308292091,0 24.7647486627,-28.7309673429,0 24.7643584013,-28.7308144569,0 24.7642377019,-28.7307728827,0 24.7640928626,-28.7307246029,0 24.7638273239,-28.7306602299,0 24.7636368871,-28.730622679,0 24.7634249926,-28.730597198,0 24.7632533312,-28.7305811048,0 24.7630897164,-28.7305690348,0 24.7628805041,-28.7305690348,0 24.7626712918,-28.730583787,0 24.7625076771,-28.7305998802,0 24.7624205053,-28.7306146324,0 24.7623038292,-28.7306347489,0 24.7621402144,-28.7306709588,0 24.7619873285,-28.7307085097,0 24.7618183494,-28.7307567894,0 24.7616493702,-28.7308184803,0 24.7613570094,-28.7309525907,0 24.7610914707,-28.7311027944,0 24.760748148,-28.7313146889,0 24.7605362535,-28.7314420938,0 24.7603753209,-28.7315198779,0 24.7602519393,-28.7315762043,0 24.7601231933,-28.731636554,0 24.7600132227,-28.7317639589,0 24.759966284,-28.7318430841,0 24.7599206865,-28.7319262326,0 24.7598885,-28.7320026755,0 24.7598603368,-28.7320992351,0 24.7598254681,-28.7322212756,0 24.7598911822,-28.7324224412,0 24.7600091994,-28.7328006327,0 24.7600601614,-28.7329655886,0 24.7602009773,-28.7334175408,0 24.7602264583,-28.733510077,0 24.7602385283,-28.7335985899,0 24.7602412105,-28.7336616218,0 24.760286808,-28.7352494895,0 24.7603136301,-28.7358905375,0 24.7603243589,-28.736089021,0 24.7602130473,-28.7360930443,0 24.760042727,-28.736089021,0 24.7598281503,-28.7360849977,0 24.7596591711,-28.7360823154,0 24.7595304251,-28.7360796332,0 24.759311825,-28.7360729277,0 24.7591777146,-28.7360689044,0 24.7591146827,-28.7360702455,0 24.7590047121,-28.7360702455,0 24.7588558495,-28.7360836565,0 24.7586359084,-28.7360970676,0 24.7585219145,-28.7361037731,0 24.7583328187,-28.7361212075,0 24.7581571341,-28.7361386418,0 24.7578339279,-28.7361748517,0 24.7574678063,-28.7362298369,0 24.7571271658,-28.73628214,0 24.7570614517,-28.7362915277,0 24.7567141056,-28.7363424897,0 24.7566068172,-28.7363572419,0 24.7563439608,-28.7363947928,0 24.7560220957,-28.7364457548,0 24.7559604049,-28.7364564836,0 24.75559026,-28.7365114689,0 24.755512476,-28.7365221977,0 24.7553180158,-28.7365476787,0 24.7552080452,-28.7365624309,0 24.7550712526,-28.7365731597,0 24.7549934685,-28.7365798652,0 24.7549505532,-28.7365838885,0 24.7548003495,-28.7365852296,0 24.7546836734,-28.7365758419,0 24.7545576096,-28.7365570664,0 24.754486531,-28.7365409732,0 24.7544892132,-28.7366482615,0 24.7545012832,-28.7368185818,0 24.7545213997,-28.7369500101,0 24.7545294464,-28.7369996309,0 24.7545415163,-28.7370881438,0 24.7545522451,-28.7371619046,0 24.754562974,-28.7373054028,0 24.7545777261,-28.7374408543,0 24.7545991838,-28.7375642359,0 24.7546286881,-28.7376433611,0 24.7546756268,-28.7377412617,0 24.7547265887,-28.7378458679,0 24.7547574341,-28.7379316986,0 24.754742682,-28.7380068004,0 24.7546635568,-28.7380738556,0 24.7545468807,-28.738116771,0 24.7544690967,-28.7381489575,0 24.7544141114,-28.738220036,0 24.7543993592,-28.7383031845,0 24.7544127703,-28.7383541465,0 24.7544503212,-28.7384305894,0 24.7545669973,-28.7386639416,0 24.7546568513,-28.7388302386,0 24.7547265887,-28.7389710546,0 24.7547520697,-28.7390555441,0 24.7547614574,-28.7391668558,0 24.754756093,-28.7392567098,0 24.754742682,-28.7393841147,0 24.754742682,-28.7394618988,0 24.7547440231,-28.7396134436,0 24.7547507286,-28.7398052216,0 24.7547534108,-28.7398521602,0 24.7547601163,-28.7400385737,0 24.7547627985,-28.7402410805,0 24.7547641397,-28.740298748,0 24.7547641397,-28.7403711677,0 24.7547748685,-28.7405200303,0 24.7547923028,-28.7406648695,0 24.7548258305,-28.7409585714,0 24.7548553348,-28.7412562966,0 24.7548902035,-28.7415392697,0 24.7549062967,-28.7417109311,0 24.7549130023,-28.7417940795,0 24.754935801,-28.7420582771,0 24.7549545765,-28.7422205508,0 24.7549572587,-28.7423184514,0 24.7549518943,-28.7423868477,0 24.7549290955,-28.7424404919,0 24.7548808157,-28.7425102293,0 24.7548674047,-28.7425705791,0 24.7548633814,-28.7426403165,0 24.7548620403,-28.7427274883,0 24.7549062967,-28.7430560589,0 24.75491032,-28.7435133755,0 24.7549143434,-28.7438111007,0 24.7549130023,-28.7439183891,0 24.7549156845,-28.7441490591,0 24.7549237311,-28.7442241609,0 24.7549156845,-28.7443435192,0 24.7549116611,-28.7445876002,0 24.7548982501,-28.7446908653,0 24.7548700869,-28.744841069,0 24.7548432648,-28.7449979782,0 24.7548043728,-28.7451696396,0 24.7547949851,-28.7452112138,0 24.7547453642,-28.7454405427,0 24.7546756268,-28.7458254397,0 24.7546152771,-28.7461768091,0 24.754550904,-28.7464785576,0 24.7544959188,-28.7468312681,0 24.7544704378,-28.7469372153,0 24.7544395924,-28.7470713258,0 24.7542384267,-28.7470847368,0 24.7535263002,-28.7471155822,0 24.7531789541,-28.7471316755,0 24.7522951663,-28.7471705675,0 24.751599133,-28.7471960485,0 24.7516581416,-28.747587651,0 24.7517064214,-28.7479309738,0 24.7517882288,-28.7484768033,0 24.7518914938,-28.7491285801,0 24.7519920766,-28.7497401237,0 24.7520323098,-28.7499493361,0 24.7516272962,-28.7500351667,0 24.7507059574,-28.7502457201,0 24.7497631609,-28.7504281104,0 24.7492441535,-28.7505286932,0 24.7489584982,-28.7505850196,0 24.7487264872,-28.7506332994,0 24.7482088208,-28.7507405877,0 24.7475677729,-28.7508679926,0 24.7471171618,-28.7509484589,0 24.7469374537,-28.7509900331,0 24.7466786206,-28.7510584295,0 24.7465525568,-28.7511013448,0 24.746388942,-28.7511482835,0 24.7462266684,-28.751219362,0 24.7461126745,-28.7512810528,0 24.7459986806,-28.7513333559,0 24.7459128499,-28.7513762712,0 24.7458310425,-28.751424551,0 24.7457747161,-28.7514567375,0 24.7456674278,-28.7515197694,0 24.7455051541,-28.7516123056,0 24.7453831136,-28.751680702,0 24.7453375161,-28.7517651916,0 24.7452892363,-28.7518389523,0 24.7452624142,-28.7519019842,0 24.7452181578,-28.7520159781,0 24.7451980412,-28.7520937622,0 24.7451765835,-28.7521755695,0 24.7451645136,-28.7522681057,0 24.7451631725,-28.7524156272,0 24.7452114522,-28.7525765598,0 24.7452503443,-28.7527066469,0 24.7455842793,-28.753169328,0 24.7457036376,-28.7533342838,0 24.7458994389,-28.7536078691,0 24.7459490597,-28.7536789477,0 24.7460201383,-28.7537781894,0 24.7461515665,-28.7540370226,0 24.7462011874,-28.7541094422,0 24.7463554144,-28.7543816864,0 24.7464747727,-28.7545412779,0 24.7466853261,-28.7548336387,0 24.7468261421,-28.7550146878,0 24.7470903397,-28.7548711896,0 24.747133255,-28.7548483908,0 24.7471560538,-28.7548363209,0 24.7471815348,-28.754825592,0 24.7471949458,-28.7548215687,0 24.7472190857,-28.7548188865,0 24.7472727299,-28.7548188865,0 24.7473210096,-28.7548202276,0 24.7475235164,-28.7548309565,0 24.7475382686,-28.7543012202,0
            </coordinates>
        </LineString>
        </Placemark>
  </Folder>
        </Document>
    </kml>
    