<?xml version="1.0" encoding="UTF-8"?>
    <kml xmlns="http://www.opengis.net/kml/2.2">
    <Document>
        <name>Colored Path</name>
        <Folder>
            <name>Day 3</name>
            <open>1</open>
            <Style id="blackLine">
            <LineStyle>
                <color>ff000000</color>
                <width>4</width>
            </LineStyle>
            </Style>
            <Style id="redLine">
            <LineStyle>
                <color>ff0000ff</color>
                <width>4</width>
            </LineStyle>
            </Style>
        <Placemark>
        <name>Segment 1 (True)</name>
        <styleUrl>#blackLine</styleUrl>
        <LineString>
            <tessellate>1</tessellate>
            <coordinates>
            24.7277408838,-26.9477798045,0 24.7276242077,-26.9484959543,0 24.7275491059,-26.9489532709,0 24.7274686396,-26.949493736,0 24.7274297476,-26.9497539103,0 24.7274002433,-26.9499443471,0 24.7273573279,-26.9502232969,0 24.7272929549,-26.9505853951,0 24.7259062529,-26.9503976405,0 24.7247904539,-26.9502487779,0 24.7245973349,-26.9502219558,0 24.7240810096,-26.9501495361,0 24.7239536047,-26.9501280785,0 24.7234842181,-26.9500663877,0 24.7233004868,-26.9500422478,0 24.7232884169,-26.9498571754,0 24.7232615948,-26.9496171176,0 24.7232092917,-26.9494052231,0 24.7231690586,-26.9492429495,0 24.7230698168,-26.9490136206,0 24.7230376303,-26.9489385188,0 24.7229531407,-26.9487561285,0 24.72287938,-26.9486314058,0 24.7228203714,-26.9485321641,0 24.7225964069,-26.9482156634,0 24.7220988572,-26.9475853443,0 24.7219003737,-26.9473345578,0 24.7214618325,-26.9467833638,0 24.7213451564,-26.9466358423,0 24.7212553024,-26.9465231895,0 24.7195923328,-26.9444538653,0 24.7189043462,-26.9435955584,0 24.7188600898,-26.9435405731,0 24.7181600332,-26.9426688552,0 24.7176262736,-26.942011714,0 24.7172118723,-26.9415034354,0 24.7167733312,-26.9409388304,0 24.7167049348,-26.9408516586,0 24.716489017,-26.9405820966,0 24.7138215601,-26.9372481108,0 24.7128586471,-26.9360424578,0 24.7124616802,-26.9355475903,0 24.7096574306,-26.9320701063,0 24.70618397,-26.9277437031,0 24.7048053145,-26.925996244,0 24.7035272419,-26.9243842363,0 24.7012393177,-26.9215558469,0 24.7000551224,-26.9200846553,0 24.6997104585,-26.9196648896,0 24.6995092928,-26.919439584,0 24.6992665529,-26.9192035496,0 24.6989393234,-26.9188816845,0 24.6986684203,-26.9186282158,0 24.6982888877,-26.9183345139,0 24.6977524459,-26.9179482758,0 24.6971945465,-26.9176089764,0 24.6962222457,-26.9169706106,0 24.6940228343,-26.9155423343,0 24.6923987567,-26.9145002961,0 24.6915766597,-26.9139826298,0 24.691144824,-26.9137398899,0 24.6907813847,-26.9135454297,0 24.6904166043,-26.9133523107,0 24.6900478005,-26.9131739438,0 24.6892645955,-26.9128333032,0 24.6884076297,-26.9125235081,0 24.6871858835,-26.9121091068,0 24.6867915988,-26.9119736552,0 24.6848027408,-26.9112963974,0 24.6827025712,-26.9105949998,0 24.6785223484,-26.9092015922,0 24.6754914522,-26.9081783295,0 24.6727918088,-26.9072704017,0 24.6684654057,-26.9058340788,0 24.6646513045,-26.904553324,0 24.662463963,-26.9038103521,0 24.6597120166,-26.9028943777,0 24.657818377,-26.9022506475,0 24.6571907401,-26.9020481408,0 24.6568112075,-26.901910007,0 24.6559824049,-26.9015479088,0 24.6543811262,-26.9008103013,0 24.6518169343,-26.8995992839,0 24.6497905254,-26.8986725807,0 24.6468897164,-26.8973140419,0 24.6440707147,-26.8959984183,0 24.6421086788,-26.8950945139,0 24.6406951547,-26.8944239616,0 24.6402083337,-26.8941986561,0 24.638645947,-26.8934744596,0 24.6358242631,-26.8921722472,0 24.6335336566,-26.891079247,0 24.6298576891,-26.8893894553,0 24.6248982847,-26.8870894611,0 24.6219103038,-26.8856906891,0 24.6212612092,-26.8853889406,0 24.6190349758,-26.8843522668,0 24.6168932319,-26.8833678961,0 24.6152812243,-26.8826074898,0 24.6128927171,-26.8814568222,0 24.6095962822,-26.8799628317,0 24.6079266071,-26.8791849911,0 24.6041594446,-26.8774040043,0 24.6004526317,-26.875706166,0 24.5961610973,-26.8737106025,0 24.5936331153,-26.8725371361,0 24.5895950496,-26.8706448376,0 24.5851023495,-26.8685808778,0 24.5831148326,-26.8676367402,0 24.579719156,-26.8660421669,0 24.5760324597,-26.8643470109,0 24.5734736323,-26.8631413579,0 24.5731410384,-26.8629871309,0 24.5704856515,-26.8617479503,0 24.5662745833,-26.8597993255,0 24.5637707412,-26.8586352468,0 24.5662745833,-26.8597993255,0 24.5704856515,-26.8617479503,0 24.5731410384,-26.8629871309,0 24.5734736323,-26.8631413579,0 24.5760324597,-26.8643470109,0 24.579719156,-26.8660421669,0 24.5831148326,-26.8676367402,0 24.5851023495,-26.8685808778,0 24.5895950496,-26.8706448376,0 24.5936331153,-26.8725371361,0 24.5961610973,-26.8737106025,0 24.6004526317,-26.875706166,0 24.6041594446,-26.8774040043,0 24.6079266071,-26.8791849911,0 24.6095962822,-26.8799628317,0 24.6128927171,-26.8814568222,0 24.6152812243,-26.8826074898,0 24.6168932319,-26.8833678961,0 24.6190349758,-26.8843522668,0 24.6212612092,-26.8853889406,0 24.6219103038,-26.8856906891,0 24.6248982847,-26.8870894611,0 24.6298576891,-26.8893894553,0 24.6335336566,-26.891079247,0 24.6358242631,-26.8921722472,0 24.638645947,-26.8934744596,0 24.6402083337,-26.8941986561,0 24.6406951547,-26.8944239616,0 24.6421086788,-26.8950945139,0 24.6440707147,-26.8959984183,0 24.6468897164,-26.8973140419,0 24.6497905254,-26.8986725807,0 24.6518169343,-26.8995992839,0 24.6543811262,-26.9008103013,0 24.6559824049,-26.9015479088,0 24.6568112075,-26.901910007,0 24.6571907401,-26.9020481408,0 24.657818377,-26.9022506475,0 24.6597120166,-26.9028943777,0 24.662463963,-26.9038103521,0 24.6646513045,-26.904553324,0 24.6684654057,-26.9058340788,0 24.6727918088,-26.9072704017,0 24.6754914522,-26.9081783295,0 24.6785223484,-26.9092015922,0 24.6827025712,-26.9105949998,0 24.6848027408,-26.9112963974,0 24.6867915988,-26.9119736552,0 24.6871858835,-26.9121091068,0 24.6884076297,-26.9125235081,0 24.6892645955,-26.9128333032,0 24.6900478005,-26.9131739438,0 24.6904166043,-26.9133523107,0 24.6907813847,-26.9135454297,0 24.691144824,-26.9137398899,0 24.6915766597,-26.9139826298,0 24.6923987567,-26.9145002961,0 24.6940228343,-26.9155423343,0 24.6962222457,-26.9169706106,0 24.6971945465,-26.9176089764,0 24.6977524459,-26.9179482758,0 24.6982888877,-26.9183345139,0 24.6986684203,-26.9186282158,0 24.6989393234,-26.9188816845,0 24.6992665529,-26.9192035496,0 24.6995092928,-26.919439584,0 24.6997104585,-26.9196648896,0 24.7000551224,-26.9200846553,0 24.7012393177,-26.9215558469,0 24.7035272419,-26.9243842363,0 24.7048053145,-26.925996244,0 24.70618397,-26.9277437031,0 24.7096574306,-26.9320701063,0 24.7124616802,-26.9355475903,0 24.7128586471,-26.9360424578,0 24.7138215601,-26.9372481108,0 24.716489017,-26.9405820966,0 24.7167049348,-26.9408516586,0 24.7167733312,-26.9409388304,0 24.7172118723,-26.9415034354,0 24.7176262736,-26.942011714,0 24.7181600332,-26.9426688552,0 24.7188600898,-26.9435405731,0 24.7189043462,-26.9435955584,0 24.7195923328,-26.9444538653,0 24.7212553024,-26.9465231895,0 24.7213451564,-26.9466358423,0 24.7214618325,-26.9467833638,0 24.7219003737,-26.9473345578,0 24.7220988572,-26.9475853443,0 24.7225964069,-26.9482156634,0 24.7228203714,-26.9485321641,0 24.72287938,-26.9486314058,0 24.7229531407,-26.9487561285,0 24.7230376303,-26.9489385188,0 24.7230698168,-26.9490136206,0 24.7231690586,-26.9492429495,0 24.7232092917,-26.9494052231,0 24.7232924402,-26.9495621324,0 24.7233876586,-26.9497512281,0 24.723431915,-26.9498196244,0 24.7234654427,-26.9498665631,0 24.7235754132,-26.9499577582,0 24.7237055004,-26.9500342011,0 24.7238436341,-26.9500972331,0 24.7239536047,-26.9501280785,0 24.7240810096,-26.9501495361,0 24.7245973349,-26.9502219558,0 24.7247904539,-26.9502487779,0 24.7259062529,-26.9503976405,0 24.7272929549,-26.9505853951,0 24.7273573279,-26.9502232969,0 24.7274002433,-26.9499443471,0 24.7274297476,-26.9497539103,0 24.7274686396,-26.949493736,0 24.7275491059,-26.9489532709,0 24.7276242077,-26.9484959543,0 24.7277408838,-26.9477798045,0
            </coordinates>
        </LineString>
        </Placemark>
  </Folder>
        </Document>
    </kml>
    