<?xml version="1.0" encoding="UTF-8"?>
    <kml xmlns="http://www.opengis.net/kml/2.2">
    <Document>
        <name>Colored Path</name>
        <Folder>
            <name>Day 7</name>
            <open>1</open>
            <Style id="blackLine">
            <LineStyle>
                <color>ff000000</color>
                <width>4</width>
            </LineStyle>
            </Style>
            <Style id="redLine">
            <LineStyle>
                <color>ff0000ff</color>
                <width>4</width>
            </LineStyle>
            </Style>
        <Placemark>
        <name>Segment 1 (True)</name>
        <styleUrl>#blackLine</styleUrl>
        <LineString>
            <tessellate>1</tessellate>
            <coordinates>
            18.7373878062,-31.606040597,0 18.737257719,-31.6062739491,0 18.7369559705,-31.606913656,0 18.7369009852,-31.607079953,0 18.7368513644,-31.6072529554,0 18.736808449,-31.6074192524,0 18.7367467582,-31.6077075899,0 18.7366850674,-31.6080307961,0 18.7366448343,-31.6082386672,0 18.7366273999,-31.6083084047,0 18.7365321815,-31.6088810563,0 18.7339358032,-31.60858199,0 18.7337882817,-31.6085645556,0 18.7322607636,-31.6083338857,0 18.7320823967,-31.6083110869,0 18.7315432727,-31.6082413495,0 18.7312482297,-31.6082024574,0 18.7307091057,-31.6081407666,0 18.7308324873,-31.6072703898,0 18.7309156358,-31.6066816449,0 18.7309317291,-31.6065180302,0 18.7309075892,-31.6063959897,0 18.7308754027,-31.6062900424,0 18.7307935953,-31.6061840951,0 18.7307117879,-31.6060861945,0 18.7305736542,-31.6060204804,0 18.730353713,-31.6059722006,0 18.7296737731,-31.6058743,0 18.7294015288,-31.6080455482,0 18.7293720245,-31.6082574427,0 18.7292982638,-31.6088193655,0 18.7292338908,-31.6092699766,0 18.7292191386,-31.6093719006,0 18.7291359901,-31.6099847853,0 18.7288784981,-31.6116383672,0 18.7288302183,-31.6119079292,0 18.7286491692,-31.6129352152,0 18.7286049128,-31.6131819785,0 18.728402406,-31.6148503125,0 18.7282428145,-31.6162088513,0 18.7280590832,-31.6177658737,0 18.7279812992,-31.618258059,0 18.7277707458,-31.6193886101,0 18.727607131,-31.620580852,0 18.7272879481,-31.6229827702,0 18.7271632254,-31.62416026,0 18.7271001935,-31.6245263815,0 18.7270304561,-31.6248455644,0 18.7268896401,-31.6253833473,0 18.7267032266,-31.6260391474,0 18.7264618278,-31.6267096996,0 18.7260943651,-31.6276055574,0 18.7254787982,-31.6290016472,0 18.724411279,-31.6312547028,0 18.7225082517,-31.6355274618,0 18.7206602097,-31.6395896673,0 18.7200835347,-31.6409079731,0 18.7185238302,-31.6444002092,0 18.7162077427,-31.6493985057,0 18.7156230211,-31.6506309807,0 18.715301156,-31.6513645649,0 18.7150624394,-31.6519090533,0 18.7140566111,-31.6541701555,0 18.713183552,-31.6561348736,0 18.7125357985,-31.6574840248,0 18.7123882771,-31.6578112543,0 18.7121388316,-31.6582792997,0 18.711771369,-31.6589418054,0 18.7114830315,-31.6594648361,0 18.7112496793,-31.6598537564,0 18.7107186019,-31.6606745124,0 18.7097677588,-31.6621470451,0 18.7070935965,-31.6662709415,0 18.7045830488,-31.6700917482,0 18.7031883001,-31.6722455621,0 18.7015427649,-31.674785614,0 18.6981591582,-31.6799542308,0 18.6973638833,-31.6811317205,0 18.6971600354,-31.6814441979,0 18.6970205605,-31.6817244887,0 18.6968958378,-31.6819900274,0 18.6967791617,-31.6822703183,0 18.6967080832,-31.6824969649,0 18.6966463923,-31.6828161478,0 18.6966142058,-31.6831983626,0 18.6966142058,-31.6834706068,0 18.6966463923,-31.6837522388,0 18.6967389286,-31.6842578351,0 18.6968019605,-31.6845233738,0 18.6970742047,-31.6853575408,0 18.6973169446,-31.6861608624,0 18.6973786354,-31.6864652932,0 18.6974255741,-31.686745584,0 18.6974416673,-31.6870969534,0 18.6974564195,-31.6873544455,0 18.6974027753,-31.6878063977,0 18.6973638833,-31.6880558431,0 18.6972311139,-31.6883991659,0 18.6970742047,-31.6887800395,0 18.696949482,-31.6889838874,0 18.6967469752,-31.6892641783,0 18.696115315,-31.6899964213,0 18.695718348,-31.6904564202,0 18.694524765,-31.691891402,0 18.6921161413,-31.6947372258,0 18.6901983619,-31.6969594359,0 18.6885689199,-31.6989013553,0 18.686901927,-31.7008446157,0 18.6865492165,-31.7012563348,0 18.6842881143,-31.7039144039,0 18.6821208894,-31.7064799368,0 18.6809273064,-31.70786798,0 18.6790712178,-31.7100352049,0 18.678073436,-31.7112274468,0 18.6767792702,-31.7128568888,0 18.6753831804,-31.7146043479,0 18.6748145521,-31.7153218389,0 18.6729437113,-31.7178323865,0 18.6723509431,-31.718595475,0 18.6714228988,-31.7199218273,0 18.6703620851,-31.7214734852,0 18.6694917083,-31.7227140069,0 18.6694809794,-31.7227287591,0 18.6682887375,-31.7245687544,0 18.6674626172,-31.7258857191,0 18.6660584807,-31.7281857133,0 18.6648273468,-31.7301356792,0 18.663251549,-31.7327789962,0 18.6623007059,-31.7342676222,0 18.6596184969,-31.7384156585,0 18.6587293446,-31.739717871,0 18.657091856,-31.742298156,0 18.6537082493,-31.7479482293,0 18.6503621936,-31.7538611591,0 18.6503045261,-31.7539697886,0 18.6498324573,-31.7548267543,0 18.6492490768,-31.755900979,0 18.6457568407,-31.7622698843,0 18.6456294358,-31.7624898255,0 18.6453585327,-31.7629726231,0 18.6415243149,-31.769990623,0 18.6400356889,-31.7727157474,0 18.6396816373,-31.7733554542,0 18.6390218139,-31.7745517194,0 18.6388850212,-31.7747984827,0 18.638124615,-31.7761744559,0 18.6378698051,-31.7767524719,0 18.6378778517,-31.7768141627,0 18.6376002431,-31.7773398757,0 18.6373373866,-31.7778159678,0 18.6370530725,-31.7783363163,0 18.6369793117,-31.7784851789,0 18.6369122565,-31.7785803974,0 18.636842519,-31.7786166072,0 18.6367405951,-31.7788043618,0 18.6365300417,-31.7791691422,0 18.6364160478,-31.7793904245,0 18.6362121999,-31.7797149718,0 18.6355215311,-31.7809031904,0 18.6313185096,-31.788623929,0 18.6313225329,-31.7886480689,0 18.6312071979,-31.7888975143,0 18.63077268,-31.7896901071,0 18.6306117475,-31.7899730802,0 18.6304669082,-31.7902171612,0 18.6299908161,-31.7910996079,0 18.6298593879,-31.7913678288,0 18.6289072037,-31.793089807,0 18.6285799742,-31.7937214673,0 18.6285451055,-31.7937938869,0 18.6283962429,-31.7940956354,0 18.6282500625,-31.7944161594,0 18.6280475557,-31.7948573828,0 18.6279724538,-31.7950209975,0 18.6277739704,-31.7954997718,0 18.6277230084,-31.7955359817,0 18.6275728047,-31.7959289253,0 18.6274172366,-31.7963004112,0 18.6273515224,-31.7965351045,0 18.6273005605,-31.7967496812,0 18.6272576451,-31.7969280481,0 18.6271999776,-31.7971748114,0 18.627127558,-31.7975181341,0 18.6270645261,-31.7978306115,0 18.6270135641,-31.7982664704,0 18.6269719899,-31.7986164987,0 18.6269451678,-31.798915565,0 18.6269062757,-31.7995002866,0 18.626908958,-31.7998757958,0 18.6269129813,-31.8004269898,0 18.6269371212,-31.8008977175,0 18.6269384623,-31.800917834,0 18.6270645261,-31.8019169569,0 18.6273381114,-31.8033626676,0 18.6274400353,-31.8039983511,0 18.6276318133,-31.8048754334,0 18.6279281974,-31.8062353134,0 18.6280448735,-31.8068736792,0 18.6280663311,-31.8072733283,0 18.6280703545,-31.8075442314,0 18.6280596256,-31.8078607321,0 18.6280046403,-31.8081021309,0 18.6279188097,-31.8084280193,0 18.6278450489,-31.8086104095,0 18.6276854575,-31.8090207875,0 18.6275620759,-31.809258163,0 18.6274628341,-31.8094150722,0 18.6273394525,-31.8096283078,0 18.6271503568,-31.8099139631,0 18.626062721,-31.8111155927,0 18.6248369515,-31.8124325573,0 18.6242964864,-31.8129998446,0 18.6228051782,-31.8146306276,0 18.6195704341,-31.818189919,0 18.6192150414,-31.8186485767,0 18.6188583076,-31.8192198873,0 18.618734926,-31.8194679916,0 18.6185874045,-31.8197952211,0 18.618504256,-31.8200084567,0 18.618414402,-31.8202458322,0 18.6183553934,-31.8204671144,0 18.6182333529,-31.820961982,0 18.6181904376,-31.8213012815,0 18.6181636155,-31.8219570816,0 18.6181636155,-31.8221260607,0 18.618183732,-31.8226008117,0 18.6182923615,-31.8231520057,0 18.6184278131,-31.8236790597,0 18.618633002,-31.8242865801,0 18.6188650131,-31.824888736,0 18.6191345751,-31.825812757,0 18.6191922426,-31.8261547387,0 18.6192338169,-31.8265838921,0 18.6193008721,-31.8273121119,0 18.619338423,-31.8273791671,0 18.6193558574,-31.8275682628,0 18.6194095016,-31.8280282617,0 18.6195355654,-31.8286277354,0 18.6196830869,-31.8290448189,0 18.6198198795,-31.8294484913,0 18.6200478673,-31.8299862742,0 18.6202758551,-31.8304207921,0 18.6203925312,-31.8306165934,0 18.6205869913,-31.8309478462,0 18.6208820343,-31.8314950168,0 18.6210832,-31.831921488,0 18.6211140454,-31.8320274353,0 18.6212307215,-31.8325357139,0 18.6212816834,-31.8329487741,0 18.6212803423,-31.8331070244,0 18.6212387681,-31.8334342539,0 18.621198535,-31.8337440491,0 18.6211355031,-31.8339277804,0 18.620981276,-31.8343730271,0 18.6207184196,-31.8348437548,0 18.6204957962,-31.8352179229,0 18.6202208698,-31.8356001377,0
            </coordinates>
        </LineString>
        </Placemark>
    <Placemark>
        <name>Segment 2 (False)</name>
        <styleUrl>#redLine</styleUrl>
        <LineString>
            <tessellate>1</tessellate>
            <coordinates>
            18.6202208698,-31.8356001377,0 18.6200988293,-31.8357691169,0 18.6199741066,-31.835938096,0 18.6194175482,-31.8366850913,0 18.6190769076,-31.8372349441,0 18.6188194156,-31.8378183246,0 18.6186745763,-31.8383279443,0 18.61859411,-31.8384701014,0 18.6183071136,-31.8398500979,0 18.6180925369,-31.8404173851,0 18.6179745197,-31.8407097459,0 18.6178404093,-31.8409645557,0 18.6172878742,-31.8417182565,0 18.6149691045,-31.8446646631,0 18.6147974432,-31.8449194729,0 18.6146579683,-31.845138073,0 18.6145399511,-31.8453928828,0 18.6143951118,-31.8457898498,0 18.6143253744,-31.8460406363,0 18.6142770946,-31.8463504314,0 18.6142556369,-31.8466776609,0 18.6142770946,-31.8471390009,0 18.6142770946,-31.8475118279,0 18.6142663658,-31.8477854133,0 18.6142288148,-31.8480227888,0 18.6141644418,-31.8482507765,0 18.6140678823,-31.8485324085,0 18.613987416,-31.8486919999,0 18.6137996614,-31.8490339816,0 18.6136011779,-31.8493075669,0 18.613319546,-31.8496307731,0 18.6130969226,-31.8498654664,0 18.6127857864,-31.8501283228,0
            </coordinates>
        </LineString>
        </Placemark>
    <Placemark>
        <name>Segment 3 (True)</name>
        <styleUrl>#blackLine</styleUrl>
        <LineString>
            <tessellate>1</tessellate>
            <coordinates>
            18.6127857864,-31.8501283228,0 18.612563163,-31.8502852321,0 18.6124049127,-31.8503764272,0 18.6121957004,-31.8504904211,0 18.6120535433,-31.8505588174,0 18.6119328439,-31.8506111205,0 18.611715585,-31.8506902456,0 18.6112488806,-31.8508525193,0 18.6107553542,-31.851028204,0 18.6105193198,-31.8511167169,0 18.6102698743,-31.8512146175,0 18.6100097001,-31.8513259292,0 18.6097468436,-31.8514533341,0 18.6095054448,-31.8515901268,0 18.6092613637,-31.851747036,0 18.6090521514,-31.8518958986,0 18.6088375747,-31.8520715833,0 18.6087276042,-31.8521761894,0 18.6085854471,-31.8523062766,0 18.6084647477,-31.8524283171,0 18.6083601415,-31.8525476754,0 18.6082662642,-31.852658987,0 18.6081562936,-31.8528065085,0 18.6080543697,-31.8529526889,0 18.6079363525,-31.8531404436,0 18.6078317463,-31.8533107638,0 18.6077620089,-31.8534381688,0 18.6076895893,-31.8535883725,0 18.6076077819,-31.8537908792,0 18.6076158285,-31.8538525701,0 18.60753268,-31.8541288376,0 18.6075045168,-31.8542455137,0 18.6074629426,-31.8544346094,0 18.6074374616,-31.8545781076,0 18.6074213684,-31.8547216058,0 18.6074066162,-31.8549120426,0 18.6073972285,-31.8550434709,0 18.6073958874,-31.8551896513,0 18.6073999107,-31.8553237617,0 18.6074106395,-31.8554913998,0 18.6074160039,-31.8555799127,0 18.6074267328,-31.8556724489,0 18.6074374616,-31.8557488918,0 18.6074750125,-31.8559326231,0 18.6075058579,-31.8560667336,0 18.6075930297,-31.8563698232,0 18.6076292396,-31.8564677238,0 18.6077660322,-31.8568311632,0 18.6078411341,-31.8569786847,0 18.6079913378,-31.8572509289,0 18.608044982,-31.8573434651,0 18.6081013083,-31.8574346602,0 18.6081764102,-31.8575419486,0 18.6083091795,-31.857714951,0 18.6083118618,-31.8577712774,0 18.6084996164,-31.8579764664,0 18.6087007821,-31.8581722677,0 18.6088643968,-31.8583197892,0 18.6091084778,-31.8585182726,0 18.6092720926,-31.8586456776,0 18.6095483601,-31.8588146567,0 18.6097414792,-31.8589259684,0 18.6099211872,-31.8590198457,0 18.6101008952,-31.8591043353,0 18.6103288829,-31.8591955304,0 18.6106453836,-31.8593108654,0 18.6108572781,-31.8593779206,0 18.6110718548,-31.8594302237,0 18.6112676561,-31.8594825268,0 18.61183092,-31.8595965207,0 18.6121796072,-31.8596662581,0 18.6124317348,-31.8597266078,0 18.6126194894,-31.8597735465,0 18.6129145324,-31.859870106,0 18.6132578552,-31.8599827588,0 18.6135984957,-31.8601182103,0 18.6139498651,-31.8602657318,0 18.6145238578,-31.8605393171,0 18.614936918,-31.8607699871,0 18.6151729524,-31.8609134853,0 18.6156691611,-31.861282289,0 18.6162163317,-31.8617422879,0 18.6164657772,-31.8619930744,0 18.6166910827,-31.8622519076,0 18.6168976128,-31.8624959886,0 18.6170504987,-31.8627052009,0 18.6173214018,-31.8631128967,0 18.6176405847,-31.8638008833,0 18.6195100844,-31.8679220974,0 18.6198212206,-31.868545711,0 18.6200398207,-31.8690606952,0 18.6203442514,-31.8697781861,0 18.6204703152,-31.8700839579,0 18.6212588847,-31.871753633,0 18.6220474541,-31.873138994,0 18.6225315928,-31.8738014996,0 18.6292518675,-31.8822611868,0 18.6299747229,-31.8831717968,0 18.6303462088,-31.8836331367,0 18.6308450997,-31.884252727,0 18.6315907538,-31.8852008879,0 18.6323471367,-31.8861557543,0 18.6328728497,-31.8867833912,0 18.6329305172,-31.8868504465,0 18.6333744228,-31.887319833,0 18.6338223517,-31.8877543509,0 18.6342152953,-31.8881365657,0 18.6344285309,-31.8883176148,0 18.6349891126,-31.8887937069,0 18.6354584992,-31.8891316652,0 18.6356475949,-31.8892671168,0 18.6359654367,-31.8894951046,0 18.6361706257,-31.8896278739,0 18.640114814,-31.8921746314,0 18.6428654194,-31.8939730525,0 18.6433254182,-31.8943592906,0 18.6436915398,-31.8947079778,0 18.6446128786,-31.8956655264,0 18.6458560824,-31.89695701,0 18.6468029022,-31.8980017304,0 18.647095263,-31.8983906507,0 18.6472374201,-31.8986360729,0 18.6474399269,-31.8990853429,0 18.6477027833,-31.9003406167,0 18.6477081478,-31.900370121,0 18.6478382349,-31.9007577002,0 18.6480219662,-31.9011519849,0 18.6481077969,-31.9012860954,0 18.6485248804,-31.9018882513,0 18.648929894,-31.9026044011,0 18.6490009725,-31.9027277827,0 18.6491002142,-31.9030174613,0 18.6491645873,-31.9033353031,0 18.6492598057,-31.9038677216,0 18.6493080854,-31.9040957093,0 18.6493349075,-31.9042767584,0 18.6494703591,-31.9046536088,0 18.6495414376,-31.9048172235,0 18.64972651,-31.9051390886,0 18.6498123407,-31.9052664936,0 18.6499746144,-31.9054958224,0 18.6508758366,-31.9062817097,0 18.6597767472,-31.9136966765,0 18.6605867743,-31.9143605232,0 18.6609515548,-31.9146743417,0 18.6638952792,-31.9171084464,0 18.6661148071,-31.9189524651,0 18.6674465239,-31.9200561941,0 18.667756319,-31.9203217328,0 18.6680459976,-31.9205524027,0 18.6690625548,-31.92132622,0 18.6697626114,-31.9217634201,0 18.6713853478,-31.922775954,0 18.6733876169,-31.9240030646,0 18.6742700636,-31.9245395064,0 18.6749486625,-31.9249324501,0 18.6753053963,-31.9251202047,0 18.6756192148,-31.9252663851,0 18.6766639352,-31.9256673753,0 18.6798463762,-31.9268354774,0 18.6799952388,-31.9268958271,0 18.6819505692,-31.927613318,0 18.6822013557,-31.9277125597,0 18.6827096343,-31.9279432297,0 18.6834955215,-31.9283562899,0 18.6840601265,-31.9287371635,0 18.6842867732,-31.9289048016,0 18.6845885217,-31.929127425,0 18.6850820482,-31.9295485318,0 18.6945649981,-31.9387029111,0 18.6976629496,-31.9416949153,0 18.6988310516,-31.9428214431,0 18.7013335526,-31.9452260435,0 18.7027658522,-31.94660604,0 18.7040425837,-31.9478626549,0 18.7053957582,-31.9491393864,0 18.7064149976,-31.9501116872,0 18.7065826356,-31.9502511621,0 18.706728816,-31.9503705204,0 18.7075777352,-31.9510088861,0 18.7077909708,-31.9511577487,0 18.708692193,-31.9517357647,0 18.7090288103,-31.951944977,0 18.7133914232,-31.9546285272,0 18.7176910043,-31.9572731853,0 18.7177097797,-31.9572852552,0 18.720099628,-31.9587537646,0 18.7204657495,-31.9589696825,0 18.7210303545,-31.9593156874,0 18.7215802073,-31.9596536458,0 18.7220174074,-31.9598856568,0 18.7221501768,-31.9599446654,0 18.7222695351,-31.959978193,0 18.72262761,-31.9601230323,0 18.7241376936,-31.9605025649,0 18.7245668471,-31.9606393576,0 18.7250550091,-31.9609062374,0 18.7255981565,-31.9612750411,0 18.7262888253,-31.9619429111,0 18.7269365788,-31.96263358,0 18.7278136611,-31.9636434317,0 18.728056401,-31.9639076293,0 18.7285794318,-31.9644628465,0 18.7286666036,-31.9645580649,0 18.7292459607,-31.9651642442,0 18.7296429276,-31.9655545056,0 18.7302222848,-31.9660775363,0 18.7315325439,-31.9671611488,0 18.7327435613,-31.9680824876,0 18.7331244349,-31.9684110582,0 18.7333457172,-31.9686095417,0 18.7337788939,-31.9689273834,0 18.7342040241,-31.9692009687,0 18.7346117198,-31.9694276154,0 18.73548612,-31.9698567688,0 18.7359622121,-31.970090121,0 18.7363578379,-31.9703409076,0 18.7367038429,-31.9705662131,0 18.7369894981,-31.9707767665,0 18.7371960282,-31.9709551334,0 18.7373945117,-31.9711348414,0 18.7375339866,-31.9712810218,0 18.7380972505,-31.9718965888,0 18.7385961413,-31.9724558294,0 18.7392559648,-31.97323367,0 18.7400043011,-31.9741134346,0 18.7402953207,-31.974517107,0 18.740567565,-31.9750320911,0 18.7409202754,-31.9757683575,0 18.7409859896,-31.9759266078,0 18.7413011491,-31.9765475392,0 18.7414875627,-31.9768854976,0 18.7418268621,-31.9773159921,0 18.7421111763,-31.9776070118,0 18.7424169481,-31.977840364,0 18.7428367138,-31.9781166315,0 18.7436105311,-31.9784666598,0 18.7475292385,-31.9799821079,0 18.749063462,-31.9805708528,0 18.7499767542,-31.9809155166,0 18.7505923212,-31.9811609387,0 18.7511649728,-31.9812655449,0 18.7514694035,-31.9812856615,0 18.7519884109,-31.981253475,0 18.7529070675,-31.9811649621,0 18.753439486,-31.9811730087,0 18.7538820505,-31.9812588394,0 18.7541341782,-31.9813393056,0 18.7546974421,-31.9816437364,0 18.7550622225,-31.9819682837,0 18.7553036213,-31.9823585451,0 18.7566205859,-31.9850447774,0 18.7574145198,-31.9866728783,0 18.7580703199,-31.988016665,0 18.7586335838,-31.9891391695,0 18.7589433789,-31.9895710051,0 18.7592370808,-31.9898419082,0 18.7596179545,-31.9901007414,0 18.759816438,-31.9901932776,0 18.7602120638,-31.9903126359,0 18.760882616,-31.990364939,0 18.7615062296,-31.9902603328,0 18.762896955,-31.9897989929,0 18.7633086741,-31.9897051156,0 18.7640623748,-31.9897091389,0 18.7644928694,-31.9898150861,0 18.7650695443,-31.9900739193,0 18.765526861,-31.9904319942,0 18.7671375275,-31.9917838275,0 18.7681017816,-31.9926421344,0 18.7685912848,-31.9932040572,0 18.7688072026,-31.9934736192,0 18.7689332664,-31.9936265051,0 18.7691612542,-31.99398458,0 18.7696091831,-31.9948925078,0 18.7701871991,-31.9962242246,0 18.7704701722,-31.9969403744,0 18.7708483636,-31.9977946579,0 18.7715296447,-31.9993530214,0 18.7716114521,-31.9995380938,0 18.7718904018,-32.000169754,0 18.7719520926,-32.0003266633,0 18.7724992633,-32.0017160475,0 18.7725287676,-32.0017898083,0 18.773458153,-32.0040053129,0 18.7741193175,-32.0055542886,0 18.7741903961,-32.0057205856,0 18.7749534845,-32.0074130595,0 18.7752042711,-32.0079052448,0 18.7754027545,-32.0082606375,0 18.7757997215,-32.0088775456,0 18.7762503326,-32.0096084476,0 18.7770026922,-32.0109468699,0 18.7772011757,-32.0112714171,0 18.7780581415,-32.0125561953,0 18.7786227465,-32.0135083795,0 18.7791283429,-32.0142889023,0 18.7793120742,-32.0146791637,0 18.7808382511,-32.0171561837,0 18.7816429138,-32.0184315741,0 18.7820412219,-32.0190162957,0 18.7823443115,-32.0194454491,0 18.7827198207,-32.0199362934,0 18.7830229104,-32.0203024149,0 18.7832643092,-32.0205786824,0 18.7836720049,-32.0210440457,0 18.7836948037,-32.0210695267,0 18.7840287387,-32.0214436948,0 18.7856045365,-32.0232085884,0 18.7865459919,-32.0243056118,0 18.7870462239,-32.024935931,0 18.787278235,-32.0252256095,0 18.7875813246,-32.0256225765,0 18.7878106534,-32.0259363949,0 18.7880936265,-32.0263963938,0 18.7883752584,-32.0268979669,0 18.7892013788,-32.0285086334,0 18.7900476158,-32.030390203,0 18.7915121019,-32.033547163,0 18.7931415439,-32.0371319354,0 18.7945483625,-32.0401521027,0 18.7953677773,-32.0419692993,0 18.7955743074,-32.0424494147,0 18.7958465517,-32.0429550111,0 18.7961791456,-32.0435276628,0 18.7964661419,-32.0439876616,0 18.7967987359,-32.044467777,0 18.797018677,-32.0447467268,0 18.7972922623,-32.0450793207,0 18.7974652648,-32.0452992618,0 18.7975980341,-32.0454454422,0 18.7991631031,-32.0470306277,0 18.8011613488,-32.0490154624,0 18.8031059504,-32.0509466529,0 18.8052369654,-32.0530441403,0 18.806861043,-32.05468297,0 18.8084931672,-32.0563271642,0 18.8100045919,-32.0578198135,0 18.8110305369,-32.0588256419,0 18.8114891946,-32.0593379438,0 18.8117963076,-32.0597040653,0 18.8119894266,-32.0599374175,0 18.8122496009,-32.060290128,0 18.8127551973,-32.0610491931,0 18.8141137362,-32.0633599162,0 18.8161119819,-32.0667770505,0 18.8165357709,-32.0675066113,0 18.8185822964,-32.0710323751,0 18.8209936023,-32.0751938224,0 18.8221375644,-32.0771585405,0 18.8223843277,-32.0776252449,0 18.8228778541,-32.078743726,0 18.8231500983,-32.0794947445,0 18.823197037,-32.0796221495,0 18.8233365119,-32.0801089704,0 18.8236302137,-32.0815868676,0 18.823697269,-32.0819932222,0 18.8237294555,-32.0824666321,0 18.823749572,-32.0828461647,0 18.8237629831,-32.0835985243,0 18.8237160444,-32.084171176,0 18.8235497475,-32.0855565369,0 18.8234370947,-32.0865623653,0 18.8233968616,-32.0872744918,0 18.8233834505,-32.0877210796,0 18.823390156,-32.0880737901,0 18.8234169781,-32.0885458589,0 18.8234438002,-32.088752389,0 18.823569864,-32.0894256234,0 18.8236704469,-32.0898722112,0 18.8237428665,-32.090151161,0 18.8239829242,-32.090869993,0 18.8241894543,-32.0913769305,0 18.8243758678,-32.0918101072,0 18.8249820471,-32.0929822326,0 18.8268260658,-32.096503973,0 18.8274121284,-32.0975500345,0 18.8276186585,-32.0978437364,0 18.8279391825,-32.09824875,0 18.8285051286,-32.0989353955,0 18.828997314,-32.099467814,0 18.82957533,-32.0999975502,0 18.8297845423,-32.1001705527,0 18.8316486776,-32.1016819775,0 18.8338695467,-32.1034884453,0 18.8350778818,-32.1045023203,0 18.8354440033,-32.1048215032,0 18.8358235359,-32.1052077413,0 18.8367421925,-32.1062470973,0 18.8373617828,-32.1070128679,0 18.8377198577,-32.1075291932,0 18.8388249278,-32.1092806756,0 18.8398388028,-32.1109141409,0 18.8404597342,-32.1118958294,0 18.8420931995,-32.1144989133,0 18.8427905738,-32.1156214178,0 18.8430386782,-32.1160197258,0 18.8435094059,-32.1167747676,0 18.8450141251,-32.1191874146,0 18.8460628688,-32.1208705008,0 18.8468621671,-32.1221338212,0 18.8478679955,-32.1237592399,0 18.8492251933,-32.1259264648,0 18.8496141136,-32.126544714,0 18.8503678143,-32.1277396381,0 18.8511161506,-32.128970772,0 18.851403147,-32.1294388175,0 18.8520200551,-32.1304178238,0 18.8527683914,-32.1315939724,0 18.8536588848,-32.1330061555,0 18.854509145,-32.1343968809,0 18.8552950323,-32.1356602013,0 18.8558770716,-32.1365922689,0 18.8562566042,-32.1372225881,0 18.8568292558,-32.1381238103,0 18.8576231897,-32.1393871307,0 18.8591466844,-32.1418239176,0 18.8595101237,-32.1424086392,0 18.8599647582,-32.1431382,0 18.8609839976,-32.1447689831,0 18.8619469106,-32.1463112533,0 18.863478452,-32.1487574279,0 18.8643528521,-32.1501722932,0 18.8650797307,-32.1513350308,0 18.8658387959,-32.1525447071,0 18.8667185605,-32.1539528668,0 18.8674883544,-32.1551853418,0 18.8679738343,-32.1559497714,0 18.8680784404,-32.156112045,0 18.8681776822,-32.1562729776,0 18.8687382638,-32.1571795642,0 18.8701035082,-32.1593548357,0 18.8710235059,-32.1607965231,0 18.8714231551,-32.1615126729,0 18.8715411723,-32.1617527306,0 18.8716806471,-32.1620933712,0 18.8718120754,-32.1624594927,0 18.8718630373,-32.1626660228,0 18.8719193637,-32.1628443897,0 18.8719676435,-32.163117975,0 18.8720132411,-32.1634425223,0 18.8720668852,-32.1639119089,0 18.8720722497,-32.1642136574,0 18.8720668852,-32.1646803617,0 18.8720360398,-32.1650478244,0 18.8719958067,-32.1652516723,0 18.8718187809,-32.1659235656,0 18.8716323674,-32.1664305031,0 18.8716135919,-32.1664828062,0 18.8713990152,-32.1669575572,0 18.8709430397,-32.1677179635,0 18.8706345856,-32.1681833267,0 18.8702698052,-32.1686983109,0 18.8699305058,-32.1691972017,0 18.869895637,-32.1693997085,0 18.8692827523,-32.1705423295,0 18.8688710332,-32.17134431,0 18.8686028123,-32.171870023,0 18.8684539497,-32.1721597016,0 18.8683828712,-32.1723367274,0 18.8682903349,-32.1726438403,0 18.8682501018,-32.1728114784,0 18.8682353497,-32.1729549766,0 18.8682313263,-32.1731521189,0 18.8686041534,-32.1731775999,0 18.8687717915,-32.1731883287,0 18.8691177964,-32.1731977165,0 18.8695093989,-32.1731829643,0 18.8698661327,-32.17315346,0 18.8700579107,-32.1731239557,0 18.8703328371,-32.1730569005,0 18.8706547022,-32.1729697287,0 18.8709497452,-32.1728637815,0 18.8711509109,-32.1727752686,0 18.8713574409,-32.1726880968,0 18.8715800643,-32.1725700796,0 18.8717141747,-32.1724936366,0 18.8719904423,-32.1723045409,0 18.8721781969,-32.1721529961,0 18.872628808,-32.1717721224,0 18.873103559,-32.1713201702,0 18.8732242584,-32.1711967885,0 18.8734415174,-32.1710130572,0 18.8736131787,-32.1708776057,0 18.8737794757,-32.1707636118,0 18.873937726,-32.1706777811,0 18.8741469383,-32.1705812216,0 18.8744392991,-32.1704658866,0 18.8748309016,-32.1703706682,0 18.8751152158,-32.1703156829,0 18.8753136992,-32.1702848375,0 18.8756516576,-32.1702633798,0 18.8781139255,-32.1701319516,0 18.8785377145,-32.170137316,0 18.8787093759,-32.1701440215,0 18.878929317,-32.1701574326,0 18.879032582,-32.1701721847,0 18.879275322,-32.1702070534,0 18.8796964288,-32.1702982485,0 18.8799646497,-32.170367986,0 18.8802596927,-32.1704658866,0 18.8805359602,-32.1705597639,0 18.8808014989,-32.1706683934,0 18.8810053468,-32.1707569063,0 18.8817845285,-32.171176672,0 18.8821265101,-32.1713604033,0 18.8838592172,-32.1723206341,0 18.8847362995,-32.1728047729,0 18.8850849867,-32.1729978919,0 18.8859862089,-32.1735008061,0 18.8863416016,-32.1737086773,0 18.8866969943,-32.1739031374,0 18.8874828815,-32.1743296087,0 18.8890600204,-32.1750980616,0 18.8894087076,-32.1752656996,0 18.8898512721,-32.1754789352,0 18.8900282979,-32.1755567193,0 18.8901114464,-32.1755929291,0 18.8902629912,-32.1756599844,0 18.8904601336,-32.1757377684,0 18.8906344771,-32.1757766604,0 18.8907457888,-32.1758008003,0 18.8908182085,-32.1758115292,0 18.8909174502,-32.1758235991,0 18.8910502195,-32.175835669,0 18.891197741,-32.1758383512,0 18.8914069533,-32.1758276224,0 18.8916000724,-32.1758075058,0 18.8917395473,-32.1757927537,0 18.8918830454,-32.1757726371,0 18.8921807706,-32.1757256985,0 18.8925643265,-32.1756854653,0 18.8937243819,-32.1754789352,0 18.894097209,-32.1754159033,0 18.8942608237,-32.1753904223,0 18.8947543502,-32.1753045917,0 18.8953149319,-32.1752107143,0 18.8955751061,-32.1751409769,0 18.8957092166,-32.1750833094,0 18.8958111405,-32.1750470996,0 18.8959519565,-32.1749907732,0 18.8960498571,-32.1749384701,0 18.8961678743,-32.174859345,0 18.896355629,-32.1747413278,0 18.8966305554,-32.1745119989,0 18.8967432082,-32.1743912995,0 18.8968411088,-32.1742665768,0 18.8969939947,-32.1740479767,0 18.8970637321,-32.1739219129,0 18.8971093297,-32.1738213301,0 18.8971602917,-32.1736858785,0 18.8972058892,-32.1734967828,0 18.8972434402,-32.1732969582,0 18.8972595334,-32.1730796993,0 18.8972595334,-32.1728248894,0 18.897203207,-32.1716943383,0 18.8977369666,-32.1714502573,0 18.8978630304,-32.1714274585,0 18.897973001,-32.171420753,0 18.8980762661,-32.1714422107,0 18.8981567323,-32.1714797616,0 18.8982385397,-32.1715307236,0 18.8983042538,-32.1715977788,0 18.8990150392,-32.1723675728,0 18.8991867006,-32.1725217998,0 18.8994079828,-32.1727149189,0 18.8996212184,-32.172845006,0
            </coordinates>
        </LineString>
        </Placemark>
  </Folder>
        </Document>
    </kml>
    