<?xml version="1.0" encoding="UTF-8"?>
    <kml xmlns="http://www.opengis.net/kml/2.2">
    <Document>
        <name>Colored Path</name>
        <Folder>
            <name>Day 4</name>
            <open>1</open>
            <Style id="blackLine">
            <LineStyle>
                <color>ff000000</color>
                <width>4</width>
            </LineStyle>
            </Style>
            <Style id="redLine">
            <LineStyle>
                <color>ff0000ff</color>
                <width>4</width>
            </LineStyle>
            </Style>
        <Placemark>
        <name>Segment 1 (True)</name>
        <styleUrl>#blackLine</styleUrl>
        <LineString>
            <tessellate>1</tessellate>
            <coordinates>
            24.7467590868,-28.7530687451,0 24.7466517985,-28.7531250715,0 24.7464720905,-28.7532404065,0 24.7458994389,-28.7536078691,0 24.7457036376,-28.7533342838,0 24.7456325591,-28.753374517,0 24.7451752424,-28.7527549267,0 24.745066613,-28.7526087463,0 24.7446911037,-28.7520991266,0 24.7444979846,-28.7518402934,0 24.7442150116,-28.7514473498,0 24.7439803183,-28.7511228025,0 24.7438676655,-28.7509658933,0 24.7435846925,-28.7505783141,0 24.7433674335,-28.7502899766,0 24.7432212532,-28.7500700355,0 24.7430174053,-28.749795109,0 24.7424648702,-28.7490414083,0 24.7421658039,-28.7486296892,0 24.7419472039,-28.748331964,0 24.7418694198,-28.7482260168,0 24.7418144345,-28.748152256,0 24.7416159511,-28.7478840351,0 24.7415100038,-28.747741878,0 24.7414000332,-28.7475916743,0 24.7410432994,-28.7471088767,0 24.7407978773,-28.7467816472,0 24.7405336797,-28.7464128435,0 24.7403137386,-28.7460976839,0 24.7402574122,-28.7460131943,0 24.7402332723,-28.7459488213,0 24.7402091324,-28.7458388507,0 24.740203768,-28.7457355857,0 24.7402372956,-28.7454405427,0 24.7402748466,-28.7450677156,0 24.7403378785,-28.7443368137,0 24.7403419018,-28.7442684174,0 24.7396096587,-28.7442187965,0 24.7388519347,-28.7441544235,0 24.738727212,-28.7441423535,0 24.7375698388,-28.7440471351,0 24.7374974191,-28.7440404296,0 24.7371608019,-28.7440162897,0 24.7368389368,-28.7439921498,0 24.7368094325,-28.7439894676,0 24.7359122336,-28.7439143658,0 24.7347655892,-28.7438231707,0 24.7346757352,-28.7438164651,0 24.7337047756,-28.7437359989,0 24.7330382466,-28.7436810136,0 24.7328665853,-28.7436676025,0 24.7313122451,-28.7435522676,0 24.7312237322,-28.7435442209,0 24.7308214009,-28.7435093522,0 24.7307556868,-28.7434731424,0 24.7306953371,-28.7434691191,0 24.7303748131,-28.743442297,0 24.730052948,-28.7434194982,0 24.7291865945,-28.7433712184,0 24.7285307944,-28.7433376908,0 24.7282813489,-28.7433256209,0 24.7279179096,-28.7433068454,0 24.7270877659,-28.7432518601,0 24.7257064283,-28.7431794405,0 24.7254905105,-28.7431767583,0 24.725330919,-28.7431673706,0 24.7249996662,-28.7431512773,0 24.7240716219,-28.7431003153,0 24.7231583297,-28.743070811,0 24.721468538,-28.7430922687,0 24.7213961184,-28.7430949509,0 24.721211046,-28.7430949509,0 24.7206678987,-28.7430949509,0 24.7202172875,-28.7431070209,0 24.7196540236,-28.7431123853,0 24.719556123,-28.7431137264,0 24.7181949019,-28.7431566417,0 24.717040211,-28.7431593239,0 24.7166164219,-28.7431673706,0 24.7162020206,-28.7431740761,0 24.716155082,-28.7431995571,0 24.7160719335,-28.7432008982,0 24.7158198059,-28.7432129681,0 24.7144988179,-28.7432330847,0 24.7142413259,-28.7432357669,0 24.7139047086,-28.7432411313,0 24.7128666937,-28.7432572246,0 24.7119802237,-28.7432800233,0 24.7116596997,-28.74328807,0 24.7115497291,-28.7432894111,0 24.7110454738,-28.7432974577,0 24.7104325891,-28.7433081865,0 24.7093999386,-28.7433645129,0 24.7091652453,-28.7433645129,0 24.7089104354,-28.743352443,0 24.7086395323,-28.7433417141,0 24.7085389495,-28.7433537841,0 24.7084477544,-28.743365854,0 24.7083632648,-28.7433846295,0 24.7083485126,-28.7434074283,0 24.7083297372,-28.7434248626,0 24.7083055973,-28.7434409559,0 24.7082439065,-28.7434570491,0 24.7081916034,-28.7434610724,0 24.7081567347,-28.7434597313,0 24.7081272304,-28.7434543669,0 24.7080977261,-28.7434369326,0 24.7080789506,-28.7434235215,0 24.7080601752,-28.7434047461,0 24.7080427408,-28.7433671951,0 24.7080333531,-28.7433363497,0 24.7080293298,-28.7432920933,0 24.7080333531,-28.7432572246,0 24.7080413997,-28.743237108,0 24.7080534697,-28.7432196736,0 24.7080789506,-28.7431968749,0 24.7080937028,-28.743147254,0 24.7081272304,-28.7429447472,0 24.7081339359,-28.7428186834,0 24.7081312537,-28.7425732613,0 24.7081111372,-28.7422299385,0 24.7081178427,-28.7414775789,0 24.7081527114,-28.741427958,0 24.7081513703,-28.7412790954,0 24.7081513703,-28.741273731,0 24.7081460059,-28.7407024205,0 24.7081366181,-28.7397381663,0 24.7081084549,-28.7389321625,0 24.7081017494,-28.7387269735,0 24.7080776095,-28.7377104163,0 24.7080722451,-28.7374770641,0 24.7080561519,-28.7368226051,0 24.7080507874,-28.7366200984,0 24.7080253065,-28.735549897,0 24.7080212831,-28.7353608012,0 24.708019942,-28.7351408601,0 24.7079944611,-28.7348994613,0 24.7079595923,-28.7345722318,0 24.7078898549,-28.7341310084,0 24.7077865899,-28.7336227298,0 24.7076846659,-28.7332096696,0 24.7076162696,-28.7329749763,0 24.7076068819,-28.7329481542,0 24.7074660659,-28.7325431406,0 24.7074003518,-28.7323379517,0 24.707352072,-28.7322427332,0 24.7072890401,-28.7320791185,0 24.7071897984,-28.7318310142,0 24.7069564462,-28.7312892079,0 24.7068960965,-28.7311550975,0 24.7068464756,-28.7310639024,0 24.7066426277,-28.7307299674,0 24.7065635026,-28.7305918336,0 24.7064267099,-28.7303584814,0 24.7061303258,-28.7299065292,0 24.7059050202,-28.7296074629,0 24.7055134177,-28.729108572,0 24.7052076459,-28.7287652493,0 24.7048039734,-28.7283468246,0 24.704798609,-28.7283401191,0 24.7045384347,-28.7280906737,0 24.7043761611,-28.7279458344,0 24.7037726641,-28.7274308503,0 24.7030766308,-28.7268997729,0 24.6916732192,-28.7182764709,0 24.6887335181,-28.7160421908,0 24.6836574376,-28.7121838331,0 24.6827320755,-28.711477071,0 24.6773099899,-28.7073397636,0 24.6766059101,-28.7068019807,0 24.6738150716,-28.7046910822,0 24.6729540825,-28.7039507926,0 24.6723398566,-28.7033191323,0 24.6720542014,-28.7029503286,0 24.6718449891,-28.7026807666,0 24.6712052822,-28.70176211,0 24.670663476,-28.7007790804,0 24.6702732146,-28.6998268962,0 24.6698977053,-28.6986936629,0 24.667916894,-28.6923193932,0 24.6659937501,-28.6862415075,0 24.6656477451,-28.6851324141,0 24.6642757952,-28.6807215214,0 24.6636803448,-28.6788654327,0 24.6626208723,-28.6755609512,0 24.6624130011,-28.6749131978,0 24.662065655,-28.6739610136,0 24.6618913114,-28.6735720932,0 24.6616217494,-28.6729699373,0 24.6612784266,-28.672362417,0 24.6606588364,-28.6714826524,0 24.6600459516,-28.6708040535,0 24.6592922509,-28.6701133847,0 24.6585895121,-28.6695943773,0 24.6577446163,-28.6691129208,0 24.6566851437,-28.6685885489,0 24.6511249244,-28.6662080884,0 24.643484652,-28.6629371345,0 24.6303404868,-28.6572374403,0 24.6215642989,-28.6534649134,0 24.6149808168,-28.6506432295,0 24.6112418175,-28.6490392685,0 24.6111868322,-28.6490164697,0 24.6104800701,-28.6487133801,0 24.6052967012,-28.6464911699,0 24.5994776487,-28.643976599,0 24.5967780054,-28.6428125203,0 24.5958794653,-28.6424249411,0 24.5948065817,-28.64196226,0 24.5943573117,-28.641769141,0 24.5925857127,-28.6410073936,0 24.5888064802,-28.6393819749,0 24.5872910321,-28.6386591196,0 24.5868471265,-28.6384190619,0 24.5862369239,-28.6380395293,0 24.5856267214,-28.637611717,0 24.5846329629,-28.6367534101,0 24.582644105,-28.6350113153,0 24.579859972,-28.6325503886,0 24.5775398612,-28.6305347085,0 24.5755429566,-28.6287792027,0 24.5720547438,-28.6255887151,0 24.5700068772,-28.6237902939,0 24.5681789517,-28.6221514642,0 24.5681132376,-28.6220937967,0 24.5663362741,-28.6205273867,0 24.5648127794,-28.6191406846,0 24.5643286407,-28.6186337471,0 24.5638994873,-28.6181415617,0 24.5635668933,-28.6177459359,0 24.5630814135,-28.6170069873,0 24.562355876,-28.6155867577,0 24.5618730783,-28.614397198,0 24.5616397262,-28.6137574911,0 24.5614278316,-28.6129005253,0 24.5610818267,-28.611124903,0 24.5606634021,-28.6091226339,0 24.5599740744,-28.6058060825,0 24.5593598485,-28.6029401422,0 24.5587858558,-28.5999856889,0 24.5582132041,-28.5972645879,0 24.5574273169,-28.5934598744,0 24.5565770566,-28.5890610516,0 24.5555926859,-28.5844945908,0 24.5548376441,-28.5806697607,0 24.5544366539,-28.5785977542,0 24.5540906489,-28.5768046975,0 24.5538760722,-28.5757559538,0 24.5537097752,-28.5752476752,0 24.5533490181,-28.5744148493,0 24.553001672,-28.5737121105,0 24.5525564253,-28.5729114711,0 24.5521607995,-28.5723240674,0 24.5516431332,-28.5716052353,0 24.5510168374,-28.5709038377,0 24.5503087342,-28.5701259971,0 24.5498755574,-28.5697424412,0 24.5490185916,-28.5690101981,0 24.5478290319,-28.5679708421,0 24.5453935862,-28.5658545792,0 24.5441678166,-28.5647267103,0 24.5407064259,-28.5617735982,0 24.5370948315,-28.5586085916,0 24.5369432867,-28.5584758222,0 24.53626737,-28.5577932,0 24.5359401405,-28.5574713349,0 24.5342570543,-28.5558244586,0 24.5339874923,-28.5554999113,0 24.5338010788,-28.555277288,0 24.5335234702,-28.5548441112,0 24.5333437622,-28.5545021296,0 24.5331479609,-28.5540340841,0 24.5329856873,-28.5535955429,0 24.5328167081,-28.552967906,0 24.5326329768,-28.5522195697,0 24.5323070884,-28.5506853461,0 24.5322936773,-28.5506290197,0 24.5322601497,-28.5504895449,0 24.5320925117,-28.5497948527,0 24.5319852233,-28.5493509471,0 24.5316646993,-28.5480071604,0 24.5314072073,-28.5469973087,0 24.5309016109,-28.5449507833,0 24.5306964219,-28.5441179574,0 24.5304590464,-28.5431496799,0 24.5301090181,-28.5417334735,0 24.5299373567,-28.5410374403,0 24.5297831297,-28.5404151678,0 24.5297026634,-28.5400906205,0 24.5295980573,-28.53973791,0 24.529531002,-28.5395099223,0 24.5294049382,-28.5391545296,0 24.5292373002,-28.5387803614,0 24.5291675627,-28.5386610031,0 24.5290575922,-28.5384772718,0 24.5288738608,-28.5382694006,0 24.5286941528,-28.5380682349,0 24.5283414423,-28.5378053784,0 24.5279149711,-28.5375197232,0 24.5277433097,-28.5374191403,0 24.527528733,-28.5372944176,0 24.5271787047,-28.5371348262,0 24.5269681513,-28.5370650887,0 24.5264880359,-28.5369390249,0 24.5256686211,-28.5368075967,0 24.5254781842,-28.5367834568,0 24.524961859,-28.5367204249,0 24.5244468749,-28.5366560519,0 24.5240096748,-28.5366399586,0 24.5238688588,-28.5366480052,0 24.523730725,-28.5366506875,0 24.5235000551,-28.5366949439,0 24.5232385397,-28.536798209,0 24.5230695605,-28.5369122028,0 24.5228630304,-28.5370503366,0 24.5226819813,-28.5371804237,0 24.5224459469,-28.5373239219,0 24.5221844316,-28.5374835134,0 24.5219711959,-28.5376136005,0 24.5215849578,-28.5378858447,0 24.5212416351,-28.5381259024,0 24.5211356878,-28.5381942987,0 24.5209358633,-28.5383203626,0 24.5207306743,-28.5383901,0 24.5201553404,-28.538466543,0 24.5194606483,-28.5385134816,0 24.5190797746,-28.5384973884,0 24.5188035071,-28.5384853184,0 24.518647939,-28.5384786129,0 24.5185084641,-28.5384719074,0 24.5183569193,-28.538403511,0 24.5182818174,-28.5383552313,0 24.5181919634,-28.5382787883,0 24.5181396604,-28.5382117331,0 24.5180350542,-28.5380320251,0 24.5180135965,-28.5377369821,0 24.5180484653,-28.5374727845,0 24.5181074739,-28.537247479,0 24.518352896,-28.5367029905,0 24.5183730125,-28.5365943611,0 24.5183609426,-28.5364857316,0 24.5183327794,-28.5363811255,0 24.5182523131,-28.5362698138,0 24.5180980861,-28.5361517966,0 24.517698437,-28.5359747708,0 24.5172303915,-28.5358017683,0 24.5169232786,-28.5356864333,0 24.5162218809,-28.5354101658,0 24.5160609484,-28.5353283584,0 24.5156036317,-28.5349394381,0 24.5155191422,-28.5348442197,0 24.5152428746,-28.5345330834,0 24.5149853826,-28.5342420638,0 24.5145924389,-28.5337994993,0 24.5140559971,-28.53319332,0 24.5139473677,-28.533077985,0 24.51370731,-28.5328191519,0 24.5128329098,-28.5318803787,0 24.512155652,-28.531087786,0 24.5118941367,-28.5307820141,0 24.5113442838,-28.5301811993,0 24.5107756555,-28.5296930373,0 24.5103894174,-28.5294234753,0 24.5103572309,-28.5294087231,0 24.5098610222,-28.5291780531,0 24.5094265044,-28.5289996862,0 24.5067121089,-28.5283076763,0 24.5048077404,-28.5278061032,0 24.5046253502,-28.5277578235,0 24.5045046508,-28.5277283192,0 24.5013570786,-28.5269317031,0 24.5008246601,-28.5267935693,0 24.4989229739,-28.5263027251,0 24.4964888692,-28.5256683826,0 24.4948996603,-28.5252647102,0 24.4932286441,-28.5248409212,0 24.4926975667,-28.5247068107,0 24.4883751869,-28.5236111283,0 24.4861100614,-28.5230585933,0 24.4834037125,-28.5223585367,0 24.4818922877,-28.5219655931,0 24.4804532826,-28.5215900838,0 24.4787581265,-28.5210992396,0 24.4784912467,-28.5209986567,0 24.4772359729,-28.5205279291,0 24.4764876366,-28.5201470554,0 24.4756682217,-28.519705832,0 24.4748568535,-28.5191854835,0 24.469729811,-28.5154263675,0 24.4645665586,-28.511633724,0 24.4619205594,-28.509683758,0 24.459580332,-28.5079430044,0 24.4554537535,-28.5048906505,0 24.4519467652,-28.5023385286,0 24.4516262412,-28.5021051764,0 24.4470986724,-28.4987819195,0 24.4440047443,-28.496504724,0 24.4431518018,-28.4958811104,0 24.4420011342,-28.494977206,0 24.4404789805,-28.493566364,0 24.4394610822,-28.4925310314,0 24.4375526905,-28.4906414151,0 24.4370739162,-28.4901706874,0 24.4345700741,-28.487713784,0 24.4324082136,-28.4855800867,0 24.4312481582,-28.4844347835,0 24.4285914302,-28.4817887843,0 24.4264698029,-28.4797355533,0 24.4256839156,-28.4790489078,0 24.4248698652,-28.4784051776,0 24.4246579707,-28.4782241285,0 24.4233624637,-28.4772330523,0 24.4212917984,-28.4757497907,0 24.4211818278,-28.4756760299,0 24.4195255637,-28.4745723009,0 24.4170793891,-28.4728637338,0 24.4096805155,-28.4676857293,0 24.4077131152,-28.4663151205,0 24.4074958563,-28.4661649168,0 24.4057832658,-28.4649592638,0 24.4048377872,-28.4643061459,0 24.4034054875,-28.4633177519,0 24.3995967507,-28.4606422484,0 24.3970097601,-28.4588424861,0 24.3961393833,-28.4582349658,0 24.395814836,-28.4580096602,0 24.394300729,-28.456954211,0 24.3928335607,-28.4559229016,0 24.390386045,-28.4542103112,0 24.389051646,-28.4532809258,0 24.3884293735,-28.452847749,0 24.3856854737,-28.4509071708,0 24.3835356832,-28.4494225681,0 24.3817050755,-28.4481418133,0 24.3812638521,-28.4478320181,0 24.3782396615,-28.4457170963,0 24.3758109212,-28.4440219402,0 24.3737308681,-28.4425708652,0 24.3736316264,-28.4425024688,0 24.371791631,-28.4412257373,0 24.3711492419,-28.4407711029,0 24.3707080185,-28.4404572845,0 24.3700535595,-28.4399999678,0 24.3684361875,-28.4388667345,0 24.3660235405,-28.4371715784,0 24.3647803366,-28.436306566,0 24.3626855314,-28.4348474443,0 24.3616890907,-28.4341473877,0 24.3595929444,-28.4326453507,0 24.358946532,-28.4321384132,0 24.3578280509,-28.43121171,0 24.3566572666,-28.4301106632,0 24.3558526039,-28.4292724729,0 24.3522597849,-28.4252987802,0 24.3522168696,-28.4252518415,0 24.3497881293,-28.4225428104,0 24.3496607244,-28.4223993123,0 24.3466593325,-28.4190304577,0 24.3446852267,-28.4168283641,0 24.3426440656,-28.4145471454,0 24.3409515917,-28.4126280248,0 24.3393462896,-28.410847038,0 24.3384316564,-28.4098358452,0 24.337863028,-28.4092068672,0 24.3370985985,-28.408344537,0 24.3358647823,-28.4069564939,0 24.3353752792,-28.4064173698,0 24.3345853686,-28.4055322409,0 24.3340703845,-28.4050051868,0 24.3332925439,-28.4042273462,0 24.3327185512,-28.4037123621,0 24.3324194849,-28.4034374356,0 24.3312634528,-28.4023819864,0 24.3305620551,-28.4017516673,0 24.3302455544,-28.4014673531,0 24.3295025826,-28.4007994831,0 24.3256348372,-28.3973233402,0 24.3236124516,-28.3955034614,0 24.3222364783,-28.3942468464,0 24.3210066855,-28.3931538463,0 24.3209195137,-28.3930747211,0 24.3194228411,-28.3917349577,0 24.3191385269,-28.3914814889,0 24.3189293146,-28.3912950754,0 24.3184545636,-28.3908726275,0 24.3170155585,-28.3895838261,0 24.3166065216,-28.389210999,0 24.3160244823,-28.3886839449,0 24.314480871,-28.3872959018,0 24.3135246634,-28.3864456415,0 24.3126703799,-28.3856852353,0 24.312171489,-28.3852252364,0 24.3099693954,-28.3832390606,0 24.3090601265,-28.3824129403,0 24.3077686429,-28.3812528849,0 24.3070659041,-28.3806346357,0 24.3067748845,-28.3803784847,0 24.3052916229,-28.3790507913,0 24.3040242791,-28.3778853714,0 24.3033497036,-28.3772698045,0 24.3032880127,-28.3772148192,0 24.3008874357,-28.3750650287,0 24.2996294796,-28.3739599586,0 24.299390763,-28.3737507463,0 24.2985096574,-28.3730252087,0 24.2950938642,-28.370436877,0 24.2904227972,-28.3668856323,0 24.2795370519,-28.358720988,0 24.2777332664,-28.3573865891,0 24.2760327458,-28.3560964465,0 24.2740680277,-28.3546158671,0 24.2720738053,-28.3531205356,0 24.2686285079,-28.3505254984,0 24.2659181356,-28.3484762907,0 24.2627330124,-28.346067667,0 24.2612524331,-28.3449679613,0 24.2607535422,-28.3445964754,0 24.2603632808,-28.3443054557,0 24.2596980929,-28.343809247,0 24.2578218877,-28.3424024284,0 24.2553730309,-28.3405396342,0 24.2541016638,-28.3395847678,0 24.2533197999,-28.3389852941,0 24.2512263358,-28.3374269307,0 24.2499040067,-28.3364197612,0 24.2479982972,-28.3349968493,0 24.2460469902,-28.3335310221,0 24.2441855371,-28.3321242034,0 24.2421470582,-28.3305698633,0 24.240732193,-28.3294513822,0 24.2397129536,-28.3286494017,0 24.2383785546,-28.3274169266,0 24.2368684709,-28.3258478343,0 24.2338187993,-28.3226814866,0 24.2314141989,-28.320158869,0 24.2300368845,-28.3187319338,0 24.2272205651,-28.3157855272,0 24.2252719402,-28.3137175441,0 24.2239375412,-28.3123402297,0 24.2228673398,-28.3112110198,0 24.2220452428,-28.3104331791,0 24.2207551003,-28.3094072342,0 24.2202709615,-28.3091135323,0 24.2191712558,-28.3084832132,0 24.2179106176,-28.3078381419,0 24.2167519033,-28.3073982596,0 24.2154765129,-28.3070321381,0 24.2149789631,-28.3069288731,0 24.213321358,-28.306607008,0 24.212397337,-28.3065332472,0 24.2112533748,-28.3064889908,0 24.2089802027,-28.3064353466,0 24.2076028883,-28.306401819,0 24.2039081454,-28.3063133061,0 24.1973675787,-28.3061523736,0 24.1868841648,-28.305888176,0 24.1846847534,-28.3058452606,0 24.1803154349,-28.3057419956,0 24.1743180156,-28.3056105673,0 24.1724471748,-28.3055636287,0 24.1497543454,-28.3034192026,0 24.1497208178,-28.3035412431,0 24.1494619846,-28.3038952947,0 24.1493332386,-28.3039931953,0 24.1483180225,-28.3040575683,0 24.1447533667,-28.303437978,0 24.1419638693,-28.3025059104,0 24.1375435889,-28.301050812,0 24.136429131,-28.3007007837,0 24.1340540349,-28.2998344302,0 24.1332480311,-28.2994964719,0 24.1319578886,-28.2989399135,0 24.130525589,-28.2982841134,0 24.1301098466,-28.2981044054,0 24.1297973692,-28.2979622483,0 24.1258893907,-28.2962121069,0 24.1220739484,-28.2945048809,0 24.1106383502,-28.2893657684,0 24.1008710861,-28.285009861,0 24.0990109742,-28.2841743529,0 24.0977932513,-28.2836325467,0 24.0968772769,-28.2832248509,0 24.0941280127,-28.2819749415,0 24.092797637,-28.2813459635,0 24.0918910503,-28.2808738947,0 24.09015432,-28.279838562,0 24.0858976543,-28.2772837579,0 24.0850956738,-28.2768023014,0 24.0764589608,-28.2716390491,0 24.0726515651,-28.2693712413,0 24.0687462687,-28.2670202851,0 24.0654619038,-28.2650703192,0 24.0612843633,-28.2625637949,0 24.0582413971,-28.2607345283,0 24.0564054251,-28.2596696913,0 24.0558984876,-28.2593625784,0 24.0548765659,-28.2588274777,0 24.0532189608,-28.2580120862,0 24.0520629287,-28.2574380934,0 24.0506829321,-28.2567447424,0 24.0499614179,-28.2563772798,0 24.0486672521,-28.2557402551,0 24.0452890098,-28.2540410757,0 24.0446023643,-28.2537044585,0 24.0434382856,-28.2531398535,0 24.0401016176,-28.251503706,0 24.0365946293,-28.2497535646,0 24.0352374315,-28.2490749657,0 24.034537375,-28.2487329841,0 24.0342222154,-28.2485961914,0 24.0337581933,-28.2483507693,0 24.0335798264,-28.248256892,0 24.0328288078,-28.2478612661,0 24.0321072936,-28.247410655,0 24.0318417549,-28.2471947372,0 24.0312865376,-28.2467454672,0 24.0312342346,-28.2466891408,0 24.030700475,-28.2461607456,0 24.0301935375,-28.2455813885,0 24.0300285816,-28.2453466952,0 24.0297938883,-28.2449886203,0 24.0292936563,-28.2440458238,0 24.0290428698,-28.2434812188,0 24.0286928415,-28.2422246039,0 24.0279713273,-28.2397516072,0 24.0276575089,-28.2387377322,0 24.0274429321,-28.2378552854,0 24.027056694,-28.2363854349,0 24.0268354118,-28.235540539,0 24.0264987946,-28.2346178591,0 24.0263003111,-28.2341940701,0 24.025965035,-28.2338118553,0 24.0253226459,-28.2331050932,0 24.0244670212,-28.2324640453,0 24.0225023031,-28.2312020659,0 24.0089906752,-28.2225318253,0 24.0048064291,-28.2199166715,0 24.0036302805,-28.219306469,0 24.0021054447,-28.2185648382,0 24.0005135536,-28.2180418074,0 23.995937705,-28.2168214023,0 23.9829289913,-28.2134230435,0 23.9810822904,-28.2129187882,0 23.9714357257,-28.2097645104,0 23.9679716527,-28.2084971666,0 23.9637337625,-28.2069481909,0 23.9635768533,-28.2068905234,0 23.9542078972,-28.2034640014,0 23.9423927665,-28.1991282105,0 23.9415974915,-28.1988398731,0 23.9410704374,-28.198646754,0 23.9403502643,-28.1983785331,0 23.9395160973,-28.1980647147,0 23.9385746419,-28.1977160275,0 23.9383547008,-28.1976315379,0 23.9381039143,-28.1975376606,0 23.9375929534,-28.1973485649,0 23.9369519055,-28.1971138716,0 23.936560303,-28.1969703734,0 23.935958147,-28.1967517734,0 23.9358830452,-28.1967262924,0 23.9357462525,-28.1966793537,0 23.9353854954,-28.1965613365,0 23.9351548254,-28.1964942813,0 23.9347565174,-28.1963628531,0 23.9342978597,-28.1962367892,0 23.9340510964,-28.1961683929,0 23.9336688817,-28.1960718334,0 23.9328575134,-28.1958639622,0 23.9323438704,-28.1957378983,0 23.9321869612,-28.1957030296,0 23.9315338433,-28.1955729425,0 23.9310577512,-28.1954951584,0 23.9305964112,-28.1953985989,0 23.9305347204,-28.1953905523,0 23.9303389192,-28.1953503191,0 23.9298172295,-28.1952698529,0 23.9294229448,-28.1952148676,0 23.9287497103,-28.1951330602,0 23.9281690121,-28.1950700283,0 23.927590996,-28.1950163841,0 23.9275842905,-28.1950163841,0 23.9269660413,-28.1949748099,0 23.9263451099,-28.1949412823,0 23.9260527492,-28.1949278712,0 23.9258730412,-28.1949171424,0 23.9255015552,-28.1949211657,0 23.9250938594,-28.1949171424,0 23.9247223735,-28.1949144602,0 23.9243508875,-28.1949211657,0 23.9234308898,-28.1949318945,0 23.9231948555,-28.1949318945,0 23.9230191708,-28.1949399412,0 23.9227388799,-28.1949546933,0 23.9225940406,-28.1949613988,0 23.9224411547,-28.1949734688,0 23.921700865,-28.195027113,0 23.921431303,-28.1950485706,0 23.9210866392,-28.1950807571,0 23.9207352698,-28.1951156259,0 23.9205595851,-28.1951397657,0 23.9199708402,-28.1952229142,0 23.9193539321,-28.1953087449,0 23.919198364,-28.1953302026,0 23.9190883934,-28.1953530014,0 23.9189569652,-28.1953784823,0 23.9183856547,-28.195476383,0 23.9175193012,-28.1956386566,0 23.9171746373,-28.1957043707,0 23.9169184864,-28.1957472861,0 23.9168782532,-28.1957553327,0 23.8992185891,-28.1990852952,0 23.8943570852,-28.1999918818,0 23.8937656581,-28.2001085579,0 23.8850994408,-28.2017339766,0 23.8846421242,-28.2018198073,0 23.8796961308,-28.2027478516,0 23.8779124618,-28.2030911744,0 23.8769213855,-28.2032829523,0 23.8761354983,-28.2034291327,0 23.875322789,-28.203573972,0 23.8740460575,-28.2038086653,0 23.8697625697,-28.2046052814,0 23.8694232702,-28.2046709955,0 23.8692100346,-28.2047152519,0 23.8691939414,-28.2047192752,0 23.8690182567,-28.2047528028,0 23.8687245548,-28.2048037648,0 23.8669972122,-28.2051189244,0 23.8659873605,-28.2053174078,0 23.8651116192,-28.2054823637,0 23.8647964597,-28.2055400312,0 23.8636833429,-28.2057479024,0 23.8635398448,-28.2057787478,0 23.8608589768,-28.2062977552,0 23.8593260944,-28.206576705,0 23.8592496514,-28.206590116,0 23.857665807,-28.2068784535,0 23.8573157787,-28.2069468498,0 23.8556045294,-28.2072821259,0 23.8547971845,-28.2074296474,0 23.8533729315,-28.2076951861,0 23.8510689139,-28.2081283629,0 23.8372917473,-28.2107207179,0 23.8291458786,-28.2122308016,0 23.8127240539,-28.2153381407,0 23.8060869277,-28.216573298,0 23.8024713099,-28.2172425091,0 23.8004127145,-28.2176274061,0 23.7992969155,-28.2178889215,0 23.7992553413,-28.2178983092,0 23.7969392538,-28.2183100283,0 23.7953446805,-28.2186050713,0 23.792231977,-28.2191710174,0 23.7738615274,-28.2226189971,0 23.7498906255,-28.2270875573,0 23.7495687604,-28.2271492481,0 23.7452115119,-28.2279606164,0 23.7345188856,-28.2299306989,0 23.7262094021,-28.2315011322,0 23.7174291909,-28.2331480086,0 23.7071429193,-28.2350859046,0 23.701569289,-28.2361373305,0 23.6957287788,-28.2372276485,0 23.6910966039,-28.2380712032,0 23.6873683333,-28.2387471199,0 23.6789059639,-28.2403564453,0 23.6706715822,-28.2418893278,0 23.660941869,-28.2437132299,0 23.6539104581,-28.2450060546,0 23.6521375179,-28.2453225553,0 23.6483488977,-28.2460185885,0 23.6373277009,-28.2480838895,0 23.6285528541,-28.249707967,0 23.6259135604,-28.2502001524,0 23.6250190437,-28.2503838837,0 23.6205907166,-28.2511469722,0 23.6181338131,-28.2516029477,0 23.6093120277,-28.2532712817,0 23.6088131368,-28.2533665001,0 23.5997083783,-28.2550884783,0 23.5991209745,-28.2551944256,0 23.5974445939,-28.2554934919,0 23.5892169178,-28.2570169866,0 23.5828118026,-28.2582052052,0 23.5822968185,-28.2583004236,0 23.5805989802,-28.2586155832,0 23.5796253383,-28.258792609,0 23.5673971474,-28.2610188425,0 23.565543741,-28.2613755763,0 23.5609799623,-28.2622539997,0 23.5595168173,-28.2625181973,0 23.5568413138,-28.2630304992,0 23.5567514598,-28.2630479336,0 23.5553433001,-28.2633121312,0 23.5546338558,-28.2634462416,0 23.5539780557,-28.263566941,0 23.5532766581,-28.2636983693,0 23.5464397073,-28.2649670541,0 23.5443381965,-28.2653546333,0 23.543446362,-28.2655195892,0 23.5429501534,-28.2656107843,0 23.5404677689,-28.2660748065,0 23.5393854976,-28.2662759721,0 23.5382898152,-28.2664757967,0 23.5371753573,-28.2666823268,0 23.5359321535,-28.2669076324,0 23.5351274908,-28.2670538127,0 23.5327684879,-28.2674883306,0 23.5315239429,-28.267724365,0 23.5298757255,-28.2680287957,0 23.5272793472,-28.2685263455,0 23.5248237848,-28.2689702511,0 23.5136725008,-28.2710315287,0 23.5129711032,-28.2711602747,0 23.5084368289,-28.2720091939,0 23.5070206225,-28.2722680271,0 23.5042069852,-28.2727897167,0 23.5023495555,-28.2731370628,0 23.5005927086,-28.2734669745,0 23.49917382,-28.2737365365,0 23.4984469414,-28.273870647,0 23.4974813461,-28.2740516961,0 23.4965385497,-28.274230063,0 23.4956426919,-28.2743950188,0 23.4949922562,-28.2745184004,0 23.4942466021,-28.2746565342,0 23.4935599566,-28.274782598,0 23.4929095209,-28.2749006152,0 23.4923020005,-28.2750146091,0 23.4914262593,-28.2751768827,0 23.4908106923,-28.2752868533,0 23.489997983,-28.275437057,0 23.4896546602,-28.2755041122,0 23.4890833497,-28.2756073773,0 23.4883524477,-28.2757414877,0 23.4873466194,-28.2759265602,0 23.4868584573,-28.2760164142,0 23.4863220155,-28.2761156559,0 23.4855093062,-28.2762658596,0 23.4851109982,-28.2763369381,0 23.4842151403,-28.2765032351,0 23.4832522273,-28.2766802609,0 23.4826809168,-28.2767875493,0 23.481772989,-28.2769525051,0 23.4809723496,-28.2770986855,0 23.4790572524,-28.2774554193,0 23.4679381549,-28.2795247436,0 23.464718163,-28.280108124,0 23.4639523923,-28.2801684737,0 23.4628245234,-28.2802073658,0 23.4620547295,-28.2801604271,0 23.4609040618,-28.2799766958,0 23.4602603316,-28.2798613608,0 23.4597319365,-28.279735297,0 23.4593524039,-28.2796320319,0 23.4587314725,-28.2794362307,0 23.4577645361,-28.279080838,0 23.4547752142,-28.277861774,0 23.4522217512,-28.2768371701,0 23.4490178525,-28.2755430043,0 23.448805958,-28.2754571736,0 23.4453096986,-28.2740543783,0 23.4434080124,-28.2732886076,0 23.4425953031,-28.2729627192,0 23.4402188659,-28.2720065117,0 23.4375715256,-28.2709389925,0 23.437230885,-28.2708021998,0 23.4370605648,-28.2707338035,0 23.4338566661,-28.2694503665,0 23.4335723519,-28.2693363726,0 23.4335562587,-28.2693296671,0 23.4302651882,-28.268007338,0 23.4277640283,-28.266993463,0 23.4269244969,-28.2666528225,0 23.4221769869,-28.2668030262,0 23.4220603108,-28.2667279243,0 23.4216445684,-28.2664637268,0 23.4214299917,-28.2663148642,0 23.4197562933,-28.2672563195,0 23.4194236994,-28.2671611011,0 23.4191608429,-28.2671101391,0 23.4189999104,-28.2670900226,0 23.4189020097,-28.2671168447,0 23.4188349545,-28.2671530545,0 23.4137025476,-28.2652741671,0 23.4085540473,-28.2660654187,0 23.4075388312,-28.2662250102,0 23.4071794152,-28.2662813365,0 23.4068199992,-28.2663618028,0 23.3976133168,-28.2697695494,0 23.396795243,-28.2702121139,0 23.3958296478,-28.2708370686,0 23.3950799704,-28.2713265717,0 23.3936369419,-28.2723484933,0 23.3933754265,-28.2725644112,0 23.3924782276,-28.2732926309,0 23.3905349672,-28.2748375833,0 23.3891375363,-28.2759399712,0 23.3869341016,-28.2777008414,0 23.386425823,-28.2781286538,0 23.381717205,-28.2812641561,0 23.3815026283,-28.2813593745,0 23.3810144663,-28.2815296948,0 23.3801628649,-28.2817684114,0 23.3792643249,-28.2819722593,0 23.3759249747,-28.2827447355,0 23.3740729094,-28.2831551135,0 23.3683302999,-28.2844264805,0 23.367767036,-28.2845525444,0 23.3603346348,-28.286216855,0 23.3557467163,-28.2872454822,0 23.3469302952,-28.2891994715,0 23.3441233635,-28.2898364961,0 23.3432140946,-28.2900443673,0 23.3412520587,-28.2904949784,0 23.3376820385,-28.2912687957,0 23.3354973793,-28.2917650044,0 23.3219844103,-28.294762373,0 23.3176285028,-28.2957279682,0 23.3153177798,-28.296238929,0 23.3148537576,-28.2963435352,0 23.3032679558,-28.2988996804,0 23.2971833646,-28.300242126,0 23.2671225071,-28.3079467714,0 23.2561898232,-28.3124877512,0 23.2290418446,-28.3238093555,0 23.2287400961,-28.3239340782,0 23.2272621989,-28.324560374,0 23.2259398699,-28.3251075447,0 23.22298944,-28.3263359964,0 23.222092241,-28.3267168701,0 23.2203796506,-28.3274263144,0 23.2193255424,-28.3278769255,0 23.21644485,-28.3290718496,0 23.2130384445,-28.3304961026,0 23.2107558846,-28.3314496279,0 23.2095220685,-28.3319565654,0 23.2084652781,-28.3324031532,0 23.207719624,-28.3327156305,0 23.2071805,-28.3329369128,0 23.2064589858,-28.333234638,0 23.2057964802,-28.3334706724,0 23.2052144408,-28.333671838,0 23.2046712935,-28.3338542283,0 23.2032470405,-28.3342632651,0 23.2027079165,-28.3343946934,0 23.2019166648,-28.3345676959,0 23.2008759677,-28.3347541094,0 23.1997521222,-28.334916383,0 23.1991620362,-28.3349874616,0 23.1986711919,-28.3350397646,0 23.1981655955,-28.3350840211,0 23.1902503967,-28.3334317803,0 23.1894309819,-28.3342726529,0 23.1806842983,-28.3344496787,0 23.1802551448,-28.334428221,0 23.1783212721,-28.3343356848,0 23.1776936352,-28.3343008161,0 23.1771866977,-28.334273994,0 23.1762988865,-28.3342525363,0 23.175393641,-28.3342082798,0 23.1748853624,-28.3341827989,0 23.1742469966,-28.3341304958,0 23.1741370261,-28.3341211081,0 23.1740216911,-28.3341184258,0 23.1738929451,-28.3341184258,0 23.172994405,-28.3340835571,0 23.1713180244,-28.3339977264,0 23.170119077,-28.3339346945,0 23.1671820581,-28.3338019252,0 23.1637622416,-28.3336248994,0 23.1618525088,-28.3335404098,0 23.1617210805,-28.3335350454,0 23.160058111,-28.3334626257,0 23.15912202,-28.3334223926,0 23.1567053497,-28.3333016932,0 23.1564491987,-28.3331635594,0 23.1560736895,-28.3330696821,0 23.1556230783,-28.3329932392,0 23.1546145678,-28.33282426,0 23.1520825624,-28.3324742317,0 23.1469541788,-28.3317567408,0 23.1454360485,-28.331618607,0 23.1450229883,-28.331579715,0 23.1432272494,-28.3312578499,0 23.1419800222,-28.3325922489,0 23.1387721002,-28.332439363,0 23.1363929808,-28.3323213458,0 23.1320612133,-28.3321121335,0 23.1304974854,-28.3320343494,0 23.1285636127,-28.3319444954,0 23.1251518428,-28.3317701519,0 23.1235612929,-28.3316963911,0 23.1223247945,-28.3316414058,0 23.1195487082,-28.3314979076,0 23.1144954264,-28.3312618732,0 23.1119178236,-28.3311291039,0 23.1090505421,-28.3309909701,0 23.1080366671,-28.3309426904,0 23.1055636704,-28.3308206499,0 23.1043674052,-28.3307549357,0 23.1039758027,-28.3307375014,0 23.1027983129,-28.3306838572,0 23.1009556353,-28.3305940032,0 23.0990217626,-28.3304974437,0 23.0977879465,-28.3304451406,0 23.0963556468,-28.3303740621,0 23.094791919,-28.330296278,0 23.0936224759,-28.3302493393,0 23.0930806696,-28.3302345872,0 23.0926220119,-28.3302399516,0 23.0921338499,-28.3302520216,0 23.0915383995,-28.330270797,0 23.0905245245,-28.3303244412,0 23.0902777612,-28.3303405344,0 23.0895669758,-28.3303982019,0 23.0860935152,-28.3307053149,0 23.0858145654,-28.3307240903,0 23.0854739249,-28.3307495713,0 23.084076494,-28.3308729529,0 23.0835843086,-28.3309172094,0 23.0833844841,-28.3309319615,0 23.0831095576,-28.3309708536,0 23.0827863514,-28.3309869468,0 23.0819106102,-28.3310714364,0 23.0817550421,-28.3310861886,0 23.0816946924,-28.331091553,0 23.0811944604,-28.3311358094,0 23.0806285143,-28.3311827481,0 23.0800169706,-28.3312350512,0 23.0794161558,-28.3312860131,0 23.0789709091,-28.3313222229,0 23.0758783221,-28.3315864205,0 23.0749261379,-28.3316709101,0 23.0745774508,-28.3316977322,0 23.0736011267,-28.3317822218,0 23.0722305179,-28.3319163322,0 23.0719166994,-28.3319364488,0 23.0703663826,-28.3320678771,0 23.0699345469,-28.3321014047,0 23.0694785714,-28.3321389556,0 23.0693954229,-28.3321362734,0 23.0692881346,-28.3321201801,0 23.0691808462,-28.3321027458,0 23.0688589811,-28.3320370317,0 23.0674722791,-28.3317701519,0 23.0670538545,-28.3316923678,0 23.066714555,-28.3316293359,0 23.0665737391,-28.3316078782,0 23.0664288998,-28.3315904438,0 23.066265285,-28.3315931261,0 23.0660815537,-28.3316239715,0 23.0658911169,-28.3316507936,0 23.0655866861,-28.3316937089,0 23.0652648211,-28.3317513764,0 23.0650556087,-28.3317822218,0 23.0647310615,-28.3318439126,0 23.0643716455,-28.3318962157,0 23.0640403926,-28.3319337666,0 23.0638512969,-28.331810385,0 23.0635844171,-28.3315958083,0 23.0630144477,-28.3321322501,0 23.0628736317,-28.3322650194,0 23.0626751482,-28.3324608207,0 23.062299639,-28.3328309655,0 23.0620448291,-28.3330830932,0 23.0619160831,-28.3332158625,0 23.0617189407,-28.3334183693,0 23.0615217984,-28.3336208761,0 23.0613595247,-28.3337925375,0 23.0613340437,-28.3338193595,0 23.0612482131,-28.3339118958,0 23.0611610413,-28.3340071142,0 23.0611288548,-28.3340500295,0 23.0610886216,-28.3341117203,0 23.0610738695,-28.3341948688,0 23.0610738695,-28.3342015743,0 23.061068505,-28.3342766762,0 23.0610604584,-28.3344456553,0 23.0610510707,-28.3347460628,0 23.0610430241,-28.3350290358,0 23.0610443652,-28.3359356225,0 23.0610309541,-28.3363299072,0 23.0610215664,-28.3366182446,0 23.061016202,-28.3368811011,0 23.0610188842,-28.3371345699,0 23.0610135198,-28.3376441896,0 23.0621695518,-28.3378185332,0 23.0622178316,-28.3378252387,0
            </coordinates>
        </LineString>
        </Placemark>
  </Folder>
        </Document>
    </kml>
    