<?xml version="1.0" encoding="UTF-8"?>
    <kml xmlns="http://www.opengis.net/kml/2.2">
    <Document>
        <name>Colored Path</name>
        <Folder>
            <name>Day 4</name>
            <open>1</open>
            <Style id="blackLine">
            <LineStyle>
                <color>ff000000</color>
                <width>4</width>
            </LineStyle>
            </Style>
            <Style id="redLine">
            <LineStyle>
                <color>ff0000ff</color>
                <width>4</width>
            </LineStyle>
            </Style>
        <Placemark>
        <name>Segment 1 (True)</name>
        <styleUrl>#blackLine</styleUrl>
        <LineString>
            <tessellate>1</tessellate>
            <coordinates>
            23.0622084439,-28.3378238976,0 23.0621695518,-28.3378185332,0 23.0610135198,-28.3376441896,0 23.0610188842,-28.3371345699,0 23.061016202,-28.3368811011,0 23.0610215664,-28.3366182446,0 23.0610309541,-28.3363299072,0 23.0610443652,-28.3359356225,0 23.0610430241,-28.3350290358,0 23.0610510707,-28.3347460628,0 23.0610604584,-28.3344456553,0 23.061068505,-28.3342766762,0 23.0610738695,-28.3342015743,0 23.0610738695,-28.3341948688,0 23.0610886216,-28.3341117203,0 23.0611288548,-28.3340500295,0 23.0611610413,-28.3340071142,0 23.0612482131,-28.3339118958,0 23.0613340437,-28.3338193595,0 23.0613595247,-28.3337925375,0 23.0615217984,-28.3336208761,0 23.0617189407,-28.3334183693,0 23.0619160831,-28.3332158625,0 23.0620448291,-28.3330830932,0 23.062299639,-28.3328309655,0 23.0626751482,-28.3324608207,0 23.0628736317,-28.3322650194,0 23.0630144477,-28.3321322501,0 23.0635844171,-28.3315958083,0 23.0640698969,-28.331091553,0 23.064224124,-28.3308917284,0 23.0642656982,-28.3308085799,0 23.0642938614,-28.3307120204,0 23.0643112957,-28.3306154609,0 23.0643166602,-28.3305041492,0 23.0643112957,-28.3303686976,0 23.0643045902,-28.3302292228,0 23.0642978847,-28.3301956952,0 23.0642858148,-28.3301353455,0 23.0642522871,-28.3300334215,0 23.0642308295,-28.3299542964,0 23.0642080307,-28.3298161626,0 23.0642026663,-28.3297048509,0 23.0641919374,-28.3295626938,0 23.0641919374,-28.3294728398,0 23.0642133951,-28.3293507993,0 23.0642402172,-28.3292931318,0 23.0642925203,-28.3291563392,0 23.0644252896,-28.3289806545,0 23.0645781755,-28.3288063109,0 23.0646827817,-28.328666836,0 23.064995259,-28.3282510936,0 23.0652447045,-28.327934593,0 23.0653077364,-28.3278501034,0 23.0653654039,-28.327781707,0 23.0658468604,-28.3271728456,0 23.066290766,-28.3266015351,0 23.066470474,-28.3263896406,0 23.0665831268,-28.3262340724,0 23.066650182,-28.3261415362,0 23.0668111145,-28.3259376884,0 23.0675178766,-28.3250458539,0 23.067650646,-28.3248755336,0 23.0679363012,-28.3245053887,0 23.0680865049,-28.3243069053,0 23.0682501197,-28.3240614831,0 23.0683963001,-28.323765099,0 23.0685250461,-28.3233600855,0 23.0685572326,-28.3230046928,0 23.0685599148,-28.3229738474,0 23.0685612559,-28.3226238191,0 23.0685263872,-28.3224105835,0 23.0685169995,-28.3223569393,0 23.0684888363,-28.3222348988,0 23.0684459209,-28.3220471442,0 23.0683144927,-28.3217279613,0 23.0681240559,-28.3213537931,0 23.0679698288,-28.32109496,0 23.0677646399,-28.3207516372,0 23.0676855147,-28.3206094801,0 23.0676546693,-28.3205544949,0 23.0675795674,-28.3203962445,0 23.0674883723,-28.3201803267,0 23.0674441159,-28.3198718727,0 23.0674320459,-28.3196814358,0 23.0673998594,-28.3196398616,0 23.0673985183,-28.319426626,0 23.0674025416,-28.3193099499,0 23.0674146116,-28.3191557229,0 23.0674360693,-28.3190001547,0 23.0674682558,-28.31882447,0 23.0674937367,-28.3186903596,0 23.0675379932,-28.3184570074,0 23.0675755441,-28.3182263374,0 23.0676198006,-28.3179970086,0 23.0676372349,-28.3179044724,0 23.0676801503,-28.3176898956,0 23.0678343773,-28.3169308305,0 23.0679108202,-28.3165083826,0 23.0679671466,-28.3162227273,0 23.0679926276,-28.3161959052,0 23.0680274963,-28.3160041273,0 23.0683976412,-28.3140031993,0 23.0685585737,-28.3131328225,0 23.0686323345,-28.312727809,0 23.0690051615,-28.3107604086,0 23.0690789223,-28.3103714883,0 23.0691204965,-28.3101542294,0 23.0691862106,-28.3098229766,0 23.0691982806,-28.3097532392,0 23.0692264438,-28.3096338809,0 23.0692760646,-28.3094005287,0 23.0693297088,-28.3091376722,0 23.0693860352,-28.3088265359,0 23.069459796,-28.3084416389,0 23.069512099,-28.3081935346,0 23.0695174634,-28.3081667125,0 23.0696609616,-28.3073191345,0 23.0697508156,-28.3068457246,0 23.0699318647,-28.3058935404,0 23.0700056255,-28.3055099845,0 23.0700753629,-28.3051559329,0 23.0703449249,-28.303758502,0 23.0705621839,-28.3026655018,0 23.0706050992,-28.3024348319,0 23.0708290637,-28.3012399077,0 23.0709725618,-28.3005103469,0 23.0712300539,-28.2991544902,0 23.0716726184,-28.2967606187,0 23.0722627044,-28.2937082648,0 23.0724263191,-28.2928526402,0 23.0725698173,-28.2920721173,0 23.072669059,-28.2915705442,0 23.0728206038,-28.290759176,0 23.0729842186,-28.2898579538,0 23.0731116235,-28.2891780138,0 23.0732296407,-28.2885718346,0 23.0733771622,-28.2877524197,0 23.0737298727,-28.2859741151,0 23.0738653243,-28.285240531,0 23.0739752948,-28.2846303284,0 23.0740906298,-28.2840724289,0 23.0741845071,-28.2835896313,0 23.0743159354,-28.282880187,0 23.074427247,-28.2821895182,0 23.0748644471,-28.2799270749,0 23.0749475956,-28.2795636356,0 23.0750213563,-28.2791747153,0 23.075119257,-28.2786825299,0 23.0753177404,-28.2775935531,0 23.0757938325,-28.2751151919,0 23.0758474767,-28.2748188078,0 23.0762645602,-28.2726033032,0 23.0764938891,-28.2713882625,0 23.076582402,-28.2709671557,0 23.0768063664,-28.2697695494,0 23.0771295726,-28.2680730522,0 23.0773428082,-28.2669572532,0 23.0775667727,-28.2657757401,0 23.0779114366,-28.2639424503,0 23.0781139433,-28.2628856599,0 23.0783432722,-28.2616612315,0 23.0787268281,-28.2596750557,0 23.0788689852,-28.2589307427,0 23.0789789557,-28.2583607733,0 23.0793343484,-28.2564134896,0 23.0796079338,-28.2550133765,0 23.0797447264,-28.2542797923,0 23.0799686909,-28.2531143725,0 23.0802047253,-28.251888603,0 23.0804018676,-28.2508599758,0 23.0806204677,-28.2497213781,0 23.0807894468,-28.2487866282,0 23.0809906125,-28.2477284968,0 23.0807894468,-28.2487866282,0 23.0806204677,-28.2497213781,0 23.0804018676,-28.2508599758,0 23.0802047253,-28.251888603,0 23.0799686909,-28.2531143725,0 23.0797447264,-28.2542797923,0 23.0796079338,-28.2550133765,0 23.0793343484,-28.2564134896,0 23.0789789557,-28.2583607733,0 23.0788689852,-28.2589307427,0 23.0787268281,-28.2596750557,0 23.0783432722,-28.2616612315,0 23.0781139433,-28.2628856599,0 23.0779114366,-28.2639424503,0 23.0775667727,-28.2657757401,0 23.0773428082,-28.2669572532,0 23.0771295726,-28.2680730522,0 23.0768063664,-28.2697695494,0 23.076582402,-28.2709671557,0 23.0764938891,-28.2713882625,0 23.0762645602,-28.2726033032,0 23.0758474767,-28.2748188078,0 23.0757938325,-28.2751151919,0 23.0753177404,-28.2775935531,0 23.075119257,-28.2786825299,0 23.0750213563,-28.2791747153,0 23.0749475956,-28.2795636356,0 23.0748644471,-28.2799270749,0 23.074427247,-28.2821895182,0 23.0743159354,-28.282880187,0 23.0741845071,-28.2835896313,0 23.0740906298,-28.2840724289,0 23.0739752948,-28.2846303284,0 23.0738653243,-28.285240531,0 23.0737298727,-28.2859741151,0 23.0733771622,-28.2877524197,0 23.0732296407,-28.2885718346,0 23.0731116235,-28.2891780138,0 23.0729842186,-28.2898579538,0 23.0728206038,-28.290759176,0 23.072669059,-28.2915705442,0 23.0725698173,-28.2920721173,0 23.0724263191,-28.2928526402,0 23.0722627044,-28.2937082648,0 23.0716726184,-28.2967606187,0 23.0712300539,-28.2991544902,0 23.0709725618,-28.3005103469,0 23.0708290637,-28.3012399077,0 23.0706050992,-28.3024348319,0 23.0705621839,-28.3026655018,0 23.0703449249,-28.303758502,0 23.0700753629,-28.3051559329,0 23.0700056255,-28.3055099845,0 23.0699318647,-28.3058935404,0 23.0697508156,-28.3068457246,0 23.0696609616,-28.3073191345,0 23.0695174634,-28.3081667125,0 23.069512099,-28.3081935346,0 23.069459796,-28.3084416389,0 23.0693860352,-28.3088265359,0 23.0693297088,-28.3091376722,0 23.0692760646,-28.3094005287,0 23.0692264438,-28.3096338809,0 23.0691982806,-28.3097532392,0 23.0691862106,-28.3098229766,0 23.0691204965,-28.3101542294,0 23.0690789223,-28.3103714883,0 23.0690051615,-28.3107604086,0 23.0686323345,-28.312727809,0 23.0685585737,-28.3131328225,0 23.0683976412,-28.3140031993,0 23.0680274963,-28.3160041273,0 23.0679926276,-28.3161959052,0 23.0679671466,-28.3162227273,0 23.0679108202,-28.3165083826,0 23.0678343773,-28.3169308305,0 23.0676801503,-28.3176898956,0 23.0676372349,-28.3179044724,0 23.0676198006,-28.3179970086,0 23.0675755441,-28.3182263374,0 23.0675379932,-28.3184570074,0 23.0674937367,-28.3186903596,0 23.0674682558,-28.31882447,0 23.0674360693,-28.3190001547,0 23.0674146116,-28.3191557229,0 23.0674025416,-28.3193099499,0 23.0673985183,-28.319426626,0 23.0673998594,-28.3196398616,0 23.0674320459,-28.3196814358,0 23.0674441159,-28.3198718727,0 23.0674883723,-28.3201803267,0 23.0675795674,-28.3203962445,0 23.0676546693,-28.3205544949,0 23.0676855147,-28.3206094801,0 23.0677646399,-28.3207516372,0 23.0679698288,-28.32109496,0 23.0681240559,-28.3213537931,0 23.0683144927,-28.3217279613,0 23.0684459209,-28.3220471442,0 23.0684888363,-28.3222348988,0 23.0685169995,-28.3223569393,0 23.0685263872,-28.3224105835,0 23.0685612559,-28.3226238191,0 23.0685599148,-28.3229738474,0 23.0685572326,-28.3230046928,0 23.0685250461,-28.3233600855,0 23.0683963001,-28.323765099,0 23.0682501197,-28.3240614831,0 23.0680865049,-28.3243069053,0 23.0679363012,-28.3245053887,0 23.067650646,-28.3248755336,0 23.0675178766,-28.3250458539,0 23.0668111145,-28.3259376884,0 23.066650182,-28.3261415362,0 23.0665831268,-28.3262340724,0 23.066470474,-28.3263896406,0 23.066290766,-28.3266015351,0 23.0658468604,-28.3271728456,0 23.0653654039,-28.327781707,0 23.0653077364,-28.3278501034,0 23.0652447045,-28.327934593,0 23.064995259,-28.3282510936,0 23.0646827817,-28.328666836,0 23.0645781755,-28.3288063109,0 23.0644252896,-28.3289806545,0 23.0642925203,-28.3291563392,0 23.0642402172,-28.3292931318,0 23.0642133951,-28.3293507993,0 23.0641919374,-28.3294728398,0 23.0641919374,-28.3295626938,0 23.0642026663,-28.3297048509,0 23.0642080307,-28.3298161626,0 23.0642308295,-28.3299542964,0 23.0642522871,-28.3300334215,0 23.0642858148,-28.3301353455,0 23.0642978847,-28.3301956952,0 23.0643045902,-28.3302292228,0 23.0643112957,-28.3303686976,0 23.0643166602,-28.3305041492,0 23.0643112957,-28.3306154609,0 23.0642938614,-28.3307120204,0 23.0642656982,-28.3308085799,0 23.064224124,-28.3308917284,0 23.0640698969,-28.331091553,0 23.0635844171,-28.3315958083,0 23.0630144477,-28.3321322501,0 23.0628736317,-28.3322650194,0 23.0626751482,-28.3324608207,0 23.062299639,-28.3328309655,0 23.0620448291,-28.3330830932,0 23.0619160831,-28.3332158625,0 23.0617189407,-28.3334183693,0 23.0615217984,-28.3336208761,0 23.0613595247,-28.3337925375,0 23.0613340437,-28.3338193595,0 23.0612482131,-28.3339118958,0 23.0611610413,-28.3340071142,0 23.0611288548,-28.3340500295,0 23.0610886216,-28.3341117203,0 23.0610738695,-28.3341948688,0 23.0610738695,-28.3342015743,0 23.061068505,-28.3342766762,0 23.0610604584,-28.3344456553,0 23.0610510707,-28.3347460628,0 23.0610430241,-28.3350290358,0 23.0610443652,-28.3359356225,0 23.0610309541,-28.3363299072,0 23.0610215664,-28.3366182446,0 23.061016202,-28.3368811011,0 23.0610188842,-28.3371345699,0 23.0610135198,-28.3376441896,0 23.0621695518,-28.3378185332,0 23.0622084439,-28.3378238976,0
            </coordinates>
        </LineString>
        </Placemark>
  </Folder>
        </Document>
    </kml>
    