<?xml version="1.0" encoding="UTF-8"?>
    <kml xmlns="http://www.opengis.net/kml/2.2">
    <Document>
        <name>Colored Path</name>
        <Folder>
            <name>Day 1</name>
            <open>1</open>
            <Style id="blackLine">
            <LineStyle>
                <color>ff000000</color>
                <width>4</width>
            </LineStyle>
            </Style>
            <Style id="redLine">
            <LineStyle>
                <color>ff0000ff</color>
                <width>4</width>
            </LineStyle>
            </Style>
        <Placemark>
        <name>Segment 1 (True)</name>
        <styleUrl>#blackLine</styleUrl>
        <LineString>
            <tessellate>1</tessellate>
            <coordinates>
            27.2422394156,-25.6824611127,0 27.2422689199,-25.6824208796,0 27.242436558,-25.682207644,0 27.2425827384,-25.6820252538,0 27.2426444292,-25.6819461286,0 27.2429743409,-25.681527704,0 27.2430615127,-25.6814177334,0 27.2431755066,-25.6812755764,0 27.2433109581,-25.6811065972,0 27.2433874011,-25.6810127199,0 27.2434557974,-25.6809443235,0 27.2435684502,-25.6808316708,0 27.2436958551,-25.6807163358,0 27.2437629104,-25.6806586683,0 27.2438420355,-25.6805956364,0 27.2440928221,-25.6804105639,0 27.2443717718,-25.6802080572,0 27.2444669902,-25.6801356375,0 27.2446547449,-25.6799948215,0 27.2448304296,-25.6798714399,0 27.2449457645,-25.6797923148,0 27.2450047731,-25.6797520816,0 27.2450651228,-25.6797118485,0 27.2451509535,-25.679667592,0 27.2452273965,-25.6796313822,0 27.2453065217,-25.6796018779,0 27.2453856468,-25.6795763969,0 27.2454755008,-25.679564327,0 27.2455412149,-25.6795468926,0 27.2456739843,-25.6795348227,0 27.2457785904,-25.6795348227,0 27.2458872199,-25.6795401871,0 27.2460454702,-25.6795616448,0 27.246197015,-25.6795924902,0 27.2463552654,-25.6796380877,0 27.2465524077,-25.6796944141,0 27.2466275096,-25.6797158718,0 27.2468581796,-25.679782927,0 27.2475931048,-25.6799907982,0 27.2482314706,-25.680167824,0 27.2484259307,-25.6802228093,0 27.2486619651,-25.6802938879,0 27.2487330437,-25.6803153455,0 27.2487464547,-25.6803193688,0 27.248904705,-25.6803609431,0 27.2491005063,-25.6804145873,0 27.2497536242,-25.6805835664,0 27.2500795126,-25.6806720793,0 27.2502323985,-25.6807096303,0 27.2503061593,-25.6807257235,0 27.2503356636,-25.680732429,0 27.2504295409,-25.6807565689,0 27.2505167127,-25.6808021665,0 27.2505475581,-25.6808209419,0 27.2505918145,-25.6808531284,0 27.2506575286,-25.6809255481,0 27.2506830096,-25.6809523702,0 27.2507098317,-25.6809845567,0 27.2507379949,-25.6810462475,0 27.2508090734,-25.6811910868,0 27.2508533299,-25.681322515,0 27.2508788109,-25.681398958,0 27.2509083152,-25.6814968586,0 27.250944525,-25.6816269457,0 27.2509606183,-25.6817221642,0 27.2509793937,-25.6818267703,0 27.2510102391,-25.6821405888,0 27.2510290146,-25.6822089851,0 27.2510531545,-25.6822948158,0 27.2510679066,-25.6824450195,0 27.251085341,-25.6825777888,0 27.2510960698,-25.6826461852,0 27.2511510551,-25.6830270588,0 27.2511778772,-25.6831759214,0 27.2511966527,-25.6833221018,0 27.2512328625,-25.6836359203,0 27.2512704134,-25.6839229167,0 27.2513079643,-25.6841750443,0 27.2513468564,-25.6844875216,0 27.251354903,-25.6845492125,0 27.2514340281,-25.6850494444,0 27.2514554858,-25.6851822138,0 27.2515051067,-25.6854383647,0 27.2515641153,-25.685737431,0 27.251714319,-25.6864629686,0 27.251778692,-25.6870879233,0 27.2517907619,-25.687173754,0 27.2518001497,-25.6872475147,0 27.2518189251,-25.6874594092,0 27.2518377006,-25.6876015663,0 27.2518645227,-25.6878148019,0 27.2518993914,-25.6880642474,0 27.2519691288,-25.6881447136,0 27.2520576417,-25.6883686781,0 27.2521327436,-25.6885510683,0 27.252214551,-25.6886985898,0 27.252266854,-25.6887669861,0 27.2523137927,-25.6888099015,0 27.2523647547,-25.6888394058,0 27.2524693608,-25.6888782978,0 27.2526195645,-25.6889171898,0 27.2526758909,-25.6889359653,0 27.2528140247,-25.6889641285,0 27.2530031204,-25.6889909506,0 27.2530701756,-25.6890030205,0 27.2531372309,-25.6890137494,0 27.2532123327,-25.6890204549,0 27.2533611953,-25.689035207,0 27.2534631193,-25.6890445948,0 27.253447026,-25.6891599298,0 27.2534202039,-25.6893409789,0 27.2533974051,-25.6895314157,0 27.2533290088,-25.6901094317,0 27.2533088923,-25.6907370687,0 27.253279388,-25.6918314099,0 27.2533424199,-25.69294855,0 27.2534430027,-25.6940066814,0 27.253472507,-25.6941622496,0 27.253523469,-25.6944277883,0 27.2536642849,-25.6951721013,0 27.2539231181,-25.6963925064,0 27.254267782,-25.6979253888,0 27.2545561194,-25.6991900504,0 27.2546298802,-25.6995655596,0 27.2548779845,-25.7008449733,0 27.2548994422,-25.7009589672,0 27.2549986839,-25.7014659047,0 27.2551649809,-25.702110976,0 27.2553004324,-25.7025803626,0 27.2553312778,-25.7026930153,0 27.255435884,-25.7031302154,0 27.2555217147,-25.7035405934,0 27.2555498779,-25.7036760449,0 27.2556236386,-25.7040381432,0 27.2557081282,-25.7045705616,0 27.2558180988,-25.7052075863,0 27.256051451,-25.7062804699,0 27.2562029958,-25.7069791853,0 27.2563438118,-25.7076564431,0 27.2564806044,-25.7083109021,0 27.2567220032,-25.7094736397,0 27.2571323812,-25.7110548019,0 27.2574046254,-25.7120096684,0 27.2576473653,-25.7128290832,0 27.2579075396,-25.7137008011,0 27.2579611838,-25.713879168,0 27.2581395507,-25.7144786417,0 27.2582025826,-25.7146972418,0 27.2584466636,-25.715534091,0 27.2584976256,-25.7157084346,0 27.2587443888,-25.7164607942,0 27.2589066625,-25.716958344,0 27.2589549422,-25.7170911133,0 27.2591346502,-25.7175806165,0 27.2591735423,-25.7175886631,0 27.2592110932,-25.7176047564,0 27.2592419386,-25.7176275551,0 27.2592687607,-25.7176557183,0 27.2592875361,-25.7176865637,0 27.2593009472,-25.7177214324,0 27.2593049705,-25.7177576423,0 27.2593009472,-25.7177938521,0 27.2592875361,-25.7178287208,0 27.2592687607,-25.7178609073,0 27.2592419386,-25.7178877294,0 27.2595088184,-25.7185596228,0 27.2596764565,-25.7189820707,0 27.2597891092,-25.7192637026,0 27.2598910332,-25.7195319235,0 27.2601445019,-25.7201971114,0 27.2603242099,-25.7206343114,0 27.2606125474,-25.7213357091,0 27.2607412934,-25.7216481864,0 27.2614037991,-25.7232575119,0 27.2616170347,-25.7237885892,0 27.2618195415,-25.7242955267,0 27.2618597746,-25.7243049145,0 27.2618973255,-25.7243210077,0 27.2619308531,-25.7243438065,0 27.2619576752,-25.7243706286,0 27.261967063,-25.724388063,0 27.2619818151,-25.724414885,0 27.2619898617,-25.7244376838,0 27.261993885,-25.7244752347,0 27.2619898617,-25.7245114446,0 27.2619777918,-25.7245463133,0 27.2619576752,-25.7245784998,0 27.2622849047,-25.7253684103,0 27.2624391317,-25.7256808877,0 27.2627811134,-25.7263742387,0 27.2632679343,-25.727314353,0 27.2632813454,-25.7273384929,0 27.2638982534,-25.7284194231,0 27.2640216351,-25.7286393642,0 27.2642335296,-25.7290148735,0 27.2648866475,-25.7301655412,0 27.265342623,-25.7310345769,0 27.2654391825,-25.7312370837,0 27.2656685114,-25.7317145169,0 27.2657449543,-25.7318888605,0 27.2659769654,-25.7324105501,0 27.2660131752,-25.7324266434,0 27.2660453618,-25.7324494421,0 27.2660708427,-25.7324762642,0 27.2660909593,-25.7325084507,0 27.2661030293,-25.7325433195,0 27.2661070526,-25.7325795293,0 27.2661030293,-25.7326157391,0 27.2660909593,-25.7326506078,0 27.2660708427,-25.7326827943,0 27.2661928833,-25.7331682742,0 27.266356498,-25.7337583601,0 27.2663739324,-25.733833462,0 27.2665549815,-25.7346045971,0 27.2666917741,-25.7351544499,0 27.2669492662,-25.7361736894,0 27.2670176625,-25.7364472747,0 27.2671477497,-25.7369314134,0 27.2672121227,-25.7371687889,0 27.267255038,-25.7373283803,0 27.267306,-25.7375134528,0 27.2673220932,-25.7375738025,0 27.267499119,-25.7381263375,0 27.267550081,-25.738285929,0 27.2677190602,-25.7387204468,0 27.2677713633,-25.7388545573,0 27.2679550946,-25.7392904162,0 27.2679899633,-25.7393038273,0 27.2680208087,-25.739325285,0 27.2680462897,-25.7393507659,0 27.2680664062,-25.7393816113,0 27.2680771351,-25.739415139,0 27.2680811584,-25.7394513488,0 27.2680771351,-25.7394862175,0 27.2680664062,-25.7395197451,0 27.2680462897,-25.7395505905,0 27.2681750357,-25.7399153709,0 27.2683534026,-25.7404263318,0 27.2684419155,-25.7406596839,0 27.2687825561,-25.7415555418,0 27.2688858211,-25.7418827713,0 27.2692747414,-25.7431152463,0 27.2693927586,-25.743573904,0 27.2696100175,-25.744420141,0 27.2697749734,-25.7452234626,0 27.2698380053,-25.7455278933,0 27.2698782384,-25.7457250357,0 27.2699144483,-25.7458645105,0 27.270052582,-25.7463929057,0 27.2700847685,-25.7464130223,0 27.2701115906,-25.7464385033,0 27.2701317072,-25.7464693487,0 27.2701370716,-25.7464854419,0 27.2701437771,-25.7465028763,0 27.2701478004,-25.7465431094,0 27.2701437771,-25.7465752959,0 27.2701317072,-25.7466088235,0 27.2701115906,-25.7466396689,0 27.2701330483,-25.7470862567,0 27.2701960802,-25.7477661967,0 27.2702108324,-25.7478842139,0 27.2703489661,-25.7490214705,0 27.2704830766,-25.7506026328,0 27.270527333,-25.7510317862,0 27.2706708312,-25.7524305582,0 27.2706896067,-25.7525955141,0 27.2707539797,-25.7531829178,0 27.2707687318,-25.7533089817,0 27.270796895,-25.7535476983,0 27.2708196938,-25.7537327707,0 27.2708572447,-25.7537488639,0 27.2708894312,-25.7537716627,0 27.2709162533,-25.7537984848,0 27.2709363699,-25.7538306713,0 27.2709484398,-25.75386554,0 27.2709538043,-25.7539017498,0 27.2709484398,-25.7539379597,0 27.2709363699,-25.7539728284,0 27.2709162533,-25.7540036738,0 27.2708894312,-25.754031837,0 27.2708572447,-25.7540532947,0 27.2709685564,-25.7551087439,0 27.2709806263,-25.7552321255,0 27.2711187601,-25.7564418018,0 27.2713078558,-25.7586318254,0 27.2713601589,-25.7592326403,0 27.2714366019,-25.7600614429,0 27.2715130448,-25.7608956099,0 27.2715653479,-25.7614561915,0 27.2716015577,-25.7614722848,0 27.2716337442,-25.7614937425,0 27.2716592252,-25.7615219057,0 27.2716793418,-25.7615540922,0 27.2716914117,-25.7615889609,0 27.271695435,-25.7616238296,0 27.2716914117,-25.7616600394,0 27.2716793418,-25.7616949081,0 27.2716592252,-25.7617270947,0 27.2716337442,-25.7617552578,0 27.2716015577,-25.7617767155,0 27.2716297209,-25.762283653,0 27.2716739774,-25.762989074,0 27.2717088461,-25.7635402679,0 27.2717946768,-25.7644884288,0 27.2718201578,-25.7648129761,0 27.2718603909,-25.7653293014,0 27.2718791664,-25.7655720413,0 27.271900624,-25.7658550143,0 27.2719435394,-25.7663981616,0 27.2719582915,-25.7666060328,0 27.2720012069,-25.7672122121,0 27.2720173001,-25.7674428821,0 27.2720213234,-25.7680276036,0 27.2719837725,-25.7683092356,0 27.2719167173,-25.7686538994,0 27.2718563676,-25.7689583302,0 27.2717665136,-25.7693070173,0 27.271682024,-25.769636929,0 27.2716324031,-25.7698394358,0 27.2716511786,-25.7698716223,0 27.2716632485,-25.769906491,0 27.271668613,-25.7699427009,0 27.2716632485,-25.7699789107,0 27.2716525197,-25.7700110972,0 27.2716324031,-25.7700446248,0 27.2716096044,-25.7700674236,0 27.2715908289,-25.7700835168,0 27.2715733945,-25.7700942457,0 27.2715371847,-25.7701103389,0 27.2714982927,-25.7701197267,0 27.2714580595,-25.7701210678,0 27.2714191675,-25.7701157033,0 27.2713802755,-25.7701036334,0 27.2713615,-25.7700929046,0 27.2713387012,-25.7700781524,0 27.2713105381,-25.7700499892,0 27.2712944448,-25.7700298727,0 27.2712783515,-25.769996345,0 27.2712703049,-25.7699601352,0 27.2712703049,-25.7699239254,0 27.2712783515,-25.7698890567,0 27.2712944448,-25.7698555291,0 27.2713172436,-25.7698246837,0 27.2713467479,-25.7698005438,0 27.2713802755,-25.7697804272,0 27.2714191675,-25.7697683573,0 27.2714352608,-25.7697656751,0 27.2715117037,-25.7695819438,0 27.2715894878,-25.769392848,0 27.2716699541,-25.7690870762,0 27.271797359,-25.768609643,0 27.2718402743,-25.7682676613,0 27.271861732,-25.7678666711,0 27.2718550265,-25.7675568759,0 27.2718469799,-25.7672175765,0 27.2718040645,-25.7665979862,0 27.2717598081,-25.7658751309,0 27.2717289627,-25.7655908167,0 27.2716967762,-25.7652930915,0 27.2716632485,-25.7648143172,0 27.2716458142,-25.7646091282,0 27.2716283798,-25.7643771172,0 27.271605581,-25.7639291883,0 27.2715331614,-25.7629984617,0 27.2714915872,-25.7624472678,0 27.271463424,-25.7622259855,0 27.2714205086,-25.7617901266,0 27.271386981,-25.7617740333,0 27.2713588178,-25.7617539167,0 27.2713440657,-25.7617418468,0 27.2713212669,-25.7617123425,0 27.2713051736,-25.7616788149,0 27.271297127,-25.7616426051,0 27.271297127,-25.7616063952,0 27.2713051736,-25.7615701854,0 27.2713212669,-25.7615366578,0 27.2713440657,-25.7615071535,0 27.2713641822,-25.7614910603,0 27.2713896632,-25.7614736259,0 27.2713588178,-25.7611624897,0 27.2713065147,-25.7604329288,0 27.2712931037,-25.760140568,0 27.2712877393,-25.7600681484,0 27.2712568939,-25.7596242428,0 27.2711831331,-25.7586398721,0 27.2711630166,-25.7584306598,0 27.2710825503,-25.7575978339,0 27.2709846497,-25.7567730546,0 27.2708424926,-25.7551141083,0 27.2708277404,-25.7549276948,0 27.2707821429,-25.754570961,0 27.2707781196,-25.7545307279,0 27.2707204521,-25.7540787756,0 27.2706775367,-25.7540693879,0 27.2706587613,-25.7540626824,0 27.2706238925,-25.7540439069,0 27.2705930471,-25.7540184259,0 27.2705702484,-25.7539889216,0 27.2705541551,-25.753955394,0 27.2705447674,-25.7539191842,0 27.2705447674,-25.7538829744,0 27.2705541551,-25.7538481057,0 27.2705702484,-25.7538145781,0 27.2705930471,-25.7537837327,0 27.2706238925,-25.7537595928,0 27.2706413269,-25.7537488639,0 27.2706748545,-25.7537341118,0 27.2706493735,-25.7535463572,0 27.2706373036,-25.7534269989,0 27.2706265748,-25.753275454,0 27.2705635428,-25.7526022196,0 27.2704482079,-25.7513509691,0 27.2703959048,-25.7510666549,0 27.2703328729,-25.7504336536,0 27.2702993453,-25.7501144707,0 27.2702483833,-25.7496196032,0 27.2702148557,-25.7493165135,0 27.2701786458,-25.7489651442,0 27.2701437771,-25.74868083,0 27.2701022029,-25.7482972741,0 27.270078063,-25.748077333,0 27.2700686753,-25.7478775084,0 27.2700405121,-25.7476146519,0 27.27001369,-25.747448355,0 27.2699949145,-25.7473102212,0 27.2699841857,-25.7472378016,0 27.2699600458,-25.7470755279,0 27.2699452937,-25.7468944788,0 27.2699077427,-25.7466946542,0 27.269872874,-25.746678561,0 27.2698527575,-25.7466651499,0 27.2698393464,-25.74665308,0 27.2698152065,-25.7466249168,0 27.2697991133,-25.7465927303,0 27.2697910666,-25.7465565205,0 27.2697910666,-25.7465216517,0 27.2697991133,-25.7464854419,0 27.2698152065,-25.7464532554,0 27.2698393464,-25.7464250922,0 27.2698500752,-25.7464157045,0 27.2698071599,-25.7462239265,0 27.2697427869,-25.7459194958,0 27.2696878016,-25.7455708086,0 27.2696529329,-25.7453548908,0 27.269628793,-25.7452476025,0 27.2695536911,-25.7449002564,0 27.2695147991,-25.7447420061,0 27.2693914175,-25.744189471,0 27.2693377733,-25.7439883053,0 27.2692988813,-25.7438461483,0 27.2692385316,-25.7436034083,0 27.2692063451,-25.7434907556,0 27.2691781819,-25.7433915138,0 27.2690239549,-25.7428470254,0 27.268897891,-25.7424513996,0 27.2688616812,-25.7423307002,0 27.2687865794,-25.7421027124,0 27.2687262297,-25.7419297099,0 27.2686216235,-25.7416078448,0 27.2685129941,-25.7412685454,0 27.2683735192,-25.740917176,0 27.2682957351,-25.7407066226,0 27.2682394087,-25.7405523956,0 27.268140167,-25.7402680814,0 27.2681133449,-25.7401889563,0 27.2680905461,-25.7401192188,0 27.2680529952,-25.7400119305,0 27.2680288553,-25.7399341464,0 27.2679980099,-25.7398603857,0 27.2679792345,-25.7398013771,0 27.2679416835,-25.7397048175,0 27.2679027915,-25.7396189868,0 27.2678799927,-25.7396189868,0 27.2678424418,-25.7396122813,0 27.2678075731,-25.7395975292,0 27.2677767277,-25.7395760715,0 27.2677512467,-25.7395505905,0 27.2677324712,-25.7395197451,0 27.2677204013,-25.7394862175,0 27.267716378,-25.7394513488,0 27.2677204013,-25.739415139,0 27.2677324712,-25.7393816113,0 27.2677512467,-25.7393507659,0 27.2677820921,-25.739325285,0 27.2677364945,-25.7392273843,0 27.2676506639,-25.7390154898,0 27.2676023841,-25.7388746738,0 27.2675487399,-25.7387177646,0 27.2674454749,-25.7383905351,0 27.2673757374,-25.7381598651,0 27.2673475742,-25.7380646467,0 27.2672791779,-25.7378380001,0 27.2672308981,-25.737695843,0 27.2671799362,-25.7375214994,0 27.2671504319,-25.7374182343,0 27.2671169043,-25.7373256981,0 27.2670941055,-25.7372559607,0 27.2670699656,-25.7371714711,0 27.2670136392,-25.7369635999,0 27.2669774294,-25.7367812097,0 27.2668661177,-25.7363681495,0 27.2668151557,-25.7361629605,0 27.2667749226,-25.7359953225,0 27.2666917741,-25.7356841862,0 27.2666662931,-25.7355715334,0 27.2665737569,-25.735193342,0 27.2664664686,-25.7347601652,0 27.266432941,-25.7346059382,0 27.2664020956,-25.7344906032,0 27.2663538158,-25.7342652977,0 27.2662813962,-25.7340118289,0 27.266241163,-25.7338710129,0 27.2662116587,-25.7337637246,0 27.2660949826,-25.733409673,0 27.266048044,-25.7332567871,0 27.2660265863,-25.7331910729,0 27.2659836709,-25.733063668,0 27.2658763826,-25.7327565551,0 27.2658576071,-25.7327538729,0 27.2658200562,-25.7327404618,0 27.2657851875,-25.7327216864,0 27.2657570243,-25.7326962054,0 27.2657328844,-25.7326667011,0 27.2657167912,-25.7326331735,0 27.2657087445,-25.7325983047,0 27.2657087445,-25.7325607538,0 27.2657167912,-25.7325258851,0 27.2657328844,-25.7324923575,0 27.2657570243,-25.7324628532,0 27.265766412,-25.7324534655,0 27.2657033801,-25.7322871685,0 27.2656188905,-25.7320685685,0 27.2654820979,-25.7317051291,0 27.2653305531,-25.7312947512,0 27.2652983665,-25.7312317193,0 27.26527825,-25.7311914861,0 27.2652205825,-25.7310841978,0 27.2651347518,-25.7309232652,0 27.2647967935,-25.7303331792,0 27.2646787763,-25.7301306725,0 27.2644628584,-25.7297457755,0 27.2642952204,-25.7294520736,0 27.2641812265,-25.729252249,0 27.2639733553,-25.7288901508,0 27.2638660669,-25.7286997139,0 27.2637601197,-25.7285119593,0 27.2635388374,-25.7281297445,0 27.2634623945,-25.7279916108,0 27.2632679343,-25.7276375592,0 27.2630935907,-25.727327764,0 27.2629112005,-25.726980418,0 27.2628562152,-25.7268758118,0 27.2628065944,-25.7267832756,0 27.2627355158,-25.7266451418,0 27.2626322508,-25.7264466584,0 27.2625236213,-25.7262307405,0 27.2624069452,-25.7260014117,0 27.2622849047,-25.7257439196,0 27.2622473538,-25.7256634533,0 27.2621065378,-25.7253603637,0 27.2620368004,-25.7252021134,0 27.2620207071,-25.7251645625,0 27.2619965672,-25.7251122594,0 27.2619456053,-25.7250009477,0 27.2618329525,-25.7247541845,0 27.2617900372,-25.7246549428,0 27.2617793083,-25.7246562839,0 27.2617377341,-25.7246495783,0 27.261698842,-25.7246375084,0 27.2616639733,-25.7246187329,0 27.261634469,-25.7245932519,0 27.2616103292,-25.7245624065,0 27.2615942359,-25.7245288789,0 27.2615861893,-25.7244926691,0 27.2615861893,-25.7244564593,0 27.2615942359,-25.7244202495,0 27.2616103292,-25.7243867218,0 27.261634469,-25.7243572176,0 27.2616545856,-25.7243384421,0 27.2614641488,-25.7238851488,0 27.2613957524,-25.7237201929,0 27.261339426,-25.7235834002,0 27.2612509131,-25.7233446836,0 27.261236161,-25.7233084738,0 27.2609679401,-25.7226365805,0 27.2608485818,-25.7223629951,0 27.2607345879,-25.7220880687,0 27.2606742382,-25.7219338417,0 27.2606232762,-25.7218077779,0 27.2605803609,-25.7216978073,0 27.2604449093,-25.7213652134,0 27.2603872418,-25.7212217152,0 27.260145843,-25.720628947,0 27.2600989044,-25.7205162942,0 27.2598615289,-25.7199288905,0 27.2597180307,-25.7195734978,0 27.2595383227,-25.7191255689,0 27.2594793141,-25.7189793885,0 27.2593170404,-25.7185448706,0 27.2592781484,-25.7184389234,0 27.2590917349,-25.7179373503,0 27.2590555251,-25.7179319859,0 27.259016633,-25.7179185748,0 27.2589831054,-25.7178997993,0 27.2589536011,-25.7178743184,0 27.2589308023,-25.7178448141,0 27.2589147091,-25.7178112864,0 27.2589066625,-25.7177764177,0 27.2589066625,-25.7177402079,0 27.2589147091,-25.7177039981,0 27.2589308023,-25.7176704705,0 27.2589536011,-25.7176409662,0 27.2589763999,-25.7176221907,0 27.2589120269,-25.7174398005,0 27.2585861385,-25.7165050507,0 27.2585700452,-25.7164567709,0 27.2583246231,-25.7156896591,0 27.2582924366,-25.7155837119,0 27.2582736611,-25.7155273855,0 27.2581784427,-25.7151921093,0 27.2580362856,-25.7147106528,0 27.2580268979,-25.7146811485,0 27.2579813004,-25.7145242393,0 27.2578069568,-25.7139287889,0 27.2577425838,-25.7137128711,0 27.2576312721,-25.7133346796,0 27.2574944794,-25.7128545642,0 27.2572691739,-25.7121182978,0 27.2571592033,-25.7117468119,0 27.2570116818,-25.7112452388,0 27.2569620609,-25.7110789418,0 27.256885618,-25.7107906044,0 27.2567649186,-25.7103413343,0 27.2567300498,-25.7102112472,0 27.2565838695,-25.7095178962,0 27.2565288842,-25.7092805207,0 27.2563786805,-25.7086716592,0 27.2562995553,-25.7083551586,0 27.2562405467,-25.7081083953,0 27.256154716,-25.7077006996,0 27.2560313344,-25.7070609927,0 27.2560018301,-25.7069416344,0 27.2559884191,-25.7068692148,0 27.2558771074,-25.7063287497,0 27.255744338,-25.7056970894,0 27.2557108104,-25.7054878771,0 27.2555297613,-25.7046228647,0 27.2554801404,-25.7044136524,0 27.2554063797,-25.7040837407,0 27.2552213073,-25.7032737136,0 27.2551985085,-25.7031784952,0 27.2550885379,-25.7027332485,0 27.2550590336,-25.7026259601,0 27.2549946606,-25.702290684,0 27.2549343109,-25.7020761073,0 27.2548873723,-25.7018762827,0 27.254704982,-25.7010756433,0 27.2546473145,-25.7008261979,0 27.2546191514,-25.700712204,0 27.2544045746,-25.6997586787,0 27.2543482482,-25.6995145977,0 27.2542905807,-25.6992101669,0 27.2542530298,-25.6990197301,0 27.2540988028,-25.6983397901,0 27.2539325058,-25.6975324452,0 27.2538131475,-25.6969504058,0 27.2537004948,-25.696464926,0 27.2534564137,-25.6953531504,0 27.253331691,-25.6947174668,0 27.2532914579,-25.694450587,0 27.2532592714,-25.6942507625,0 27.2532552481,-25.6942158937,0 27.2531935573,-25.6937411427,0 27.253126502,-25.6931188703,0 27.2530943155,-25.6927058101,0 27.2530902922,-25.6926521659,0 27.2530581057,-25.6919293106,0 27.2530581057,-25.6910844147,0 27.2530835867,-25.6905131042,0 27.2531144321,-25.6900061667,0 27.2531318665,-25.6897741556,0 27.2531506419,-25.6895957887,0 27.2531989217,-25.6891344488,0 27.2529052198,-25.6891062856,0 27.2527523339,-25.6890700758,0 27.2526396811,-25.6890432537,0 27.2523245215,-25.6889399886,0 27.2522480786,-25.6888863444,0 27.2521796823,-25.6888380647,0 27.2521206737,-25.6887763739,0 27.2520710528,-25.6886892021,0 27.2520254552,-25.6886020303,0 27.2520026565,-25.6885483861,0 27.2518001497,-25.6872475147,0 27.2517907619,-25.687173754,0 27.251778692,-25.6870879233,0 27.251714319,-25.6864629686,0 27.2515641153,-25.685737431,0 27.2515051067,-25.6854383647,0 27.2514554858,-25.6851822138,0 27.2514340281,-25.6850494444,0 27.251354903,-25.6845492125,0 27.2513468564,-25.6844875216,0 27.2513079643,-25.6841750443,0 27.2512704134,-25.6839229167,0 27.2512328625,-25.6836359203,0 27.2511966527,-25.6833221018,0 27.2511778772,-25.6831759214,0 27.2511510551,-25.6830270588,0 27.2510960698,-25.6826461852,0 27.251085341,-25.6825777888,0 27.2510679066,-25.6824450195,0 27.2510531545,-25.6822948158,0 27.2510290146,-25.6822089851,0 27.2510102391,-25.6821405888,0 27.2509042919,-25.6818240881,0 27.2508318722,-25.6815987825,0 27.2507353127,-25.6813251972,0 27.250700444,-25.6812259555,0 27.2506870329,-25.6811870635,0 27.2506709397,-25.6811414659,0 27.2506655753,-25.6811186671,0 27.2506387532,-25.6810677052,0 27.2506025434,-25.6810234487,0 27.2505649924,-25.6809832156,0 27.250495255,-25.6809362769,0 27.250430882,-25.680898726,0 27.2502981126,-25.6808330119,0 27.2499078512,-25.6806895137,0 27.2491005063,-25.6804145873,0 27.248904705,-25.6803609431,0 27.2487464547,-25.6803193688,0 27.2487330437,-25.6803153455,0 27.2486619651,-25.6802938879,0 27.2484259307,-25.6802228093,0 27.2482314706,-25.680167824,0 27.2475931048,-25.6799907982,0 27.2468581796,-25.679782927,0 27.2466275096,-25.6797158718,0 27.2465524077,-25.6796944141,0 27.2463552654,-25.6796380877,0 27.246197015,-25.6795924902,0 27.2460454702,-25.6795616448,0 27.2458872199,-25.6795401871,0 27.2457785904,-25.6795348227,0 27.2456739843,-25.6795348227,0 27.2455412149,-25.6795468926,0 27.2454755008,-25.679564327,0 27.2453856468,-25.6795763969,0 27.2453065217,-25.6796018779,0 27.2452273965,-25.6796313822,0 27.2451509535,-25.679667592,0 27.2450651228,-25.6797118485,0 27.2450047731,-25.6797520816,0 27.2449457645,-25.6797923148,0 27.2448304296,-25.6798714399,0 27.2446547449,-25.6799948215,0 27.2444669902,-25.6801356375,0 27.2443717718,-25.6802080572,0 27.2440928221,-25.6804105639,0 27.2438420355,-25.6805956364,0 27.2437629104,-25.6806586683,0 27.2436958551,-25.6807163358,0 27.2435684502,-25.6808316708,0 27.2434557974,-25.6809443235,0 27.2433874011,-25.6810127199,0 27.2433109581,-25.6811065972,0 27.2431755066,-25.6812755764,0 27.2430615127,-25.6814177334,0 27.2429743409,-25.681527704,0 27.2426444292,-25.6819461286,0 27.2425827384,-25.6820252538,0 27.242436558,-25.682207644,0 27.2422689199,-25.6824208796,0 27.2422394156,-25.6824611127,0
            </coordinates>
        </LineString>
        </Placemark>
  </Folder>
        </Document>
    </kml>
    