<?xml version="1.0" encoding="UTF-8"?>
    <kml xmlns="http://www.opengis.net/kml/2.2">
    <Document>
        <name>Colored Path</name>
        <Folder>
            <name>Day 1</name>
            <open>1</open>
            <Style id="blackLine">
            <LineStyle>
                <color>ff000000</color>
                <width>4</width>
            </LineStyle>
            </Style>
            <Style id="redLine">
            <LineStyle>
                <color>ff0000ff</color>
                <width>4</width>
            </LineStyle>
            </Style>
        <Placemark>
        <name>Segment 1 (True)</name>
        <styleUrl>#blackLine</styleUrl>
        <LineString>
            <tessellate>1</tessellate>
            <coordinates>
            27.2422407568,-25.6824597716,0 27.2422689199,-25.6824208796,0 27.242436558,-25.682207644,0 27.2425827384,-25.6820252538,0 27.2426444292,-25.6819461286,0 27.2429743409,-25.681527704,0 27.2430615127,-25.6814177334,0 27.2431755066,-25.6812755764,0 27.2433109581,-25.6811065972,0 27.2433874011,-25.6810127199,0 27.2434557974,-25.6809443235,0 27.2435684502,-25.6808316708,0 27.2436958551,-25.6807163358,0 27.2437629104,-25.6806586683,0 27.2438420355,-25.6805956364,0 27.2440928221,-25.6804105639,0 27.2443717718,-25.6802080572,0 27.2444669902,-25.6801356375,0 27.2446547449,-25.6799948215,0 27.2448304296,-25.6798714399,0 27.2449457645,-25.6797923148,0 27.2450047731,-25.6797520816,0 27.2450651228,-25.6797118485,0 27.2451509535,-25.679667592,0 27.2452273965,-25.6796313822,0 27.2453065217,-25.6796018779,0 27.2453856468,-25.6795763969,0 27.2454755008,-25.679564327,0 27.2455412149,-25.6795468926,0 27.2456739843,-25.6795348227,0 27.2457785904,-25.6795348227,0 27.2458872199,-25.6795401871,0 27.2460454702,-25.6795616448,0 27.246197015,-25.6795924902,0 27.2463552654,-25.6796380877,0 27.2465524077,-25.6796944141,0 27.2466275096,-25.6797158718,0 27.2468581796,-25.679782927,0 27.2475931048,-25.6799907982,0 27.2482314706,-25.680167824,0 27.2484259307,-25.6802228093,0 27.2486619651,-25.6802938879,0 27.2487330437,-25.6803153455,0 27.2487464547,-25.6803193688,0 27.248904705,-25.6803609431,0 27.2491005063,-25.6804145873,0 27.2497536242,-25.6805835664,0 27.2500795126,-25.6806720793,0 27.2502323985,-25.6807096303,0 27.2503061593,-25.6807257235,0 27.2503356636,-25.680732429,0 27.2504295409,-25.6807565689,0 27.2505167127,-25.6808021665,0 27.2505475581,-25.6808209419,0 27.2505918145,-25.6808531284,0 27.2506575286,-25.6809255481,0 27.2506830096,-25.6809523702,0 27.2507098317,-25.6809845567,0 27.2507379949,-25.6810462475,0 27.2508090734,-25.6811910868,0 27.2508533299,-25.681322515,0 27.2508788109,-25.681398958,0 27.2509083152,-25.6814968586,0 27.250944525,-25.6816269457,0 27.2509606183,-25.6817221642,0 27.2509793937,-25.6818267703,0 27.2510102391,-25.6821405888,0 27.2510290146,-25.6822089851,0 27.2510531545,-25.6822948158,0 27.2510679066,-25.6824450195,0 27.251085341,-25.6825777888,0 27.2510960698,-25.6826461852,0 27.2511510551,-25.6830270588,0 27.2511778772,-25.6831759214,0 27.2511966527,-25.6833221018,0 27.2512328625,-25.6836359203,0 27.2512704134,-25.6839229167,0 27.2513079643,-25.6841750443,0 27.2513468564,-25.6844875216,0 27.251354903,-25.6845492125,0 27.2514340281,-25.6850494444,0 27.2514554858,-25.6851822138,0 27.2515051067,-25.6854383647,0 27.2515641153,-25.685737431,0 27.251714319,-25.6864629686,0 27.251778692,-25.6870879233,0 27.2517907619,-25.687173754,0 27.2518001497,-25.6872475147,0 27.2518189251,-25.6874594092,0 27.2518377006,-25.6876015663,0 27.2518645227,-25.6878148019,0 27.2518993914,-25.6880642474,0 27.2519691288,-25.6881447136,0 27.2520576417,-25.6883686781,0 27.2521327436,-25.6885510683,0 27.252214551,-25.6886985898,0 27.252266854,-25.6887669861,0 27.2523137927,-25.6888099015,0 27.2523647547,-25.6888394058,0 27.2524693608,-25.6888782978,0 27.2526195645,-25.6889171898,0 27.2526758909,-25.6889359653,0 27.2528140247,-25.6889641285,0 27.2530031204,-25.6889909506,0 27.2530701756,-25.6890030205,0 27.2531372309,-25.6890137494,0 27.2532123327,-25.6890204549,0 27.2533611953,-25.689035207,0 27.2534631193,-25.6890445948,0 27.253447026,-25.6891599298,0 27.2534202039,-25.6893409789,0 27.2533974051,-25.6895314157,0 27.2533290088,-25.6901094317,0 27.2533088923,-25.6907370687,0 27.253279388,-25.6918314099,0 27.2533424199,-25.69294855,0 27.2534430027,-25.6940066814,0 27.253472507,-25.6941622496,0 27.253523469,-25.6944277883,0 27.2536642849,-25.6951721013,0 27.2539231181,-25.6963925064,0 27.254267782,-25.6979253888,0 27.2545561194,-25.6991900504,0 27.2546298802,-25.6995655596,0 27.2548779845,-25.7008449733,0 27.2548994422,-25.7009589672,0 27.2549986839,-25.7014659047,0 27.2551649809,-25.702110976,0 27.2553004324,-25.7025803626,0 27.2557523847,-25.702521354,0 27.2560997307,-25.7024663687,0 27.2562995553,-25.7023832202,0 27.2563746572,-25.7022893429,0 27.2564336658,-25.7022169232,0 27.2564671934,-25.7020170987,0 27.2563706338,-25.7018065453,0 27.2559039295,-25.7014645636,0 27.2556531429,-25.7013425231,0 27.2549651563,-25.7009924948,0 27.2548994422,-25.7009589672,0 27.2546473145,-25.7008261979,0 27.2521287203,-25.6994462013,0 27.2516512871,-25.6991954148,0 27.2505193949,-25.6986053288,0 27.24993065,-25.6983035803,0 27.2491541505,-25.6979119778,0 27.2487799823,-25.6977148354,0 27.2484259307,-25.6975311041,0 27.2478304803,-25.6972213089,0 27.2476360202,-25.6971207261,0 27.2467669845,-25.6966593862,0 27.2459569573,-25.696234256,0 27.2452408075,-25.695861429,0 27.2448974848,-25.6956897676,0 27.2444844246,-25.6954818964,0 27.2438004613,-25.6951613724,0 27.2431594133,-25.6948690116,0 27.2427678108,-25.6946839392,0 27.2419551015,-25.6943164766,0 27.2403484583,-25.6936579943,0 27.2398388386,-25.6934554875,0 27.2383528948,-25.6928949058,0 27.236046195,-25.6921237707,0 27.2350296378,-25.6918166578,0 27.2342987359,-25.6916195154,0 27.2340278327,-25.6915457547,0 27.2319357097,-25.6910213828,0 27.2316996753,-25.6909677386,0 27.2312758863,-25.6908684969,0 27.2305288911,-25.6907102466,0 27.2287251055,-25.690356195,0 27.2279472649,-25.6902126968,0 27.2269427776,-25.6900638342,0 27.2262467444,-25.6899686158,0 27.2261783481,-25.6899578869,0 27.22601071,-25.6899659336,0 27.2259114683,-25.6899538636,0 27.2234934568,-25.6896547973,0 27.2179761529,-25.6889842451,0 27.2163560987,-25.6887857616,0 27.214230448,-25.6885068119,0 27.2136028111,-25.6884156168,0 27.2127364576,-25.6882841885,0 27.2122268379,-25.6882023811,0 27.211921066,-25.6881460547,0 27.2115549445,-25.6880816817,0 27.2102245688,-25.6877960265,0 27.209969759,-25.6877356768,0 27.209123522,-25.6875251234,0 27.2080586851,-25.6872421503,0 27.2079285979,-25.6872072816,0 27.2071534395,-25.6869725883,0 27.206453383,-25.6867566705,0 27.2059316933,-25.6865783036,0 27.2050841153,-25.6862765551,0 27.204310298,-25.6859841943,0 27.203823477,-25.6857843697,0 27.2032696009,-25.6855590641,0 27.2025306523,-25.6852452457,0 27.2011050582,-25.6845773757,0 27.2007630765,-25.684415102,0 27.200525701,-25.6843064725,0 27.1999463439,-25.6840033829,0 27.1989056468,-25.6834468246,0 27.1985113621,-25.6832094491,0 27.1974787116,-25.6825885177,0 27.1968792379,-25.682207644,0 27.1961912513,-25.6817449629,0 27.1961268783,-25.6817033887,0 27.1960423887,-25.6816457212,0 27.1958304942,-25.6814981997,0 27.1956279874,-25.6813533604,0 27.1948756278,-25.6808102131,0 27.1945255995,-25.6805446744,0 27.1940723062,-25.6801906228,0 27.1938818693,-25.6800484657,0 27.1937423944,-25.6799331307,0 27.1934339404,-25.6796823442,0 27.1932193637,-25.679499954,0 27.1930222213,-25.6793376803,0 27.1927405894,-25.6790962815,0 27.1925032139,-25.6789004803,0 27.1921639144,-25.6785517931,0 27.1917763352,-25.6781923771,0 27.1913176775,-25.6777578592,0 27.1911755204,-25.6776291132,0 27.1910199523,-25.6774641573,0 27.1904017031,-25.6768499315,0 27.1900422871,-25.6764918566,0 27.1898142993,-25.6762517989,0 27.1893677115,-25.6757676601,0 27.1888191998,-25.6751440465,0 27.1887132525,-25.6750206649,0 27.1858741343,-25.6714881957,0 27.1850091219,-25.6704005599,0 27.1817314625,-25.6662793458,0 27.1789084375,-25.6627307832,0 27.1779951453,-25.6615921855,0 27.1756146848,-25.6585881114,0 27.1746075153,-25.6572832167,0 27.17433393,-25.6569492817,0 27.1717067063,-25.653616637,0 27.1700718999,-25.6515660882,0 27.1690499783,-25.6502571702,0 27.1676847339,-25.6485834718,0 27.1668371558,-25.6475347281,0 27.1650883555,-25.6453366578,0 27.1647946537,-25.6449718773,0 27.1639001369,-25.6439767778,0 27.1632698178,-25.6433182955,0 27.1630847454,-25.6431157887,0 27.1619676054,-25.6420750916,0 27.1611817181,-25.641412586,0 27.1607472003,-25.6410692632,0 27.1601490676,-25.6406079233,0 27.1599961817,-25.6405033171,0 27.159178108,-25.6399306655,0 27.1587784588,-25.6396557391,0 27.158279568,-25.6393432617,0 27.1574024856,-25.6388215721,0 27.1571597457,-25.6386700273,0 27.1568123996,-25.6384460628,0 27.1564865112,-25.6382408738,0 27.1558079123,-25.6378211081,0 27.1548597515,-25.6372457743,0 27.154417187,-25.6369775534,0 27.1530693769,-25.6361420453,0 27.151734978,-25.6353159249,0 27.1514466405,-25.6351402402,0 27.1503415704,-25.6344817579,0 27.1498480439,-25.6341893971,0 27.1495074034,-25.6339882314,0 27.1490165591,-25.6336958706,0 27.1488368511,-25.6336060166,0 27.1486732364,-25.6335362792,0 27.1481314301,-25.6333498657,0 27.1476861835,-25.6332170963,0 27.1473012865,-25.6331191957,0 27.1470491588,-25.6330709159,0 27.1467997134,-25.633045435,0 27.1466012299,-25.6330253184,0 27.1463008225,-25.6330065429,0 27.1459574997,-25.633019954,0 27.1455927193,-25.6330400705,0 27.1452976763,-25.6330789626,0 27.1450053155,-25.6331299245,0 27.1445345879,-25.6332533062,0 27.1444179118,-25.6332305074,0 27.1441335976,-25.6333257258,0 27.1439941227,-25.6333807111,0 27.1438492835,-25.6334410608,0 27.143701762,-25.6335121393,0 27.1435166895,-25.6335966289,0 27.1429212391,-25.6338594854,0 27.1425819397,-25.6339707971,0 27.1423257887,-25.6340539455,0 27.1419811249,-25.6341478229,0 27.1415492892,-25.6342349946,0 27.1411147714,-25.6342966855,0 27.1407875419,-25.6343141198,0 27.1405917406,-25.6343275309,0 27.140224278,-25.634354353,0 27.1392801404,-25.6344482303,0 27.1383118629,-25.6345541775,0 27.1378518641,-25.6346105039,0 27.1375662088,-25.634637326,0 27.1370632946,-25.6346869469,0 27.1363216639,-25.6348130107,0 27.1352541447,-25.6349390745,0 27.1351844072,-25.634996742,0 27.1336555481,-25.63518852,0 27.1331244707,-25.6352756917,0 27.1327784657,-25.6353279948,0 27.13237077,-25.6353990734,0 27.1319282055,-25.6354781985,0 27.1315875649,-25.6355586648,0 27.1312764287,-25.6356458366,0 27.1311610937,-25.6356351078,0 27.130946517,-25.6356941164,0 27.1304422617,-25.6358925998,0 27.1301458776,-25.6360428035,0 27.1300064027,-25.636112541,0 27.129830718,-25.6362278759,0 27.1294283867,-25.6364652514,0 27.1292513609,-25.6365886331,0 27.1284762025,-25.6370580196,0 27.1284279227,-25.637139827,0 27.1277882159,-25.6375180185,0 27.1273496747,-25.6377781928,0 27.1271270514,-25.6378935277,0 27.1270251274,-25.6378935277,0 27.1267676353,-25.6379981339,0 27.1264725924,-25.6381094456,0 27.1261104941,-25.6382247806,0 27.1257805824,-25.6383119524,0 27.1256008744,-25.638358891,0 27.1252682805,-25.638423264,0 27.1250429749,-25.6384594738,0 27.1246647835,-25.6385158002,0 27.1244341135,-25.6385372579,0 27.124145776,-25.6385654211,0 27.1240344644,-25.6385707855,0 27.1239580214,-25.6385761499,0 27.1237635612,-25.6385734677,0 27.1235878766,-25.6385721266,0 27.1234966815,-25.63856408,0 27.123093009,-25.6385439634,0 27.1224117279,-25.6385104358,0 27.1210330725,-25.6384192407,0 27.1189583838,-25.6382878125,0 27.1180383861,-25.6382328272,0 27.1179807186,-25.6382288039,0 27.1173584461,-25.6381872296,0 27.1167616546,-25.6381483376,0 27.1155680716,-25.638075918,0 27.1153695881,-25.638063848,0 27.1145783365,-25.6380316615,0 27.1135403216,-25.6380262971,0 27.1105241776,-25.6380155683,0 27.1054454148,-25.6380423903,0 27.1036081016,-25.6380330026,0 27.0985856652,-25.6380048394,0 27.0982812345,-25.6380048394,0 27.0962508023,-25.6379981339,0 27.0946414769,-25.6379941106,0 27.0915408432,-25.6379847229,0 27.087353915,-25.6379954517,0 27.0826976001,-25.6379686296,0 27.0806095004,-25.6379659474,0 27.0783886313,-25.6379632652,0 27.0732159913,-25.6379579008,0 27.0719996095,-25.6379525363,0 27.0689660311,-25.6379364431,0 27.0627178252,-25.6379324198,0 27.0559103787,-25.6379055977,0 27.0475378633,-25.6379082799,0 27.0442776382,-25.6379015744,0 27.0414505899,-25.6378948689,0 27.0403388143,-25.6378948689,0 27.0378658175,-25.6378948689,0 27.0368734002,-25.6378519535,0 27.0365260541,-25.6378103793,0 27.0362310112,-25.637768805,0 27.0349180698,-25.6374885142,0 27.0316900313,-25.6367616355,0 27.0310154557,-25.6366342306,0 27.030466944,-25.6365711987,0 27.0299291611,-25.6365604699,0 27.0294436812,-25.6365604699,0 27.0282943547,-25.6366972625,0 27.0262022316,-25.6370432675,0 27.0261459053,-25.6370526552,0 27.0257583261,-25.637114346,0 27.0252808928,-25.637178719,0 27.0247350633,-25.6372511387,0 27.0240283012,-25.6373141706,0 27.0235857368,-25.6373141706,0 27.0233215392,-25.6373141706,0 27.0230479538,-25.6372833252,0 27.0227743685,-25.637229681,0 27.0220568776,-25.6370727718,0 27.0216344297,-25.6369735301,0 27.0188905299,-25.636331141,0 27.0119275153,-25.634650737,0 27.0085425675,-25.6338460743,0 27.0070753992,-25.6334987283,0 27.0046842098,-25.6329301,0 26.9997408986,-25.6317485869,0 26.9981691241,-25.6313878298,0 26.9978445768,-25.6313100457,0 26.9964136183,-25.6309680641,0 26.9954171777,-25.6307534873,0 26.9946165383,-25.6306086481,0 26.9944998622,-25.6305871904,0 26.9940291345,-25.6305187941,0 26.9929146767,-25.6303578615,0 26.9906911254,-25.6300668418,0 26.9900071621,-25.6299769878,0 26.9891180098,-25.6298549473,0 26.9880960882,-25.6297154725,0 26.9871237874,-25.6296403706,0 26.9864009321,-25.6296014786,0 26.9847138226,-25.6295934319,0 26.9843611121,-25.6295920908,0 26.9829167426,-25.6295920908,0 26.9823172688,-25.6295974553,0 26.9818586111,-25.6296363473,0 26.9813221693,-25.6297329068,0 26.9793587923,-25.6301218271,0 26.9782188535,-25.6303484738,0 26.9779627025,-25.6304048002,0 26.9778594375,-25.6304289401,0 26.9771070778,-25.6306140125,0 26.9760328531,-25.6308366358,0 26.9756425917,-25.6309238076,0 26.9752027094,-25.630992204,0 26.9748808444,-25.6310217083,0 26.9744423032,-25.6310606003,0 26.9740225375,-25.6310606003,0 26.9729751348,-25.6309841573,0 26.9719679654,-25.6309090555,0 26.9709044695,-25.6308406591,0 26.9706054032,-25.6308299303,0 26.9704471529,-25.6308379769,0 26.9698946178,-25.6308661401,0 26.9691435993,-25.6309023499,0 26.9690577686,-25.6309533119,0 26.9681659341,-25.631019026,0 26.9674417377,-25.6310740113,0 26.9670474529,-25.6310927868,0 26.966625005,-25.6311196089,0 26.9663192332,-25.6311236322,0 26.9659034908,-25.6311115623,0 26.9654636085,-25.631069988,0 26.9649513066,-25.6310096383,0 26.9648440182,-25.6309318542,0 26.9645757973,-25.6308621168,0 26.9641949236,-25.6307628751,0 26.9638435543,-25.6306555867,0 26.962069273,-25.629966259,0 26.9618707895,-25.6298857927,0 26.9603446126,-25.6292594969,0 26.957449168,-25.6280484796,0 26.9574089348,-25.6280310452,0 26.9542251527,-25.6267127395,0 26.9540467858,-25.6266389787,0 26.9530557096,-25.6262353063,0 26.9506658614,-25.6252683699,0 26.9500221312,-25.625064522,0 26.9494602084,-25.624922365,0 26.9488070905,-25.6248056889,0 26.9482599199,-25.6247574091,0 26.9477140903,-25.6247466803,0 26.9470797479,-25.6247466803,0 26.9464454055,-25.6247761846,0 26.9459760189,-25.6248244643,0 26.9454489648,-25.624922365,0 26.9448441267,-25.6250792742,0 26.9439657032,-25.6253327429,0 26.9418829679,-25.6259912252,0 26.9378623366,-25.627182126,0 26.9359338284,-25.627758801,0 26.931231916,-25.6291656196,0 26.9293195009,-25.6297436357,0 26.929268539,-25.6298187375,0 26.9268009067,-25.6305657327,0 26.9257937372,-25.6308634579,0 26.9253578782,-25.6309935451,0 26.9252559543,-25.6309814751,0 26.9212299585,-25.6322059035,0 26.9168257713,-25.6335644424,0 26.9140858948,-25.6345058978,0 26.9124229252,-25.6350624561,0 26.9123142958,-25.6350919604,0 26.9122579694,-25.6351067126,0 26.9115579128,-25.6352958083,0 26.9103334844,-25.6356230378,0 26.9073361158,-25.6363660097,0 26.9069860876,-25.6364518404,0 26.9056905806,-25.6367790699,0 26.9041804969,-25.6371599436,0 26.901653856,-25.6377647817,0 26.900960505,-25.6379015744,0 26.9004039466,-25.637999475,0 26.9000633061,-25.6380276382,0 26.8997307122,-25.638038367,0 26.8993699551,-25.638038367,0 26.8989300728,-25.6380276382,0 26.8983064592,-25.6380088627,0 26.8966260552,-25.6379042566,0 26.8960185349,-25.6378667057,0 26.8933832645,-25.6377017498,0 26.8912401795,-25.6375528872,0 26.8899138272,-25.6374616921,0 26.88549757,-25.6371639669,0 26.882891804,-25.6369949877,0 26.880697757,-25.6368528306,0 26.877079457,-25.6366181374,0 26.8769305944,-25.6366087496,0 26.8762667477,-25.6365792453,0 26.8756136298,-25.6365792453,0 26.8753373623,-25.636587292,0 26.8749980628,-25.6365980208,0 26.8743932247,-25.6366664171,0 26.8738956749,-25.6367737055,0 26.8729045987,-25.6370526552,0 26.8707387149,-25.6376668811,0 26.8683475256,-25.6383307278,0 26.8656881154,-25.6390669942,0 26.8647815287,-25.6392922997,0 26.8642732501,-25.6393888593,0 26.8637274206,-25.6394572556,0 26.8626438081,-25.6395846605,0 26.8566329777,-25.6403262913,0 26.8495479226,-25.6411845982,0 26.8426828086,-25.6420093775,0 26.8411646783,-25.6421971321,0 26.8372030556,-25.6426879764,0 26.8339924514,-25.6431077421,0 26.8335552514,-25.6431466341,0 26.8333487213,-25.6431654096,0 26.8328028917,-25.6431855261,0 26.8322463334,-25.6432056427,0 26.8292020261,-25.6432794034,0 26.8289794028,-25.6432847679,0 26.8284644186,-25.6432981789,0 26.8220874667,-25.6433813274,0 26.8196681142,-25.6434202194,0 26.8190136552,-25.6434389949,0 26.818331033,-25.6435073912,0 26.818215698,-25.6435234845,0 26.8173064291,-25.6436441839,0 26.8143680692,-25.6441712379,0 26.8113639951,-25.6447117031,0 26.8099035323,-25.6449571252,0 26.8094167113,-25.6449960172,0 26.808937937,-25.6449960172,0 26.8084993958,-25.6449960172,0 26.8081480265,-25.6449665129,0 26.8077966571,-25.6449182332,0 26.8069812655,-25.6447573006,0 26.8021412194,-25.6437514722,0 26.7993503809,-25.6431761384,0 26.7988434434,-25.6430876255,0 26.7983740568,-25.6430393457,0 26.7977893353,-25.6430098414,0 26.7962497473,-25.6431037188,0 26.7948174477,-25.6434832513,0 26.7933140695,-25.6440585852,0 26.7930807173,-25.6441484392,0 26.790369004,-25.6452722847,0 26.7890547216,-25.6457711756,0 26.7880502343,-25.6461279094,0 26.7874762416,-25.6462875009,0 26.7870055139,-25.6464135647,0 26.7865656316,-25.6465061009,0 26.7860667408,-25.6465932727,0 26.7853626609,-25.6466938555,0 26.7831887305,-25.6468681991,0 26.7817738652,-25.6470170617,0 26.7809678614,-25.6471082568,0 26.7801605165,-25.6472678483,0 26.7793612182,-25.6474529207,0 26.7782199383,-25.6477949023,0 26.7761479318,-25.6485633552,0 26.7744326591,-25.6492258608,0 26.773827821,-25.6494270265,0 26.7723177373,-25.6497851014,0 26.765806675,-25.6512656808,0 26.7639130354,-25.6516760588,0 26.763522774,-25.6517337263,0 26.7631325126,-25.6517632306,0 26.7627033591,-25.6517726183,0 26.7617860436,-25.6517538428,0 26.760301441,-25.6517189741,0 26.759878993,-25.6517095864,0 26.7585808039,-25.6516505778,0 26.7580832541,-25.651602298,0 26.7573308945,-25.6514453888,0 26.7557698488,-25.651114136,0 26.7551261187,-25.6509760022,0 26.7546969652,-25.650908947,0 26.7542973161,-25.6508593261,0 26.7522762716,-25.6507815421,0 26.7498528957,-25.6507480145,0 26.7497563362,-25.6507466733,0 26.74740538,-25.6508016586,0 26.7461326718,-25.6508298218,0 26.7446762323,-25.6508848071,0 26.7429247499,-25.6509666145,0 26.7400936782,-25.6511047482,0 26.7393708229,-25.6511047482,0 26.7382389307,-25.6510926783,0 26.7375643551,-25.6510792673,0 26.7373417318,-25.6510765851,0 26.735740453,-25.6510430574,0 26.735201329,-25.6510363519,0 26.7344275117,-25.6510148942,0 26.7335343361,-25.6509894133,0 26.733173579,-25.6509786844,0 26.7322643101,-25.6509585679,0 26.7313939333,-25.6509357691,0 26.7307569087,-25.6509290636,0 26.7298570275,-25.6508955359,0 26.7285172641,-25.650857985,0 26.7271707952,-25.6508271396,0 26.7264398932,-25.650807023,0 26.7250813544,-25.6507641077,0 26.7246763408,-25.6507520378,0 26.7225815356,-25.6506983936,0 26.7216320336,-25.6506729126,0 26.7206463218,-25.6506474316,0 26.7198832333,-25.6506299973,0 26.7196471989,-25.6506206095,0 26.7192904651,-25.6506112218,0 26.7184066772,-25.6505911052,0 26.7178863287,-25.6505763531,0 26.7176221311,-25.6505723298,0 26.7167879641,-25.6505481899,0 26.7163051665,-25.6505334377,0 26.7156265676,-25.6505133212,0 26.7150740325,-25.650498569,0 26.714219749,-25.6504797935,0 26.7133453488,-25.650459677,0 26.7128156126,-25.6504422426,0 26.7118312418,-25.6504221261,0 26.7110131681,-25.6504020095,0 26.7108468711,-25.6503979862,0 26.7096211016,-25.650369823,0 26.709562093,-25.6503966451,0 26.7082665861,-25.6503537297,0 26.7081002891,-25.6503497064,0 26.7076282203,-25.6503389776,0 26.7065526545,-25.6503309309,0 26.7063434422,-25.6503295898,0 26.7062777281,-25.6503081322,0 26.7059451342,-25.65030545,0 26.704608053,-25.6503027678,0 26.7036813498,-25.6503161788,0 26.7034989595,-25.650318861,0 26.7020532489,-25.6503416598,0 26.7010742426,-25.6503550708,0 26.7005619407,-25.6503564119,0 26.6969852149,-25.6503671408,0 26.6956025362,-25.6503966451,0 26.6952525079,-25.6503939629,0 26.6939797997,-25.6503872573,0 26.6927620769,-25.6503939629,0 26.6920875013,-25.6503979862,0 26.6920003295,-25.6503993273,0 26.6916556656,-25.6504006684,0 26.6905479133,-25.6504167616,0 26.6904392838,-25.6504181027,0 26.6900651157,-25.6504221261,0 26.6899967194,-25.6504502892,0 26.689940393,-25.6504864991,0 26.6898961365,-25.6505294144,0 26.6898572445,-25.6506098807,0 26.689838469,-25.6506863236,0 26.689825058,-25.6507775187,0 26.6898331046,-25.650832504,0 26.6898947954,-25.6512482464,0 26.6899001598,-25.6513300538,0 26.6898961365,-25.6514628232,0 26.6897633672,-25.6522648036,0 26.6896855831,-25.6527395546,0 26.6895340383,-25.6536541879,0 26.6895192862,-25.6537681818,0 26.6894562542,-25.6542281806,0 26.68941468,-25.6545419991,0 26.689363718,-25.6549590826,0 26.6893623769,-25.6549738348,0 26.6893489659,-25.6551924348,0 26.6893462837,-25.6552433968,0 26.6893556714,-25.6555826962,0 26.689375788,-25.6557959318,0 26.6894026101,-25.6560882926,0 26.6894428432,-25.6563927233,0 26.6894575953,-25.6565093994,0 26.6895447671,-25.6571745872,0 26.6895514727,-25.6572309136,0 26.6896493733,-25.658107996,0 26.6896641254,-25.6586712599,0 26.68964535,-25.6589341164,0 26.6895970702,-25.6592063606,0 26.6895340383,-25.6594504416,0 26.689453572,-25.6596891582,0 26.6893006861,-25.6600043178,0 26.6891089082,-25.6602953374,0 26.6889466345,-25.6605058908,0 26.6889090836,-25.6605541706,0 26.6889466345,-25.6605058908,0
            </coordinates>
        </LineString>
        </Placemark>
  </Folder>
        </Document>
    </kml>
    