<?xml version="1.0" encoding="UTF-8"?>
    <kml xmlns="http://www.opengis.net/kml/2.2">
    <Document>
        <name>Colored Path</name>
        <Folder>
            <name>Day 3</name>
            <open>1</open>
            <Style id="blackLine">
            <LineStyle>
                <color>ff000000</color>
                <width>4</width>
            </LineStyle>
            </Style>
            <Style id="redLine">
            <LineStyle>
                <color>ff0000ff</color>
                <width>4</width>
            </LineStyle>
            </Style>
        <Placemark>
        <name>Segment 1 (True)</name>
        <styleUrl>#blackLine</styleUrl>
        <LineString>
            <tessellate>1</tessellate>
            <coordinates>
            24.6671712399,-26.9857920706,0 24.6644407511,-26.9865913689,0 24.6634523571,-26.9868716598,0 24.6599775553,-26.9878573716,0 24.6564745903,-26.9888752699,0 24.6529367566,-26.9898945093,0 24.649681896,-26.9908319414,0 24.6467649937,-26.9916848838,0 24.6441954374,-26.9924131036,0 24.6414408088,-26.9932164252,0 24.6383495629,-26.9941069186,0 24.6353723109,-26.9949585199,0 24.6346829832,-26.9951570034,0 24.6323776245,-26.995819509,0 24.6293976903,-26.9966858625,0 24.6259430051,-26.9976742566,0 24.6229241788,-26.9985486567,0 24.6207904816,-26.9991762936,0 24.6179661155,-26.9999983907,0 24.6160912514,-27.0005013049,0 24.6146723628,-27.0009814203,0 24.6109186113,-27.0022474229,0 24.6039395034,-27.0045648515,0 24.598737359,-27.0063324273,0 24.5961101353,-27.0072028041,0 24.59379673,-27.0079672337,0 24.5911225677,-27.0088630915,0 24.5880380273,-27.0098984241,0 24.5854389668,-27.0107768476,0 24.5831228793,-27.0115654171,0 24.5810307562,-27.012257427,0 24.5767995715,-27.0136682689,0 24.5735514164,-27.0147250593,0 24.5716953278,-27.0153741539,0 24.5678074658,-27.0166710019,0 24.564486891,-27.0177707076,0 24.562240541,-27.0185311139,0 24.5589146018,-27.0196160674,0 24.5556584001,-27.020701021,0 24.5535193384,-27.021433264,0 24.5508210361,-27.0223250985,0 24.5495818555,-27.0227502286,0 24.5463551581,-27.0238137245,0 24.5439197123,-27.0246210694,0 24.5419563353,-27.0252782106,0 24.5407882333,-27.0256738365,0 24.5377680659,-27.026681006,0 24.53512609,-27.0275661349,0 24.5321421325,-27.0285518467,0 24.529568553,-27.0294114947,0 24.5264263451,-27.030454874,0 24.5229810476,-27.0315867662,0 24.5224539936,-27.0317624509,0 24.520855397,-27.0322975516,0 24.5195679367,-27.0327293873,0 24.5185768604,-27.0330566168,0 24.5148016512,-27.0343025029,0 24.5135879517,-27.0347034931,0 24.5091113448,-27.0361880958,0 24.5065310597,-27.0370772481,0 24.5036034286,-27.0380549133,0 24.5022556186,-27.0385015011,0 24.5007281005,-27.0390111208,0 24.4996216893,-27.0393410325,0 24.4992689788,-27.0394617319,0 24.4987942278,-27.0396226645,0 24.4968549907,-27.0402824879,0 24.4962273538,-27.0404957235,0 24.4931052625,-27.0415310562,0 24.4913671911,-27.0421104133,0 24.4905464351,-27.042401433,0 24.4884435833,-27.0430786908,0 24.4866022468,-27.0437063277,0 24.4843277335,-27.044468075,0 24.4828270376,-27.0449642837,0 24.4810943305,-27.0455262065,0 24.4803245366,-27.0457984507,0 24.4787058234,-27.046431452,0 24.4766364992,-27.0473273098,0 24.4747549295,-27.0481440425,0 24.4736887515,-27.0486013591,0 24.4717414677,-27.0494435728,0 24.4705586135,-27.0499625802,0 24.4692872465,-27.0505191386,0 24.4675813615,-27.0512419939,0 24.4664293528,-27.0517449081,0 24.4649407268,-27.052385956,0 24.4631490111,-27.0531597733,0 24.4606263936,-27.0542447269,0 24.4586442411,-27.0551043749,0 24.4573567808,-27.0556595922,0 24.4556227326,-27.0564052463,0 24.4540965557,-27.0570529997,0 24.4524778426,-27.0577718318,0 24.4515404105,-27.0581634343,0 24.4512198865,-27.0582975447,0 24.4506284595,-27.0585630834,0 24.4501778483,-27.0587655902,0 24.4489145279,-27.0592980087,0 24.4478040934,-27.0597808063,0 24.446477741,-27.0603561401,0 24.4453458488,-27.0608335733,0 24.4440355897,-27.061406225,0 24.442807138,-27.0619386435,0 24.4415585697,-27.0624737442,0 24.4395710528,-27.0633374155,0 24.4385544956,-27.06376791,0 24.436725229,-27.0645537972,0 24.4352969527,-27.0651639998,0 24.4349133968,-27.0653195679,0 24.4348154962,-27.0653598011,0 24.4327367842,-27.066282481,0 24.431309849,-27.0668940246,0 24.4295409322,-27.0676544309,0 24.4281032681,-27.0682767034,0 24.4271551073,-27.0686803758,0 24.4252225757,-27.0695212483,0 24.4234643877,-27.0702789724,0 24.4217075408,-27.0710380375,0 24.4199681282,-27.0717769861,0 24.4185948372,-27.0723737776,0 24.4173100591,-27.0729209483,0 24.4164289534,-27.0732964575,0 24.4144776464,-27.0741426945,0 24.412496835,-27.0749956369,0 24.410457015,-27.0758713782,0 24.4083192945,-27.0767994225,0 24.4061158597,-27.0777529478,0 24.4034457207,-27.0789036155,0 24.4019530714,-27.0795446634,0 24.400177449,-27.0803023875,0 24.3988028169,-27.0809018612,0 24.3974335492,-27.0814932883,0 24.3957692385,-27.0822121203,0 24.3948170543,-27.0826278627,0 24.3929287791,-27.0834378898,0 24.3916091323,-27.0840065181,0 24.3902170658,-27.0846167207,0 24.3891146779,-27.0850740373,0 24.3870265782,-27.0859739184,0 24.3849827349,-27.0868590474,0 24.3828356266,-27.087791115,0 24.3814824522,-27.0883798599,0 24.3795982003,-27.0891804993,0 24.3776388466,-27.0900133252,0 24.3759892881,-27.0907348394,0 24.3747702241,-27.0912578702,0 24.3738086522,-27.0916722715,0 24.3726029992,-27.0921832323,0 24.3705376983,-27.0930750668,0 24.3703700602,-27.0931474864,0 24.3685461581,-27.0939427614,0 24.3668805063,-27.0946535468,0 24.3659055233,-27.0950827003,0 24.3639394641,-27.0959195495,0 24.362373054,-27.0965954661,0 24.3604619801,-27.0974189043,0 24.3589116633,-27.0980921388,0 24.3580815196,-27.0984528959,0 24.35643062,-27.0991623402,0 24.3550264835,-27.0997698605,0 24.3533983827,-27.1004752815,0 24.3516562879,-27.101212889,0 24.3499182165,-27.1019679308,0 24.3483746052,-27.1026290953,0 24.3469463289,-27.1032433212,0 24.3454375863,-27.1039004624,0 24.3441058695,-27.1044784784,0 24.3421947956,-27.1052871644,0 24.3409918249,-27.1058182418,0 24.3398813903,-27.1062768996,0 24.3395917118,-27.1064043045,0 24.3395367265,-27.1064284444,0 24.33859393,-27.1068415046,0 24.3371978402,-27.1074409783,0 24.3359881639,-27.1079559624,0 24.3346001208,-27.1085514128,0 24.3334749341,-27.1090355515,0 24.3317784369,-27.1097637713,0 24.3297024071,-27.1106663346,0 24.3280555308,-27.1113717556,0 24.3270953,-27.1117807925,0 24.3256630003,-27.1123950183,0 24.3247590959,-27.1127839386,0 24.3227541447,-27.1136489511,0 24.3219615519,-27.1139802039,0 24.3219132721,-27.1140445769,0 24.3212078512,-27.1143476665,0 24.3199552596,-27.1148760617,0 24.3199378252,-27.1148452163,0
            </coordinates>
        </LineString>
        </Placemark>
  </Folder>
        </Document>
    </kml>
    