<?xml version="1.0" encoding="UTF-8"?>
    <kml xmlns="http://www.opengis.net/kml/2.2">
    <Document>
        <name>Colored Path</name>
        <Folder>
            <name>Day 8</name>
            <open>1</open>
            <Style id="blackLine">
            <LineStyle>
                <color>ff000000</color>
                <width>4</width>
            </LineStyle>
            </Style>
            <Style id="redLine">
            <LineStyle>
                <color>ff0000ff</color>
                <width>4</width>
            </LineStyle>
            </Style>
        <Placemark>
        <name>Segment 1 (True)</name>
        <styleUrl>#blackLine</styleUrl>
        <LineString>
            <tessellate>1</tessellate>
            <coordinates>
            19.3043343723,-33.3749628067,0 19.3044658005,-33.374902457,0 19.3051229417,-33.3745966852,0 19.3054126203,-33.3744612336,0 19.3073491752,-33.3735439181,0 19.3080103397,-33.3732260764,0 19.3086352944,-33.3729270101,0 19.3093004823,-33.3725984395,0 19.3086500466,-33.3717025816,0 19.3082638085,-33.3711406589,0 19.3079419434,-33.3706699312,0 19.3084019423,-33.3704593778,0 19.3088163435,-33.3702595532,0 19.3089102209,-33.3702273667,0 19.308989346,-33.3701884747,0 19.3090590835,-33.370154947,0 19.3094144762,-33.3699725568,0 19.3097577989,-33.3698183298,0 19.3097940087,-33.3697995543,0 19.3098329008,-33.3697392046,0 19.3099871278,-33.3696708083,0 19.3103156984,-33.3695018291,0 19.310490042,-33.3694133162,0 19.3106777966,-33.3693301678,0 19.3110157549,-33.3691813052,0 19.3114368618,-33.3689828217,0 19.3116675317,-33.3688741922,0 19.3117292225,-33.3688379824,0 19.3122710288,-33.3685818315,0 19.3124936521,-33.3684772253,0 19.3128973246,-33.3682867885,0 19.313250035,-33.3681204915,0 19.3135008216,-33.3680024743,0 19.3138387799,-33.3678428829,0 19.3141070008,-33.3677154779,0 19.3145656586,-33.367498219,0 19.3149009347,-33.3673386276,0 19.3158611655,-33.366882652,0 19.3164525926,-33.3666023612,0 19.3166309595,-33.3665178716,0 19.3179063499,-33.3659170568,0 19.3187955022,-33.3654972911,0 19.3189577758,-33.3654275537,0 19.3190315366,-33.3654114604,0 19.3190811574,-33.3654235303,0 19.3191361427,-33.3653967083,0 19.3197745085,-33.3650922775,0 19.3199488521,-33.365009129,0 19.3201701343,-33.364905864,0 19.320205003,-33.3648884296,0 19.3202465773,-33.3648709953,0 19.3203297257,-33.3648267388,0 19.3204008043,-33.3647945523,0 19.3207830191,-33.3646121621,0 19.3208916485,-33.364559859,0 19.3215514719,-33.3642500639,0 19.321744591,-33.3641561866,0 19.3226498365,-33.363712281,0 19.3234437704,-33.3633247018,0 19.3236382306,-33.3632107079,0 19.3237549067,-33.3631329238,0 19.3238514662,-33.3630618453,0 19.3239372969,-33.3629974723,0 19.3241089582,-33.3628687263,0 19.3242229521,-33.362762779,0 19.3245193362,-33.3624824882,0 19.3246534467,-33.3623671532,0 19.3249350786,-33.3620788157,0 19.3255506456,-33.3614900708,0 19.3257249892,-33.3613103628,0 19.3261098862,-33.3609361947,0 19.3261554837,-33.3608986437,0 19.3264907598,-33.3606170118,0 19.3266436458,-33.3605191112,0 19.3267925084,-33.3604238927,0 19.3271572888,-33.3602012694,0 19.3276360631,-33.3599866927,0 19.3280665576,-33.3597868681,0 19.3283736706,-33.3596433699,0 19.3294344842,-33.3591498435,0 19.3294948339,-33.3591136336,0 19.3296758831,-33.3590371907,0 19.3303947151,-33.3587153256,0 19.3331117928,-33.3574533463,0 19.3333518505,-33.3573393524,0 19.3352790177,-33.3564260602,0 19.3363130093,-33.3559446037,0 19.3373899162,-33.3554430306,0 19.338594228,-33.3549132943,0 19.3390582502,-33.3547081053,0 19.3406192958,-33.3539664745,0 19.3407990038,-33.3538819849,0 19.3412952125,-33.3536472917,0 19.3414333463,-33.3535815775,0 19.3416211009,-33.3535051346,0 19.3419268727,-33.3533844352,0 19.342110604,-33.35331738,0 19.3425866961,-33.3531604707,0 19.3429635465,-33.3530505002,0 19.343136549,-33.3530022204,0 19.3433578312,-33.3529405296,0 19.3438379467,-33.3528319001,0 19.3442845345,-33.3527299762,0 19.3444441259,-33.3526951075,0 19.3449215591,-33.3525878191,0 19.3450972438,-33.352547586,0 19.3465791643,-33.3522176743,0 19.3477579951,-33.3519561589,0 19.3484781682,-33.3518019319,0 19.349770993,-33.3515243232,0 19.3503704667,-33.3513982594,0 19.351554662,-33.351148814,0 19.3533302844,-33.3507558703,0 19.3553768098,-33.3503159881,0 19.3557322025,-33.3502301574,0 19.3563249707,-33.3500799537,0 19.3569807708,-33.3498519659,0 19.3573589623,-33.3497031033,0 19.3576057255,-33.3495931327,0 19.3577934802,-33.3495099843,0 19.3581005931,-33.3493463695,0 19.3584707379,-33.3491183817,0 19.3589052558,-33.3488179743,0 19.3596254289,-33.3482480049,0 19.3603174388,-33.347684741,0 19.361166358,-33.3470007777,0 19.3622928858,-33.3461236954,0 19.3634971976,-33.3451393247,0 19.3644534051,-33.3443695307,0 19.3653224409,-33.3436493576,0 19.3659152091,-33.3431786299,0 19.3662290275,-33.3429425955,0 19.366556257,-33.3427226543,0 19.3669129908,-33.3425080776,0 19.3671986461,-33.3423578739,0 19.367454797,-33.3422586322,0 19.3684378266,-33.3418442309,0 19.3704427779,-33.3410462737,0 19.3729734421,-33.3400203288,0 19.3756476045,-33.3389353752,0 19.3761947751,-33.3387221396,0 19.3789923191,-33.3376304805,0 19.381608814,-33.3365750313,0 19.3853102624,-33.3350850642,0 19.3881976604,-33.3339303732,0 19.390835613,-33.3328963816,0 19.3927896023,-33.332118541,0 19.3945290148,-33.3314278722,0 19.3952988088,-33.3311274648,0 19.3961691856,-33.3307854831,0 19.3962791562,-33.3307398856,0 19.3945357203,-33.33142519,0 19.3945290148,-33.3314278722,0 19.3927896023,-33.332118541,0 19.390835613,-33.3328963816,0 19.3881976604,-33.3339303732,0 19.3853102624,-33.3350850642,0 19.381608814,-33.3365750313,0 19.3789923191,-33.3376304805,0 19.3761947751,-33.3387221396,0 19.3756476045,-33.3389353752,0 19.3729734421,-33.3400203288,0 19.3704427779,-33.3410462737,0 19.3684378266,-33.3418442309,0 19.367454797,-33.3422586322,0 19.3671986461,-33.3423578739,0 19.3669129908,-33.3425080776,0 19.366556257,-33.3427226543,0 19.3662290275,-33.3429425955,0 19.3659152091,-33.3431786299,0 19.3653224409,-33.3436493576,0 19.3644534051,-33.3443695307,0 19.3634971976,-33.3451393247,0 19.3622928858,-33.3461236954,0 19.361166358,-33.3470007777,0 19.3603174388,-33.347684741,0 19.3596254289,-33.3482480049,0 19.3589052558,-33.3488179743,0 19.3584707379,-33.3491183817,0 19.3581005931,-33.3493463695,0 19.3577934802,-33.3495099843,0 19.3576057255,-33.3495931327,0 19.3573589623,-33.3497031033,0 19.3569807708,-33.3498519659,0 19.3563249707,-33.3500799537,0 19.3557322025,-33.3502301574,0 19.3553768098,-33.3503159881,0 19.3533302844,-33.3507558703,0 19.351554662,-33.351148814,0 19.3503704667,-33.3513982594,0 19.349770993,-33.3515243232,0 19.3484781682,-33.3518019319,0 19.3477579951,-33.3519561589,0 19.3465791643,-33.3522176743,0 19.3450972438,-33.352547586,0 19.3449215591,-33.3525878191,0 19.3444441259,-33.3526951075,0 19.3442845345,-33.3527299762,0 19.3438379467,-33.3528319001,0 19.3433578312,-33.3529405296,0 19.343136549,-33.3530022204,0 19.3429635465,-33.3530505002,0 19.3425866961,-33.3531604707,0 19.342110604,-33.35331738,0 19.3419268727,-33.3533844352,0 19.3416211009,-33.3535051346,0 19.3414333463,-33.3535815775,0 19.3412952125,-33.3536472917,0 19.3407990038,-33.3538819849,0 19.3406192958,-33.3539664745,0 19.3390582502,-33.3547081053,0 19.338594228,-33.3549132943,0 19.3373899162,-33.3554430306,0 19.3363130093,-33.3559446037,0 19.3352790177,-33.3564260602,0 19.3333518505,-33.3573393524,0 19.3331117928,-33.3574533463,0 19.3303947151,-33.3587153256,0 19.3296758831,-33.3590371907,0 19.3294948339,-33.3591136336,0 19.3294344842,-33.3591498435,0 19.3283736706,-33.3596433699,0 19.3280665576,-33.3597868681,0 19.3276360631,-33.3599866927,0 19.3271572888,-33.3602012694,0 19.3267925084,-33.3604238927,0 19.3266436458,-33.3605191112,0 19.3264907598,-33.3606170118,0 19.3261554837,-33.3608986437,0 19.3261098862,-33.3609361947,0 19.3257249892,-33.3613103628,0 19.3255506456,-33.3614900708,0 19.3249350786,-33.3620788157,0 19.3246534467,-33.3623671532,0 19.3245193362,-33.3624824882,0 19.3242229521,-33.362762779,0 19.3241089582,-33.3628687263,0 19.3239372969,-33.3629974723,0 19.3238514662,-33.3630618453,0 19.3237549067,-33.3631329238,0 19.3236382306,-33.3632107079,0 19.3234437704,-33.3633247018,0 19.3226498365,-33.363712281,0 19.321744591,-33.3641561866,0 19.3215514719,-33.3642500639,0 19.3208916485,-33.364559859,0 19.3207830191,-33.3646121621,0 19.3204008043,-33.3647945523,0 19.3203297257,-33.3648267388,0 19.3202465773,-33.3648709953,0 19.320205003,-33.3648884296,0 19.3201701343,-33.364905864,0 19.3199488521,-33.365009129,0 19.3197745085,-33.3650922775,0 19.3191361427,-33.3653967083,0 19.3190811574,-33.3654235303,0 19.3190382421,-33.3654919267,0 19.3179666996,-33.3659948409,0 19.3166832626,-33.3666023612,0 19.3165062368,-33.3666868508,0 19.3159094453,-33.3669644594,0 19.3149465322,-33.3674123883,0 19.3146166205,-33.3675666153,0 19.3141485751,-33.3677838743,0 19.3135477602,-33.368074894,0 19.3132969737,-33.3681955934,0 19.3129469454,-33.3683659136,0 19.3125365674,-33.3685523272,0 19.3122777343,-33.3686703444,0 19.311761409,-33.3688943088,0 19.3116983771,-33.3689251542,0 19.3114690483,-33.3690404892,0 19.3111847341,-33.3691839874,0 19.3108709157,-33.3693315089,0 19.3107153475,-33.3694012463,0 19.3105383217,-33.3694830537,0 19.3103680015,-33.3695608377,0 19.3100179732,-33.3697204292,0 19.3098677695,-33.3697968721,0 19.3097940087,-33.3697995543,0 19.3097577989,-33.3698183298,0 19.3094144762,-33.3699725568,0 19.3090590835,-33.370154947,0 19.308989346,-33.3701884747,0 19.3089102209,-33.3702273667,0 19.3088163435,-33.3702595532,0 19.3084019423,-33.3704593778,0 19.3079419434,-33.3706699312,0 19.3082638085,-33.3711406589,0 19.3086500466,-33.3717025816,0 19.3093004823,-33.3725984395,0 19.3086352944,-33.3729270101,0 19.3080103397,-33.3732260764,0 19.3073491752,-33.3735439181,0 19.3054126203,-33.3744612336,0 19.3051229417,-33.3745966852,0 19.3044658005,-33.374902457,0 19.3042592704,-33.3749976754,0
            </coordinates>
        </LineString>
        </Placemark>
  </Folder>
        </Document>
    </kml>
    