<?xml version="1.0" encoding="UTF-8"?>
    <kml xmlns="http://www.opengis.net/kml/2.2">
    <Document>
        <name>Colored Path</name>
        <Folder>
            <name>Day 6</name>
            <open>1</open>
            <Style id="blackLine">
            <LineStyle>
                <color>ff000000</color>
                <width>4</width>
            </LineStyle>
            </Style>
            <Style id="redLine">
            <LineStyle>
                <color>ff0000ff</color>
                <width>4</width>
            </LineStyle>
            </Style>
        <Placemark>
        <name>Segment 1 (True)</name>
        <styleUrl>#blackLine</styleUrl>
        <LineString>
            <tessellate>1</tessellate>
            <coordinates>
            17.8889890015,-29.6613250673,0 17.8900149465,-29.6608583629,0 17.8906600177,-29.6618574858,0 17.8909765184,-29.6623469889,0 17.8888213634,-29.6635620296,0 17.8874990344,-29.6642111242,0 17.8873474896,-29.6642915905,0 17.8870135546,-29.6644726396,0 17.8866420686,-29.6646724641,0 17.8861954808,-29.6648830175,0 17.8858615458,-29.6650399268,0 17.8854417801,-29.6652249992,0 17.8847497702,-29.6654878557,0 17.8844681382,-29.6655938029,0 17.8842374682,-29.6656917036,0 17.8842669725,-29.665337652,0 17.8835535049,-29.6652773023,0 17.8827354312,-29.6652075648,0 17.8819012642,-29.665157944,0 17.8817993402,-29.6651525795,0 17.8813567758,-29.6651445329,0 17.8811985254,-29.6651378274,0 17.8811448812,-29.6651270986,0 17.8810657561,-29.6651123464,0 17.8809866309,-29.6650801599,0 17.8809276223,-29.6650506556,0 17.8808538616,-29.6649943292,0 17.8807264566,-29.6648897231,0 17.880550772,-29.6647341549,0 17.8804421425,-29.6646402776,0 17.8803536296,-29.664581269,0 17.8802651167,-29.6645343304,0 17.8801913559,-29.6644994617,0 17.8800934553,-29.6644592285,0 17.8800089657,-29.6644391119,0 17.8799003363,-29.6644377708,0 17.8798601031,-29.6644377708,0 17.879806459,-29.6644377708,0 17.8796777129,-29.664452523,0 17.8795985878,-29.6644726396,0 17.8794631362,-29.6645195782,0 17.8793370724,-29.6645879745,0 17.8792190552,-29.6646670997,0 17.8791600466,-29.6647167206,0 17.8791077435,-29.664760977,0 17.8790286183,-29.6648521721,0 17.8789615631,-29.6649460495,0 17.878895849,-29.6650841832,0 17.8788515925,-29.665210247,0 17.8788341582,-29.6653242409,0 17.8788153827,-29.6654757857,0 17.878780514,-29.6660216153,0 17.878767103,-29.6662227809,0 17.8787496686,-29.6665084362,0 17.878729552,-29.6668115258,0 17.8787228465,-29.6669282019,0 17.8786168993,-29.6685764194,0 17.8785954416,-29.6689076722,0 17.8785645962,-29.6693596244,0 17.8785270452,-29.6696063876,0 17.8784841299,-29.6697928011,0 17.8784291446,-29.6699349582,0 17.8783419728,-29.6701079607,0 17.8782373667,-29.6702568233,0 17.8781314194,-29.6703802049,0 17.8780388832,-29.6704794466,0 17.8779141605,-29.6705853939,0 17.8778162599,-29.6706658602,0 17.8776861727,-29.6707583964,0 17.8774823248,-29.6708630025,0 17.8717987239,-29.6724830568,0 17.8714178503,-29.6725903451,0 17.8713534772,-29.6726091206,0 17.8709591925,-29.6727432311,0 17.8692747653,-29.6733145416,0 17.8677043319,-29.6738322079,0 17.8671504557,-29.673974365,0 17.8669130802,-29.6740226448,0 17.8667105734,-29.6740521491,0 17.8664249182,-29.674064219,0 17.86605075,-29.674064219,0 17.8658415377,-29.6740400791,0 17.8655679524,-29.673974365,0 17.8652112186,-29.6738858521,0 17.8644950688,-29.6736685932,0 17.8643421829,-29.6736216545,0 17.8626148403,-29.6730999649,0 17.86199525,-29.6729122102,0 17.8608472645,-29.6725662053,0 17.8606420755,-29.6725045145,0 17.859826684,-29.6722966433,0 17.8593157232,-29.6721960604,0 17.8592661023,-29.6721893549,0 17.8589522839,-29.6721477807,0 17.8585298359,-29.6721236408,0 17.8579826653,-29.6721303463,0 17.8576017916,-29.6721477807,0 17.8571914136,-29.6721893549,0 17.8566858172,-29.6722845733,0 17.8563465178,-29.6723797917,0 17.8561507165,-29.6724455059,0 17.8560072184,-29.6724924445,0 17.8556920588,-29.6726238728,0 17.8553943336,-29.6727848053,0 17.855079174,-29.6729806066,0 17.8543925285,-29.6734540164,0 17.8535945714,-29.6741084754,0 17.8535060585,-29.6742036939,0 17.8534282744,-29.6743042767,0 17.8533625603,-29.674423635,0 17.8532981873,-29.674589932,0 17.8532324731,-29.674821943,0 17.8531372547,-29.6751612425,0 17.8530836105,-29.6753932536,0 17.8530058265,-29.6756494045,0 17.8528636694,-29.6759645641,0 17.8525270522,-29.6765801311,0 17.8520804644,-29.6773351729,0 17.8517961502,-29.677811265,0 17.8515990078,-29.6780848503,0 17.8513844311,-29.6783477068,0 17.8511108458,-29.6786682308,0 17.8508855402,-29.6788948774,0 17.850510031,-29.6792033315,0 17.8500527143,-29.679530561,0 17.849611491,-29.6797934175,0 17.8492547572,-29.6799650788,0 17.8489932418,-29.6800965071,0 17.8483870625,-29.6803633869,0 17.8466248512,-29.6810419858,0 17.8457303345,-29.681366533,0 17.8450463712,-29.6816280484,0 17.8445877135,-29.6817943454,0 17.8440821171,-29.6820156276,0 17.8434222937,-29.6823482215,0 17.8416399658,-29.683380872,0 17.8403900564,-29.6841654181,0 17.8397892416,-29.6845462918,0 17.8388115764,-29.6852517128,0 17.8380967677,-29.6858042479,0 17.8374195099,-29.6862870455,0 17.8354440629,-29.6875718236,0 17.8344744444,-29.6881967783,0 17.834123075,-29.6884046495,0 17.8339259326,-29.6885240078,0 17.8337596357,-29.6885950863,0 17.8335759044,-29.6886487305,0 17.8333975375,-29.6886782348,0 17.8331588209,-29.6886728704,0 17.8329871595,-29.6886540949,0 17.8327135742,-29.6885830164,0 17.8324279189,-29.6884998679,0 17.8319330513,-29.6883147955,0 17.8306844831,-29.6878159046,0 17.8304846585,-29.6877206862,0 17.8271627426,-29.6861314774,0 17.8266450763,-29.6858994663,0 17.8263768554,-29.6857921779,0 17.8261743486,-29.6857398748,0 17.8260201216,-29.685715735,0 17.8257934749,-29.685703665,0 17.8255976737,-29.685703665,0 17.8254072368,-29.685703665,0 17.8237120807,-29.6857921779,0 17.8198684752,-29.6860966086,0 17.8174518049,-29.6862629056,0 17.8198684752,-29.6860966086,0 17.8237120807,-29.6857921779,0 17.8254072368,-29.685703665,0 17.8255976737,-29.685703665,0 17.8257934749,-29.685703665,0 17.8260201216,-29.685715735,0 17.8261743486,-29.6857398748,0 17.8263768554,-29.6857921779,0 17.8266450763,-29.6858994663,0 17.8271627426,-29.6861314774,0 17.8304846585,-29.6877206862,0 17.8306844831,-29.6878159046,0 17.8319330513,-29.6883147955,0 17.8324279189,-29.6884998679,0 17.8327135742,-29.6885830164,0 17.8329871595,-29.6886540949,0 17.8331588209,-29.6886728704,0 17.8333975375,-29.6886782348,0 17.8335759044,-29.6886487305,0 17.8337596357,-29.6885950863,0 17.8339259326,-29.6885240078,0 17.834123075,-29.6884046495,0 17.8344744444,-29.6881967783,0 17.8354440629,-29.6875718236,0 17.8374195099,-29.6862870455,0 17.8380967677,-29.6858042479,0 17.8388115764,-29.6852517128,0 17.8397892416,-29.6845462918,0 17.8403900564,-29.6841654181,0 17.8416399658,-29.683380872,0 17.8434222937,-29.6823482215,0 17.8440821171,-29.6820156276,0 17.8445877135,-29.6817943454,0 17.8450463712,-29.6816280484,0 17.8457303345,-29.681366533,0 17.8466248512,-29.6810419858,0 17.8483870625,-29.6803633869,0 17.8489932418,-29.6800965071,0 17.8492547572,-29.6799650788,0 17.849611491,-29.6797934175,0 17.8500527143,-29.679530561,0 17.850510031,-29.6792033315,0 17.8508855402,-29.6788948774,0 17.8511108458,-29.6786682308,0 17.8513844311,-29.6783477068,0 17.8515990078,-29.6780848503,0 17.8517961502,-29.677811265,0 17.8520804644,-29.6773351729,0 17.8525270522,-29.6765801311,0 17.8528636694,-29.6759645641,0 17.8530058265,-29.6756494045,0 17.8530836105,-29.6753932536,0 17.8531372547,-29.6751612425,0 17.8532324731,-29.674821943,0 17.8532981873,-29.674589932,0 17.8533625603,-29.674423635,0 17.8534282744,-29.6743042767,0 17.8535060585,-29.6742036939,0 17.8535945714,-29.6741084754,0 17.8543925285,-29.6734540164,0 17.855079174,-29.6729806066,0 17.8553943336,-29.6727848053,0 17.8556920588,-29.6726238728,0 17.8560072184,-29.6724924445,0 17.8561507165,-29.6724455059,0 17.8563465178,-29.6723797917,0 17.8566858172,-29.6722845733,0 17.8571914136,-29.6721893549,0 17.8576017916,-29.6721477807,0 17.8579826653,-29.6721303463,0 17.8585298359,-29.6721236408,0 17.8589522839,-29.6721477807,0 17.8592661023,-29.6721893549,0 17.8593157232,-29.6721960604,0 17.859826684,-29.6722966433,0 17.8606420755,-29.6725045145,0 17.8608472645,-29.6725662053,0 17.86199525,-29.6729122102,0 17.8626148403,-29.6730999649,0 17.8643421829,-29.6736216545,0 17.8644950688,-29.6736685932,0 17.8652112186,-29.6738858521,0 17.8655679524,-29.673974365,0 17.8658415377,-29.6740400791,0 17.86605075,-29.674064219,0 17.8664249182,-29.674064219,0 17.8667105734,-29.6740521491,0 17.8669130802,-29.6740226448,0 17.8671504557,-29.673974365,0 17.8677043319,-29.6738322079,0 17.8692747653,-29.6733145416,0 17.8709591925,-29.6727432311,0 17.8713534772,-29.6726091206,0 17.8714178503,-29.6725903451,0 17.8717987239,-29.6724830568,0 17.8774823248,-29.6708630025,0 17.8776861727,-29.6707583964,0 17.8778162599,-29.6706658602,0 17.8779141605,-29.6705853939,0 17.8780388832,-29.6704794466,0 17.8781314194,-29.6703802049,0 17.8782373667,-29.6702568233,0 17.8783419728,-29.6701079607,0 17.8784291446,-29.6699349582,0 17.8784841299,-29.6697928011,0 17.8785270452,-29.6696063876,0 17.8785645962,-29.6693596244,0 17.8785954416,-29.6689076722,0 17.8786168993,-29.6685764194,0 17.8787228465,-29.6669282019,0 17.878729552,-29.6668115258,0 17.8787496686,-29.6665084362,0 17.878767103,-29.6662227809,0 17.878780514,-29.6660216153,0 17.8788153827,-29.6654757857,0 17.8788341582,-29.6653242409,0 17.8788515925,-29.665210247,0 17.878895849,-29.6650841832,0 17.8789615631,-29.6649460495,0 17.8790286183,-29.6648521721,0 17.8791077435,-29.664760977,0 17.8791600466,-29.6647167206,0 17.8792190552,-29.6646670997,0 17.8793370724,-29.6645879745,0 17.8794631362,-29.6645195782,0 17.8795985878,-29.6644726396,0 17.8796777129,-29.664452523,0 17.879806459,-29.6644377708,0 17.8798601031,-29.6644377708,0 17.8799003363,-29.6644377708,0 17.8800089657,-29.6644391119,0 17.8800934553,-29.6644592285,0 17.8801913559,-29.6644994617,0 17.8802651167,-29.6645343304,0 17.8803536296,-29.664581269,0 17.8804421425,-29.6646402776,0 17.880550772,-29.6647341549,0 17.8807264566,-29.6648897231,0 17.8808538616,-29.6649943292,0 17.8809276223,-29.6650506556,0 17.8809866309,-29.6650801599,0 17.8810657561,-29.6651123464,0 17.8811448812,-29.6651270986,0 17.8811985254,-29.6651378274,0 17.8813567758,-29.6651445329,0 17.8817993402,-29.6651525795,0 17.8819012642,-29.665157944,0 17.8827354312,-29.6652075648,0 17.8835535049,-29.6652773023,0 17.8842669725,-29.665337652,0 17.8844024241,-29.6653524041,0 17.8845593333,-29.6653886139,0 17.8846652806,-29.6654328704,0 17.8847497702,-29.6654878557,0 17.8854417801,-29.6652249992,0 17.8858615458,-29.6650399268,0 17.8861954808,-29.6648830175,0 17.8866420686,-29.6646724641,0 17.8870135546,-29.6644726396,0 17.8873474896,-29.6642915905,0 17.8874990344,-29.6642111242,0 17.8888213634,-29.6635620296,0 17.8909765184,-29.6623469889,0 17.8906600177,-29.6618574858,0 17.8900149465,-29.6608583629,0 17.8889890015,-29.6613250673,0
            </coordinates>
        </LineString>
        </Placemark>
  </Folder>
        </Document>
    </kml>
    