<?xml version="1.0" encoding="UTF-8"?>
    <kml xmlns="http://www.opengis.net/kml/2.2">
    <Document>
        <name>Colored Path</name>
        <Folder>
            <name>Day 3</name>
            <open>1</open>
            <Style id="blackLine">
            <LineStyle>
                <color>ff000000</color>
                <width>4</width>
            </LineStyle>
            </Style>
            <Style id="redLine">
            <LineStyle>
                <color>ff0000ff</color>
                <width>4</width>
            </LineStyle>
            </Style>
        <Placemark>
        <name>Segment 1 (True)</name>
        <styleUrl>#blackLine</styleUrl>
        <LineString>
            <tessellate>1</tessellate>
            <coordinates>
            24.667185992,-26.9857880473,0 24.6706286073,-26.98478356,0 24.673627317,-26.9839252532,0 24.6770887077,-26.9829234481,0 24.6786162257,-26.9824808836,0 24.6810208261,-26.9818089902,0 24.6846914291,-26.9807213545,0 24.6864549816,-26.9802264869,0 24.6883901954,-26.9796605408,0 24.6892444789,-26.9794003665,0 24.6922968328,-26.9785326719,0 24.6924993396,-26.9784857333,0 24.6941140294,-26.9780230522,0 24.6960921586,-26.9774477184,0 24.6969799697,-26.9771835208,0 24.6976223588,-26.9769582152,0 24.6977336705,-26.9769152999,0 24.6981118619,-26.9767691195,0 24.6986992657,-26.9765089452,0 24.6992853284,-26.9762139022,0 24.699998796,-26.9758088887,0 24.7002495825,-26.9756627083,0 24.7006720304,-26.9754172862,0 24.7012245655,-26.9750712812,0 24.7017140687,-26.9747239351,0 24.7019407153,-26.9745562971,0 24.7026917338,-26.9739675522,0 24.7045947611,-26.9724749029,0 24.7062966228,-26.9711472094,0 24.708032012,-26.9697900116,0 24.7082345188,-26.9696304202,0 24.7082921863,-26.9695861638,0 24.7085537016,-26.9693809748,0 24.7098317742,-26.9683818519,0 24.7107973695,-26.9676268101,0 24.7111822665,-26.9673277438,0 24.7120204568,-26.9666746259,0 24.7120861709,-26.9666223228,0 24.7125568986,-26.9662562013,0 24.7130678594,-26.9658525288,0 24.7131697834,-26.9657707214,0 24.7138001025,-26.9652718306,0 24.713961035,-26.9651404023,0 24.7142386436,-26.9649164379,0 24.7143177688,-26.9648560882,0 24.7144974768,-26.9647246599,0 24.7153235972,-26.9640795887,0 24.7157433629,-26.963751018,0 24.7162918746,-26.9633245468,0 24.7168242931,-26.9629128277,0 24.717258811,-26.9625775516,0 24.7176866233,-26.962248981,0 24.7180809081,-26.9619351625,0 24.7182700038,-26.9617849588,0 24.7187179327,-26.9614309072,0 24.7190049291,-26.9611774385,0 24.7191028297,-26.9610875845,0 24.7191752493,-26.961016506,0 24.719235599,-26.9609521329,0 24.7192744911,-26.9609105587,0 24.7193670273,-26.960811317,0 24.7194877267,-26.9606463611,0 24.7195494175,-26.960529685,0 24.7196044028,-26.9603687525,0 24.7196768224,-26.9600348175,0 24.719837755,-26.9590544701,0 24.7198444605,-26.9590061903,0 24.7200027108,-26.9580338895,0 24.720146209,-26.957167536,0 24.7202897072,-26.9562596083,0 24.7204425931,-26.9552953541,0 24.7224783897,-26.9555461407,0 24.7226312757,-26.9546368718,0 24.7227841616,-26.953727603,0 24.7229598463,-26.9526775181,0 24.723084569,-26.951892972,0 24.7232280672,-26.9509541988,0 24.7232830524,-26.9504767656,0 24.7233004868,-26.9500422478,0 24.7234842181,-26.9500663877,0 24.7239536047,-26.9501280785,0 24.7240810096,-26.9501495361,0 24.7245973349,-26.9502219558,0 24.7247904539,-26.9502487779,0 24.7259062529,-26.9503976405,0 24.7272929549,-26.9505853951,0 24.7273573279,-26.9502232969,0 24.7274002433,-26.9499443471,0 24.7274297476,-26.9497539103,0 24.7274686396,-26.949493736,0 24.7275491059,-26.9489532709,0 24.7276242077,-26.9484959543,0 24.7276416421,-26.9483873248,0
            </coordinates>
        </LineString>
        </Placemark>
  </Folder>
        </Document>
    </kml>
    