<?xml version="1.0" encoding="UTF-8"?>
<gpx version="1.1" creator="SasolSolarChallengeExport" xmlns="http://www.topografix.com/GPX/1/1">
  <trk>
    <name>11 Sept Stage 1: Swart Ruggens to Zeerust</name>
    <trkseg>
      <trkpt lat="-25.6605058908" lon="26.6889466345"><ele>1278.434</ele></trkpt>
      <trkpt lat="-25.6602953374" lon="26.6891089082"><ele>1276.973</ele></trkpt>
      <trkpt lat="-25.6600043178" lon="26.6893006861"><ele>1275.188</ele></trkpt>
      <trkpt lat="-25.6596891582" lon="26.689453572"><ele>1273.761</ele></trkpt>
      <trkpt lat="-25.6594504416" lon="26.6895340383"><ele>1271.789</ele></trkpt>
      <trkpt lat="-25.6592063606" lon="26.6895970702"><ele>1269.505</ele></trkpt>
      <trkpt lat="-25.6589341164" lon="26.68964535"><ele>1267.698</ele></trkpt>
      <trkpt lat="-25.6586712599" lon="26.6896641254"><ele>1265.221</ele></trkpt>
      <trkpt lat="-25.658107996" lon="26.6896493733"><ele>1264.646</ele></trkpt>
      <trkpt lat="-25.6572309136" lon="26.6895514727"><ele>1261.592</ele></trkpt>
      <trkpt lat="-25.6571745872" lon="26.6895447671"><ele>1261.67</ele></trkpt>
      <trkpt lat="-25.6565093994" lon="26.6894575953"><ele>1262.535</ele></trkpt>
      <trkpt lat="-25.6563927233" lon="26.6894428432"><ele>1262.747</ele></trkpt>
      <trkpt lat="-25.6560882926" lon="26.6894026101"><ele>1263.05</ele></trkpt>
      <trkpt lat="-25.6557959318" lon="26.689375788"><ele>1262.352</ele></trkpt>
      <trkpt lat="-25.6555826962" lon="26.6893556714"><ele>1261.787</ele></trkpt>
      <trkpt lat="-25.6552433968" lon="26.6893462837"><ele>1260.171</ele></trkpt>
      <trkpt lat="-25.6551924348" lon="26.6893489659"><ele>1259.871</ele></trkpt>
      <trkpt lat="-25.6549738348" lon="26.6893623769"><ele>1258.99</ele></trkpt>
      <trkpt lat="-25.6549590826" lon="26.689363718"><ele>1258.94</ele></trkpt>
      <trkpt lat="-25.6545419991" lon="26.68941468"><ele>1258.003</ele></trkpt>
      <trkpt lat="-25.6542281806" lon="26.6894562542"><ele>1257.504</ele></trkpt>
      <trkpt lat="-25.6537681818" lon="26.6895192862"><ele>1256.431</ele></trkpt>
      <trkpt lat="-25.6536541879" lon="26.6895340383"><ele>1256.162</ele></trkpt>
      <trkpt lat="-25.6527395546" lon="26.6896855831"><ele>1253.078</ele></trkpt>
      <trkpt lat="-25.6522648036" lon="26.6897633672"><ele>1251.237</ele></trkpt>
      <trkpt lat="-25.6514628232" lon="26.6898961365"><ele>1250.217</ele></trkpt>
      <trkpt lat="-25.6513300538" lon="26.6899001598"><ele>1250.401</ele></trkpt>
      <trkpt lat="-25.6512482464" lon="26.6898947954"><ele>1249.981</ele></trkpt>
      <trkpt lat="-25.650832504" lon="26.6898331046"><ele>1248.957</ele></trkpt>
      <trkpt lat="-25.6507775187" lon="26.689825058"><ele>1249.016</ele></trkpt>
      <trkpt lat="-25.6504261494" lon="26.6897164285"><ele>1248.847</ele></trkpt>
      <trkpt lat="-25.6504368782" lon="26.6896212101"><ele>1249.063</ele></trkpt>
      <trkpt lat="-25.6504409015" lon="26.6895648837"><ele>1249.207</ele></trkpt>
      <trkpt lat="-25.6504462659" lon="26.6894870996"><ele>1249.938</ele></trkpt>
      <trkpt lat="-25.6504556537" lon="26.6894321144"><ele>1250.447</ele></trkpt>
      <trkpt lat="-25.6505012512" lon="26.6891263425"><ele>1251.995</ele></trkpt>
      <trkpt lat="-25.6505428255" lon="26.6888715327"><ele>1251.141</ele></trkpt>
      <trkpt lat="-25.6506125629" lon="26.6885174811"><ele>1251.051</ele></trkpt>
      <trkpt lat="-25.6506474316" lon="26.6883391142"><ele>1250.795</ele></trkpt>
      <trkpt lat="-25.6506863236" lon="26.6881714761"><ele>1250.962</ele></trkpt>
      <trkpt lat="-25.6508781016" lon="26.6873520613"><ele>1253.208</ele></trkpt>
      <trkpt lat="-25.6509424746" lon="26.6870704293"><ele>1252.253</ele></trkpt>
      <trkpt lat="-25.6511315703" lon="26.6862376034"><ele>1253.119</ele></trkpt>
      <trkpt lat="-25.6511811912" lon="26.6860605776"><ele>1252.747</ele></trkpt>
      <trkpt lat="-25.6513997912" lon="26.6852787137"><ele>1250.632</ele></trkpt>
      <trkpt lat="-25.6515271962" lon="26.6848227382"><ele>1251.143</ele></trkpt>
      <trkpt lat="-25.6515660882" lon="26.6847167909"><ele>1251.108</ele></trkpt>
      <trkpt lat="-25.651794076" lon="26.6840784252"><ele>1251.365</ele></trkpt>
      <trkpt lat="-25.6522044539" lon="26.6830457747"><ele>1252.666</ele></trkpt>
      <trkpt lat="-25.6527248025" lon="26.6816926003"><ele>1254.782</ele></trkpt>
      <trkpt lat="-25.6528535485" lon="26.6813573241"><ele>1256.404</ele></trkpt>
      <trkpt lat="-25.6533806026" lon="26.6797479987"><ele>1259.178</ele></trkpt>
      <trkpt lat="-25.65345034" lon="26.6795361042"><ele>1259.637</ele></trkpt>
      <trkpt lat="-25.6535080075" lon="26.6793590784"><ele>1260.213</ele></trkpt>
      <trkpt lat="-25.6536367536" lon="26.6789674759"><ele>1261.028</ele></trkpt>
      <trkpt lat="-25.6537467241" lon="26.6786268353"><ele>1262.231</ele></trkpt>
      <trkpt lat="-25.6538057327" lon="26.6784511507"><ele>1262.352</ele></trkpt>
      <trkpt lat="-25.6541141868" lon="26.6775070131"><ele>1263.034</ele></trkpt>
      <trkpt lat="-25.6548048556" lon="26.6754148901"><ele>1267.01</ele></trkpt>
      <trkpt lat="-25.6555357575" lon="26.6733495891"><ele>1271.507</ele></trkpt>
      <trkpt lat="-25.6557650864" lon="26.6727554798"><ele>1273.329</ele></trkpt>
      <trkpt lat="-25.6561687589" lon="26.6717067361"><ele>1275.797</ele></trkpt>
      <trkpt lat="-25.656542927" lon="26.6707210243"><ele>1277.968</ele></trkpt>
      <trkpt lat="-25.656697154" lon="26.6703186929"><ele>1279.525</ele></trkpt>
      <trkpt lat="-25.6567132473" lon="26.6702744365"><ele>1279.601</ele></trkpt>
      <trkpt lat="-25.656722635" lon="26.6702502966"><ele>1279.642</ele></trkpt>
      <trkpt lat="-25.6568312645" lon="26.6699646413"><ele>1280.117</ele></trkpt>
      <trkpt lat="-25.6568473577" lon="26.6699230671"><ele>1280.218</ele></trkpt>
      <trkpt lat="-25.6572255492" lon="26.6689172387"><ele>1282.476</ele></trkpt>
      <trkpt lat="-25.6573985517" lon="26.6684438288"><ele>1283.571</ele></trkpt>
      <trkpt lat="-25.6578572094" lon="26.6676083207"><ele>1284.361</ele></trkpt>
      <trkpt lat="-25.6580355763" lon="26.6670933366"><ele>1285.253</ele></trkpt>
      <trkpt lat="-25.659815222" lon="26.6622331738"><ele>1292.994</ele></trkpt>
      <trkpt lat="-25.6614688039" lon="26.6577216983"><ele>1298.937</ele></trkpt>
      <trkpt lat="-25.6619529426" lon="26.6563001275"><ele>1301.166</ele></trkpt>
      <trkpt lat="-25.662112534" lon="26.6556349397"><ele>1301.197</ele></trkpt>
      <trkpt lat="-25.6622520089" lon="26.6549000144"><ele>1302.388</ele></trkpt>
      <trkpt lat="-25.6623257697" lon="26.6544292867"><ele>1302.351</ele></trkpt>
      <trkpt lat="-25.6624116004" lon="26.653880775"><ele>1302.651</ele></trkpt>
      <trkpt lat="-25.6628756225" lon="26.6508243978"><ele>1303.433</ele></trkpt>
      <trkpt lat="-25.6642730534" lon="26.6417089105"><ele>1302.573</ele></trkpt>
      <trkpt lat="-25.6656758487" lon="26.6323801875"><ele>1289.141</ele></trkpt>
      <trkpt lat="-25.6660044193" lon="26.6301861405"><ele>1288.905</ele></trkpt>
      <trkpt lat="-25.6660956144" lon="26.6293492913"><ele>1289.58</ele></trkpt>
      <trkpt lat="-25.6661103666" lon="26.6284105182"><ele>1289.912</ele></trkpt>
      <trkpt lat="-25.6660620868" lon="26.627638042"><ele>1289.907</ele></trkpt>
      <trkpt lat="-25.6659574807" lon="26.627009064"><ele>1289.011</ele></trkpt>
      <trkpt lat="-25.6658394635" lon="26.6264498234"><ele>1288.338</ele></trkpt>
      <trkpt lat="-25.6657214463" lon="26.6260086"><ele>1288.731</ele></trkpt>
      <trkpt lat="-25.6655605137" lon="26.6255056858"><ele>1287.859</ele></trkpt>
      <trkpt lat="-25.6653727591" lon="26.6249638796"><ele>1287.342</ele></trkpt>
      <trkpt lat="-25.6642261147" lon="26.6218927503"><ele>1281.467</ele></trkpt>
      <trkpt lat="-25.6637714803" lon="26.6206897795"><ele>1280.134</ele></trkpt>
      <trkpt lat="-25.6637741625" lon="26.6206213832"><ele>1280.086</ele></trkpt>
      <trkpt lat="-25.6629104912" lon="26.6183066368"><ele>1277.505</ele></trkpt>
      <trkpt lat="-25.6628005207" lon="26.6180156171"><ele>1277.016</ele></trkpt>
      <trkpt lat="-25.6620267034" lon="26.6159677505"><ele>1272.564</ele></trkpt>
      <trkpt lat="-25.6619864702" lon="26.6159301996"><ele>1272.522</ele></trkpt>
      <trkpt lat="-25.6617705524" lon="26.6153588891"><ele>1271.71</ele></trkpt>
      <trkpt lat="-25.6615452468" lon="26.6146856546"><ele>1269.894</ele></trkpt>
      <trkpt lat="-25.6613186002" lon="26.6138622165"><ele>1269.075</ele></trkpt>
      <trkpt lat="-25.661098659" lon="26.6130146384"><ele>1268.556</ele></trkpt>
      <trkpt lat="-25.660918951" lon="26.6122636199"><ele>1268.905</ele></trkpt>
      <trkpt lat="-25.6606413424" lon="26.6110244393"><ele>1268.673</ele></trkpt>
      <trkpt lat="-25.660546124" lon="26.6103485227"><ele>1268.46</ele></trkpt>
      <trkpt lat="-25.6604428589" lon="26.6095532477"><ele>1268.416</ele></trkpt>
      <trkpt lat="-25.6604334712" lon="26.6093426943"><ele>1267.972</ele></trkpt>
      <trkpt lat="-25.6604160368" lon="26.6090033948"><ele>1267.525</ele></trkpt>
      <trkpt lat="-25.6604133546" lon="26.6089497507"><ele>1267.479</ele></trkpt>
      <trkpt lat="-25.6604428589" lon="26.6082577407"><ele>1267.737</ele></trkpt>
      <trkpt lat="-25.6604616344" lon="26.6079854965"><ele>1268.044</ele></trkpt>
      <trkpt lat="-25.6605018675" lon="26.6073739529"><ele>1268.643</ele></trkpt>
      <trkpt lat="-25.6605930626" lon="26.6067020595"><ele>1267.987</ele></trkpt>
      <trkpt lat="-25.6608223915" lon="26.6050203145"><ele>1267.913</ele></trkpt>
      <trkpt lat="-25.6609229743" lon="26.6040077806"><ele>1268.824</ele></trkpt>
      <trkpt lat="-25.6609551609" lon="26.6037274897"><ele>1268.959</ele></trkpt>
      <trkpt lat="-25.6609712541" lon="26.6035893559"><ele>1269.111</ele></trkpt>
      <trkpt lat="-25.6611509621" lon="26.602063179"><ele>1270.676</ele></trkpt>
      <trkpt lat="-25.6612059474" lon="26.6016434133"><ele>1270.906</ele></trkpt>
      <trkpt lat="-25.6612850726" lon="26.601035893"><ele>1270.983</ele></trkpt>
      <trkpt lat="-25.6613092124" lon="26.6007944942"><ele>1271.316</ele></trkpt>
      <trkpt lat="-25.6614540517" lon="26.5995526314"><ele>1274.083</ele></trkpt>
      <trkpt lat="-25.6615130603" lon="26.5990564227"><ele>1275.345</ele></trkpt>
      <trkpt lat="-25.6616847217" lon="26.5976321697"><ele>1277.346</ele></trkpt>
      <trkpt lat="-25.6618241966" lon="26.596480161"><ele>1280.736</ele></trkpt>
      <trkpt lat="-25.6620897353" lon="26.5943706036"><ele>1273.55</ele></trkpt>
      <trkpt lat="-25.6621608138" lon="26.5940406919"><ele>1272.663</ele></trkpt>
      <trkpt lat="-25.6622667611" lon="26.5935203433"><ele>1270.619</ele></trkpt>
      <trkpt lat="-25.662368685" lon="26.5931394696"><ele>1270.006</ele></trkpt>
      <trkpt lat="-25.6625846028" lon="26.5925480425"><ele>1270.896</ele></trkpt>
      <trkpt lat="-25.6632229686" lon="26.5907979012"><ele>1273.541</ele></trkpt>
      <trkpt lat="-25.6635408103" lon="26.5895935893"><ele>1277.924</ele></trkpt>
      <trkpt lat="-25.66361323" lon="26.5892073512"><ele>1277.171</ele></trkpt>
      <trkpt lat="-25.6636816263" lon="26.5888157487"><ele>1275.58</ele></trkpt>
      <trkpt lat="-25.6637245417" lon="26.5884509683"><ele>1275.276</ele></trkpt>
      <trkpt lat="-25.6637835503" lon="26.5853382647"><ele>1281.946</ele></trkpt>
      <trkpt lat="-25.663818419" lon="26.5831723809"><ele>1279.812</ele></trkpt>
      <trkpt lat="-25.6638935208" lon="26.5828129649"><ele>1279.558</ele></trkpt>
      <trkpt lat="-25.6640142202" lon="26.582185328"><ele>1276.648</ele></trkpt>
      <trkpt lat="-25.6641764939" lon="26.5816891193"><ele>1274.411</ele></trkpt>
      <trkpt lat="-25.6643360853" lon="26.5812385082"><ele>1272.768</ele></trkpt>
      <trkpt lat="-25.6648765504" lon="26.580170989"><ele>1265.134</ele></trkpt>
      <trkpt lat="-25.6649918854" lon="26.5799215436"><ele>1264.042</ele></trkpt>
      <trkpt lat="-25.665242672" lon="26.5793448687"><ele>1259.924</ele></trkpt>
      <trkpt lat="-25.6653660536" lon="26.5789586306"><ele>1258.809</ele></trkpt>
      <trkpt lat="-25.6654559076" lon="26.5786099434"><ele>1258.302</ele></trkpt>
      <trkpt lat="-25.665486753" lon="26.5783712268"><ele>1257.067</ele></trkpt>
      <trkpt lat="-25.6655229628" lon="26.5780319273"><ele>1255.033</ele></trkpt>
      <trkpt lat="-25.6655310094" lon="26.5776899457"><ele>1254.42</ele></trkpt>
      <trkpt lat="-25.6655082107" lon="26.5773278475"><ele>1253.767</ele></trkpt>
      <trkpt lat="-25.665447861" lon="26.576834321"><ele>1252.138</ele></trkpt>
      <trkpt lat="-25.6653808057" lon="26.5764856339"><ele>1250.86</ele></trkpt>
      <trkpt lat="-25.6653150916" lon="26.5762120485"><ele>1250.097</ele></trkpt>
      <trkpt lat="-25.665230602" lon="26.5759465098"><ele>1249.979</ele></trkpt>
      <trkpt lat="-25.6651434302" lon="26.5757399797"><ele>1250.269</ele></trkpt>
      <trkpt lat="-25.6650052965" lon="26.5754449368"><ele>1249.641</ele></trkpt>
      <trkpt lat="-25.664883256" lon="26.5752276778"><ele>1248.467</ele></trkpt>
      <trkpt lat="-25.6647115946" lon="26.5749809146"><ele>1249.491</ele></trkpt>
      <trkpt lat="-25.6646968424" lon="26.5748548508"><ele>1249.437</ele></trkpt>
      <trkpt lat="-25.6637057662" lon="26.5734735131"><ele>1248.323</ele></trkpt>
      <trkpt lat="-25.6629668176" lon="26.572432816"><ele>1248.513</ele></trkpt>
      <trkpt lat="-25.6624156237" lon="26.5714484453"><ele>1249.364</ele></trkpt>
      <trkpt lat="-25.6623418629" lon="26.5713894367"><ele>1249.726</ele></trkpt>
      <trkpt lat="-25.6622332335" lon="26.5711641312"><ele>1249.481</ele></trkpt>
      <trkpt lat="-25.6619851291" lon="26.5706223249"><ele>1249.874</ele></trkpt>
      <trkpt lat="-25.6617772579" lon="26.5701368451"><ele>1251.021</ele></trkpt>
      <trkpt lat="-25.6615157425" lon="26.5694770217"><ele>1250.484</ele></trkpt>
      <trkpt lat="-25.6611000001" lon="26.568363905"><ele>1251.142</ele></trkpt>
      <trkpt lat="-25.6588040292" lon="26.5621747077"><ele>1246.758</ele></trkpt>
      <trkpt lat="-25.6586404145" lon="26.5617321432"><ele>1246.314</ele></trkpt>
      <trkpt lat="-25.6569519639" lon="26.5570355952"><ele>1237.436</ele></trkpt>
      <trkpt lat="-25.6559662521" lon="26.5541307628"><ele>1239.212</ele></trkpt>
      <trkpt lat="-25.6553252041" lon="26.5523149073"><ele>1241.309</ele></trkpt>
      <trkpt lat="-25.6550569832" lon="26.5515075624"><ele>1243.313</ele></trkpt>
      <trkpt lat="-25.6546077132" lon="26.5502294898"><ele>1244.345</ele></trkpt>
      <trkpt lat="-25.6542912126" lon="26.5493242443"><ele>1244.903</ele></trkpt>
      <trkpt lat="-25.6541383266" lon="26.548935324"><ele>1243.667</ele></trkpt>
      <trkpt lat="-25.6540511549" lon="26.548704654"><ele>1243.765</ele></trkpt>
      <trkpt lat="-25.6538888812" lon="26.5483345091"><ele>1244.482</ele></trkpt>
      <trkpt lat="-25.6537507474" lon="26.5480743349"><ele>1243.633</ele></trkpt>
      <trkpt lat="-25.6534744799" lon="26.5475513041"><ele>1244.225</ele></trkpt>
      <trkpt lat="-25.6516639888" lon="26.5446008742"><ele>1242.9</ele></trkpt>
      <trkpt lat="-25.6506608427" lon="26.5429808199"><ele>1239.727</ele></trkpt>
      <trkpt lat="-25.6502585113" lon="26.5422914922"><ele>1237.796</ele></trkpt>
      <trkpt lat="-25.6495383382" lon="26.5409503877"><ele>1234.791</ele></trkpt>
      <trkpt lat="-25.6482897699" lon="26.5386356413"><ele>1230.713</ele></trkpt>
      <trkpt lat="-25.648060441" lon="26.538182348"><ele>1229.777</ele></trkpt>
      <trkpt lat="-25.6478257477" lon="26.5376780927"><ele>1229.865</ele></trkpt>
      <trkpt lat="-25.6476125121" lon="26.5371389687"><ele>1229.309</ele></trkpt>
      <trkpt lat="-25.6474918127" lon="26.5367688239"><ele>1229.159</ele></trkpt>
      <trkpt lat="-25.6474046409" lon="26.5364657342"><ele>1227.738</ele></trkpt>
      <trkpt lat="-25.6473174691" lon="26.5361197293"><ele>1227.263</ele></trkpt>
      <trkpt lat="-25.6472356617" lon="26.5357334912"><ele>1226.068</ele></trkpt>
      <trkpt lat="-25.6471431255" lon="26.5351782739"><ele>1226.51</ele></trkpt>
      <trkpt lat="-25.6469231844" lon="26.5337325633"><ele>1224.979</ele></trkpt>
      <trkpt lat="-25.6464028358" lon="26.5304227173"><ele>1222.916</ele></trkpt>
      <trkpt lat="-25.6459924579" lon="26.527775377"><ele>1219.546</ele></trkpt>
      <trkpt lat="-25.6458811462" lon="26.5270940959"><ele>1218.278</ele></trkpt>
      <trkpt lat="-25.6456799805" lon="26.5261499584"><ele>1216.138</ele></trkpt>
      <trkpt lat="-25.6453125179" lon="26.5249054134"><ele>1214.66</ele></trkpt>
      <trkpt lat="-25.6443120539" lon="26.5216331184"><ele>1213.952</ele></trkpt>
      <trkpt lat="-25.6440652907" lon="26.520781517"><ele>1213.796</ele></trkpt>
      <trkpt lat="-25.6433840096" lon="26.5185686946"><ele>1209.84</ele></trkpt>
      <trkpt lat="-25.6432364881" lon="26.5179531276"><ele>1206.757</ele></trkpt>
      <trkpt lat="-25.6431573629" lon="26.5175293386"><ele>1205.378</ele></trkpt>
      <trkpt lat="-25.6431077421" lon="26.5170921385"><ele>1204.028</ele></trkpt>
      <trkpt lat="-25.6430795789" lon="26.5166173875"><ele>1203.031</ele></trkpt>
      <trkpt lat="-25.6430715322" lon="26.5164886415"><ele>1203.109</ele></trkpt>
      <trkpt lat="-25.6430648267" lon="26.5159830451"><ele>1203.212</ele></trkpt>
      <trkpt lat="-25.6431144476" lon="26.515481472"><ele>1203.65</ele></trkpt>
      <trkpt lat="-25.6433008611" lon="26.5144380927"><ele>1205.37</ele></trkpt>
      <trkpt lat="-25.6439352036" lon="26.5115694702"><ele>1207.744</ele></trkpt>
      <trkpt lat="-25.644094795" lon="26.5106588602"><ele>1209.314</ele></trkpt>
      <trkpt lat="-25.6441189349" lon="26.5105167031"><ele>1209.67</ele></trkpt>
      <trkpt lat="-25.6442812085" lon="26.5096074343"><ele>1211.237</ele></trkpt>
      <trkpt lat="-25.6446942687" lon="26.5075434744"><ele>1212.465</ele></trkpt>
      <trkpt lat="-25.6447841227" lon="26.5070351958"><ele>1213.691</ele></trkpt>
      <trkpt lat="-25.6448216736" lon="26.5066234767"><ele>1214.783</ele></trkpt>
      <trkpt lat="-25.644852519" lon="26.5058027208"><ele>1216.411</ele></trkpt>
      <trkpt lat="-25.6448552012" lon="26.5056592226"><ele>1216.761</ele></trkpt>
      <trkpt lat="-25.6448578835" lon="26.5054687858"><ele>1217.118</ele></trkpt>
      <trkpt lat="-25.6447680295" lon="26.5043784678"><ele>1218.353</ele></trkpt>
      <trkpt lat="-25.6446352601" lon="26.5034946799"><ele>1218.313</ele></trkpt>
      <trkpt lat="-25.6444555521" lon="26.5027007461"><ele>1218.884</ele></trkpt>
      <trkpt lat="-25.6442758441" lon="26.5019497275"><ele>1217.517</ele></trkpt>
      <trkpt lat="-25.6441122293" lon="26.5013931692"><ele>1218.116</ele></trkpt>
      <trkpt lat="-25.6440371275" lon="26.5011611581"><ele>1218.41</ele></trkpt>
      <trkpt lat="-25.6439271569" lon="26.500864774"><ele>1218.413</ele></trkpt>
      <trkpt lat="-25.6437407434" lon="26.5004087985"><ele>1218.138</ele></trkpt>
      <trkpt lat="-25.6436039507" lon="26.5000909567"><ele>1217.94</ele></trkpt>
      <trkpt lat="-25.6434027851" lon="26.4996899664"><ele>1217.651</ele></trkpt>
      <trkpt lat="-25.6431426108" lon="26.4992393553"><ele>1217.139</ele></trkpt>
      <trkpt lat="-25.6427040696" lon="26.4984990656"><ele>1217.411</ele></trkpt>
      <trkpt lat="-25.6422373652" lon="26.4977037907"><ele>1217.816</ele></trkpt>
      <trkpt lat="-25.6416285038" lon="26.4966094494"><ele>1219.838</ele></trkpt>
      <trkpt lat="-25.6398542225" lon="26.4934793115"><ele>1221.193</ele></trkpt>
      <trkpt lat="-25.6398421526" lon="26.4933532476"><ele>1220.981</ele></trkpt>
      <trkpt lat="-25.6392909586" lon="26.4924868941"><ele>1221.238</ele></trkpt>
      <trkpt lat="-25.6389047205" lon="26.4919504523"><ele>1220.082</ele></trkpt>
      <trkpt lat="-25.6388242543" lon="26.4918284118"><ele>1219.589</ele></trkpt>
      <trkpt lat="-25.6387008727" lon="26.4916983247"><ele>1219.519</ele></trkpt>
      <trkpt lat="-25.6381429732" lon="26.4911189675"><ele>1218.549</ele></trkpt>
      <trkpt lat="-25.637743324" lon="26.4907541871"><ele>1216.245</ele></trkpt>
      <trkpt lat="-25.6373423338" lon="26.4904457331"><ele>1214.524</ele></trkpt>
      <trkpt lat="-25.6371679902" lon="26.4903330803"><ele>1213.65</ele></trkpt>
      <trkpt lat="-25.6370835006" lon="26.4903277159"><ele>1213.321</ele></trkpt>
      <trkpt lat="-25.6348022819" lon="26.4888015389"><ele>1203.375</ele></trkpt>
      <trkpt lat="-25.6326457858" lon="26.4873531461"><ele>1197.883</ele></trkpt>
      <trkpt lat="-25.6300145388" lon="26.4855828881"><ele>1190.985</ele></trkpt>
      <trkpt lat="-25.6288129091" lon="26.4847755432"><ele>1189.176</ele></trkpt>
      <trkpt lat="-25.6281101704" lon="26.4842578769"><ele>1188.471</ele></trkpt>
      <trkpt lat="-25.6277681887" lon="26.4839601517"><ele>1187.561</ele></trkpt>
      <trkpt lat="-25.627373904" lon="26.4835846424"><ele>1186.819</ele></trkpt>
      <trkpt lat="-25.6269581616" lon="26.4831447601"><ele>1184.853</ele></trkpt>
      <trkpt lat="-25.6266188622" lon="26.4827504754"><ele>1184.116</ele></trkpt>
      <trkpt lat="-25.6260797381" lon="26.4819967747"><ele>1182.202</ele></trkpt>
      <trkpt lat="-25.6256492436" lon="26.4812994003"><ele>1179.908</ele></trkpt>
      <trkpt lat="-25.6251074374" lon="26.4803794026"><ele>1178.865</ele></trkpt>
      <trkpt lat="-25.6240560114" lon="26.4785273373"><ele>1180.575</ele></trkpt>
      <trkpt lat="-25.6205222011" lon="26.47235021"><ele>1189.674</ele></trkpt>
      <trkpt lat="-25.6195552647" lon="26.4706791937"><ele>1192.153</ele></trkpt>
      <trkpt lat="-25.6179875135" lon="26.467948705"><ele>1199.139</ele></trkpt>
      <trkpt lat="-25.6147380173" lon="26.4622154832"><ele>1215.137</ele></trkpt>
      <trkpt lat="-25.6143906713" lon="26.4616280794"><ele>1216.097</ele></trkpt>
      <trkpt lat="-25.6136114895" lon="26.4602480829"><ele>1216.695</ele></trkpt>
      <trkpt lat="-25.613399595" lon="26.4598470926"><ele>1216.066</ele></trkpt>
      <trkpt lat="-25.6131273508" lon="26.4591859281"><ele>1215.873</ele></trkpt>
      <trkpt lat="-25.6128805876" lon="26.4585126936"><ele>1215.241</ele></trkpt>
      <trkpt lat="-25.6118948758" lon="26.4556869864"><ele>1212.911</ele></trkpt>
      <trkpt lat="-25.6114979088" lon="26.4545953274"><ele>1212.098</ele></trkpt>
      <trkpt lat="-25.6098242104" lon="26.4499953389"><ele>1196.242</ele></trkpt>
      <trkpt lat="-25.609484911" lon="26.4490753412"><ele>1191.991</ele></trkpt>
      <trkpt lat="-25.6075000763" lon="26.4436948299"><ele>1159.798</ele></trkpt>
      <trkpt lat="-25.6070682406" lon="26.4424918592"><ele>1156.036</ele></trkpt>
      <trkpt lat="-25.6066793203" lon="26.4414082468"><ele>1158.219</ele></trkpt>
      <trkpt lat="-25.606226027" lon="26.4401435852"><ele>1165.299</ele></trkpt>
      <trkpt lat="-25.605288595" lon="26.4378140867"><ele>1166.843</ele></trkpt>
      <trkpt lat="-25.6052429974" lon="26.4377255738"><ele>1166.833</ele></trkpt>
      <trkpt lat="-25.6049694121" lon="26.4371998608"><ele>1165.737</ele></trkpt>
      <trkpt lat="-25.6045563519" lon="26.4364917576"><ele>1161.45</ele></trkpt>
      <trkpt lat="-25.6040883064" lon="26.4357943833"><ele>1159.252</ele></trkpt>
      <trkpt lat="-25.6039072573" lon="26.4355248213"><ele>1158.689</ele></trkpt>
      <trkpt lat="-25.6027686596" lon="26.4339664578"><ele>1151.229</ele></trkpt>
      <trkpt lat="-25.6017078459" lon="26.4325167239"><ele>1145.11</ele></trkpt>
      <trkpt lat="-25.6014114618" lon="26.4321103692"><ele>1142.367</ele></trkpt>
      <trkpt lat="-25.6002701819" lon="26.4305439591"><ele>1143.339</ele></trkpt>
      <trkpt lat="-25.600066334" lon="26.4302650094"><ele>1144.458</ele></trkpt>
      <trkpt lat="-25.5977019668" lon="26.4270986617"><ele>1142.508</ele></trkpt>
      <trkpt lat="-25.5973787606" lon="26.4266507328"><ele>1141.476</ele></trkpt>
      <trkpt lat="-25.5968476832" lon="26.4259372652"><ele>1138.363</ele></trkpt>
      <trkpt lat="-25.5967524648" lon="26.4258085191"><ele>1137.921</ele></trkpt>
      <trkpt lat="-25.5964453518" lon="26.4253659546"><ele>1136.319</ele></trkpt>
      <trkpt lat="-25.5962321162" lon="26.4250695705"><ele>1135.564</ele></trkpt>
      <trkpt lat="-25.5959813297" lon="26.4247208834"><ele>1133.992</ele></trkpt>
      <trkpt lat="-25.5959786475" lon="26.4247168601"><ele>1133.976</ele></trkpt>
      <trkpt lat="-25.5954730511" lon="26.4240154624"><ele>1131.782</ele></trkpt>
      <trkpt lat="-25.5947595835" lon="26.422970742"><ele>1129.027</ele></trkpt>
      <trkpt lat="-25.5938208103" lon="26.4215907454"><ele>1127.369</ele></trkpt>
      <trkpt lat="-25.5937282741" lon="26.4214579761"><ele>1127.229</ele></trkpt>
      <trkpt lat="-25.5929423869" lon="26.4203207195"><ele>1126.06</ele></trkpt>
      <trkpt lat="-25.5924984813" lon="26.4196783304"><ele>1124.459</ele></trkpt>
      <trkpt lat="-25.5924126506" lon="26.4195549488"><ele>1124.07</ele></trkpt>
      <trkpt lat="-25.5917085707" lon="26.4185357094"><ele>1119.633</ele></trkpt>
      <trkpt lat="-25.591224432" lon="26.4177806675"><ele>1116.088</ele></trkpt>
      <trkpt lat="-25.5908475816" lon="26.4170604944"><ele>1112.565</ele></trkpt>
      <trkpt lat="-25.5905753374" lon="26.4164704084"><ele>1110.056</ele></trkpt>
      <trkpt lat="-25.5903956294" lon="26.4160479605"><ele>1108.602</ele></trkpt>
      <trkpt lat="-25.5903285742" lon="26.4158923924"><ele>1108.032</ele></trkpt>
      <trkpt lat="-25.590018779" lon="26.4150555432"><ele>1104.539</ele></trkpt>
      <trkpt lat="-25.5900160968" lon="26.4149066806"><ele>1104.223</ele></trkpt>
      <trkpt lat="-25.589454174" lon="26.4134649932"><ele>1095.113</ele></trkpt>
      <trkpt lat="-25.5893240869" lon="26.4130519331"><ele>1092.824</ele></trkpt>
      <trkpt lat="-25.589261055" lon="26.4128802717"><ele>1092.034</ele></trkpt>
      <trkpt lat="-25.5890773237" lon="26.4123491943"><ele>1090.111</ele></trkpt>
      <trkpt lat="-25.5889391899" lon="26.4119200408"><ele>1087.042</ele></trkpt>
      <trkpt lat="-25.5888815224" lon="26.4118543267"><ele>1086.426</ele></trkpt>
      <trkpt lat="-25.5888412893" lon="26.4117349684"><ele>1085.577</ele></trkpt>
      <trkpt lat="-25.5886119604" lon="26.4110483229"><ele>1087.614</ele></trkpt>
      <trkpt lat="-25.5885140598" lon="26.4107841253"><ele>1089.114</ele></trkpt>
      <trkpt lat="-25.588414818" lon="26.410446167"><ele>1088.274</ele></trkpt>
      <trkpt lat="-25.5883638561" lon="26.4102329314"><ele>1088.114</ele></trkpt>
      <trkpt lat="-25.5883195996" lon="26.4100062847"><ele>1088.77</ele></trkpt>
      <trkpt lat="-25.5882659554" lon="26.4096321166"><ele>1091.038</ele></trkpt>
      <trkpt lat="-25.58824718" lon="26.4093464613"><ele>1092.206</ele></trkpt>
      <trkpt lat="-25.5882431567" lon="26.4090621471"><ele>1092.974</ele></trkpt>
      <trkpt lat="-25.5882538855" lon="26.4088408649"><ele>1093.204</ele></trkpt>
      <trkpt lat="-25.5882619321" lon="26.4087603986"><ele>1093.219</ele></trkpt>
      <trkpt lat="-25.5882941186" lon="26.4087121189"><ele>1092.787</ele></trkpt>
      <trkpt lat="-25.5883142352" lon="26.4085377753"><ele>1092.552</ele></trkpt>
      <trkpt lat="-25.5883464217" lon="26.4083486795"><ele>1092.471</ele></trkpt>
      <trkpt lat="-25.5883960426" lon="26.4081072807"><ele>1094.092</ele></trkpt>
      <trkpt lat="-25.5884724855" lon="26.4078176022"><ele>1097.953</ele></trkpt>
      <trkpt lat="-25.588555634" lon="26.4075681567"><ele>1100.155</ele></trkpt>
      <trkpt lat="-25.5886910856" lon="26.4072181284"><ele>1099.563</ele></trkpt>
      <trkpt lat="-25.5888520181" lon="26.4068506658"><ele>1102.77</ele></trkpt>
      <trkpt lat="-25.5890451372" lon="26.4064925909"><ele>1102.833</ele></trkpt>
      <trkpt lat="-25.58937639" lon="26.4058542252"><ele>1102.892</ele></trkpt>
      <trkpt lat="-25.5894984305" lon="26.4055913687"><ele>1103.234</ele></trkpt>
      <trkpt lat="-25.5898404121" lon="26.4048631489"><ele>1104.77</ele></trkpt>
      <trkpt lat="-25.5900067091" lon="26.4044849575"><ele>1105.569</ele></trkpt>
      <trkpt lat="-25.5901381373" lon="26.4041617513"><ele>1104.997</ele></trkpt>
      <trkpt lat="-25.5902373791" lon="26.4039176702"><ele>1106.188</ele></trkpt>
      <trkpt lat="-25.5903500319" lon="26.4036078751"><ele>1105.524</ele></trkpt>
      <trkpt lat="-25.5904600024" lon="26.4032846689"><ele>1105.291</ele></trkpt>
      <trkpt lat="-25.5906799436" lon="26.4025618136"><ele>1105.924</ele></trkpt>
      <trkpt lat="-25.5907188356" lon="26.4024317265"><ele>1106.104</ele></trkpt>
      <trkpt lat="-25.5907443166" lon="26.402336508"><ele>1106.27</ele></trkpt>
      <trkpt lat="-25.5908194184" lon="26.4020682871"><ele>1106.726</ele></trkpt>
      <trkpt lat="-25.5911238492" lon="26.4009350538"><ele>1108.216</ele></trkpt>
      <trkpt lat="-25.5913800001" lon="26.3999573886"><ele>1110.412</ele></trkpt>
      <trkpt lat="-25.5913679302" lon="26.3999117911"><ele>1110.551</ele></trkpt>
      <trkpt lat="-25.5914591253" lon="26.3995684683"><ele>1111.474</ele></trkpt>
      <trkpt lat="-25.5915610492" lon="26.3991969824"><ele>1112.077</ele></trkpt>
      <trkpt lat="-25.5917555094" lon="26.3984553516"><ele>1113.912</ele></trkpt>
      <trkpt lat="-25.5922114849" lon="26.3968674839"><ele>1117.252</ele></trkpt>
      <trkpt lat="-25.5923804641" lon="26.3962519169"><ele>1119.432</ele></trkpt>
      <trkpt lat="-25.5925896764" lon="26.3954861462"><ele>1121.706</ele></trkpt>
      <trkpt lat="-25.592648685" lon="26.3952447474"><ele>1121.454</ele></trkpt>
      <trkpt lat="-25.5927707255" lon="26.3947512209"><ele>1122.898</ele></trkpt>
      <trkpt lat="-25.5930872262" lon="26.3935482502"><ele>1123.897</ele></trkpt>
      <trkpt lat="-25.5932937562" lon="26.3928696513"><ele>1124.156</ele></trkpt>
      <trkpt lat="-25.5935163796" lon="26.3921964169"><ele>1125.06</ele></trkpt>
      <trkpt lat="-25.5938382447" lon="26.3912495971"><ele>1126.421</ele></trkpt>
      <trkpt lat="-25.5938825011" lon="26.3911986351"><ele>1126.57</ele></trkpt>
      <trkpt lat="-25.5942901969" lon="26.3900184631"><ele>1125.934</ele></trkpt>
      <trkpt lat="-25.5944900215" lon="26.389427036"><ele>1126.038</ele></trkpt>
      <trkpt lat="-25.5946241319" lon="26.3890354335"><ele>1126.969</ele></trkpt>
      <trkpt lat="-25.5946938694" lon="26.388835609"><ele>1127.605</ele></trkpt>
      <trkpt lat="-25.5952437222" lon="26.3872557878"><ele>1132.231</ele></trkpt>
      <trkpt lat="-25.5952437222" lon="26.3871726394"><ele>1132.222</ele></trkpt>
      <trkpt lat="-25.5955857038" lon="26.3861882687"><ele>1135.619</ele></trkpt>
      <trkpt lat="-25.5961181223" lon="26.384691596"><ele>1137.904</ele></trkpt>
      <trkpt lat="-25.5969160795" lon="26.3824050128"><ele>1142.979</ele></trkpt>
      <trkpt lat="-25.597102493" lon="26.3818605244"><ele>1144.367</ele></trkpt>
      <trkpt lat="-25.5973304808" lon="26.38118729"><ele>1147.099</ele></trkpt>
      <trkpt lat="-25.5976657569" lon="26.3801841438"><ele>1149.313</ele></trkpt>
      <trkpt lat="-25.5979084969" lon="26.379403621"><ele>1151.773</ele></trkpt>
      <trkpt lat="-25.5980680883" lon="26.3788108528"><ele>1153.306</ele></trkpt>
      <trkpt lat="-25.5982343853" lon="26.3781403005"><ele>1155.841</ele></trkpt>
      <trkpt lat="-25.5983577669" lon="26.3775233924"><ele>1157.025</ele></trkpt>
      <trkpt lat="-25.598462373" lon="26.3769628108"><ele>1158.455</ele></trkpt>
      <trkpt lat="-25.5985401571" lon="26.3764370978"><ele>1160.735</ele></trkpt>
      <trkpt lat="-25.5987721682" lon="26.3748277724"><ele>1164.967</ele></trkpt>
      <trkpt lat="-25.5989290774" lon="26.3735349476"><ele>1167.27</ele></trkpt>
      <trkpt lat="-25.5992093682" lon="26.3714294136"><ele>1170.003</ele></trkpt>
      <trkpt lat="-25.5996961892" lon="26.3676984608"><ele>1173.61</ele></trkpt>
      <trkpt lat="-25.6000676751" lon="26.3649384677"><ele>1178.522</ele></trkpt>
      <trkpt lat="-25.6003533304" lon="26.3627175987"><ele>1183.129</ele></trkpt>
      <trkpt lat="-25.6007435918" lon="26.3596759737"><ele>1189.233</ele></trkpt>
      <trkpt lat="-25.6010265648" lon="26.357524842"><ele>1190.684</ele></trkpt>
      <trkpt lat="-25.6011714041" lon="26.3564197719"><ele>1192.176</ele></trkpt>
      <trkpt lat="-25.6013551354" lon="26.3547554612"><ele>1195.788</ele></trkpt>
      <trkpt lat="-25.6014852226" lon="26.3536772132"><ele>1195.893</ele></trkpt>
      <trkpt lat="-25.6015455723" lon="26.3530616462"><ele>1196.445</ele></trkpt>
      <trkpt lat="-25.6015911698" lon="26.3524715602"><ele>1197.228</ele></trkpt>
      <trkpt lat="-25.6016542017" lon="26.3510365784"><ele>1200.992</ele></trkpt>
      <trkpt lat="-25.6016716361" lon="26.3496445119"><ele>1205.971</ele></trkpt>
      <trkpt lat="-25.6016689539" lon="26.3492944837"><ele>1206.246</ele></trkpt>
      <trkpt lat="-25.6016917527" lon="26.346860379"><ele>1204.994</ele></trkpt>
      <trkpt lat="-25.6017065048" lon="26.3452215493"><ele>1202.052</ele></trkpt>
      <trkpt lat="-25.601746738" lon="26.3435250521"><ele>1199.919</ele></trkpt>
      <trkpt lat="-25.6017829478" lon="26.3434419036"><ele>1199.62</ele></trkpt>
      <trkpt lat="-25.60178563" lon="26.3432916999"><ele>1199.157</ele></trkpt>
      <trkpt lat="-25.6017923355" lon="26.3422295451"><ele>1197.656</ele></trkpt>
      <trkpt lat="-25.6018044055" lon="26.3414785266"><ele>1196.992</ele></trkpt>
      <trkpt lat="-25.6018017232" lon="26.3412719965"><ele>1196.725</ele></trkpt>
      <trkpt lat="-25.6018191576" lon="26.3402956724"><ele>1197.19</ele></trkpt>
      <trkpt lat="-25.6018164754" lon="26.339147687"><ele>1199.822</ele></trkpt>
      <trkpt lat="-25.6017762423" lon="26.3390725851"><ele>1199.944</ele></trkpt>
      <trkpt lat="-25.6017816067" lon="26.3365459442"><ele>1207.101</ele></trkpt>
      <trkpt lat="-25.6017775834" lon="26.3347421587"><ele>1209.102</ele></trkpt>
      <trkpt lat="-25.6017695367" lon="26.3340689242"><ele>1210.197</ele></trkpt>
      <trkpt lat="-25.6017400324" lon="26.3331851363"><ele>1211.536</ele></trkpt>
      <trkpt lat="-25.6016474962" lon="26.3318574429"><ele>1213.422</ele></trkpt>
      <trkpt lat="-25.6015911698" lon="26.3310608268"><ele>1212.48</ele></trkpt>
      <trkpt lat="-25.6013886631" lon="26.3288962841"><ele>1211.117</ele></trkpt>
      <trkpt lat="-25.6012921035" lon="26.3281881809"><ele>1209.359</ele></trkpt>
      <trkpt lat="-25.6011365354" lon="26.3273566961"><ele>1207.213</ele></trkpt>
      <trkpt lat="-25.6009340286" lon="26.3264608383"><ele>1207.498</ele></trkpt>
      <trkpt lat="-25.6006188691" lon="26.3253852725"><ele>1205.299</ele></trkpt>
      <trkpt lat="-25.6004619598" lon="26.3249775767"><ele>1203.857</ele></trkpt>
      <trkpt lat="-25.6001400948" lon="26.3241863251"><ele>1203.597</ele></trkpt>
      <trkpt lat="-25.5998182297" lon="26.3235077262"><ele>1204.979</ele></trkpt>
      <trkpt lat="-25.5995057523" lon="26.3229122758"><ele>1205.59</ele></trkpt>
      <trkpt lat="-25.5991369486" lon="26.3222980499"><ele>1207.023</ele></trkpt>
      <trkpt lat="-25.5986568332" lon="26.3215443492"><ele>1206.298</ele></trkpt>
      <trkpt lat="-25.5981901288" lon="26.3208469748"><ele>1207.136</ele></trkpt>
      <trkpt lat="-25.5968691409" lon="26.318923831"><ele>1207.484</ele></trkpt>
      <trkpt lat="-25.5953067541" lon="26.3167110085"><ele>1206.494</ele></trkpt>
      <trkpt lat="-25.5939602852" lon="26.314778477"><ele>1205.235</ele></trkpt>
      <trkpt lat="-25.5928458273" lon="26.3131839037"><ele>1204.129</ele></trkpt>
      <trkpt lat="-25.592494458" lon="26.3126863539"><ele>1202.943</ele></trkpt>
      <trkpt lat="-25.5918520689" lon="26.3117770851"><ele>1200.862</ele></trkpt>
      <trkpt lat="-25.5915234983" lon="26.3113023341"><ele>1198.741</ele></trkpt>
      <trkpt lat="-25.5912807584" lon="26.3109080493"><ele>1197.71</ele></trkpt>
      <trkpt lat="-25.5910930037" lon="26.3105593622"><ele>1194.434</ele></trkpt>
      <trkpt lat="-25.5909790099" lon="26.31031394"><ele>1194.952</ele></trkpt>
      <trkpt lat="-25.5908918381" lon="26.3101033866"><ele>1194.581</ele></trkpt>
      <trkpt lat="-25.5907644331" lon="26.3097909093"><ele>1192.966</ele></trkpt>
      <trkpt lat="-25.5906625092" lon="26.3094824553"><ele>1192.673</ele></trkpt>
      <trkpt lat="-25.5905820429" lon="26.3092236221"><ele>1192.647</ele></trkpt>
      <trkpt lat="-25.5905176699" lon="26.3089647889"><ele>1191.228</ele></trkpt>
      <trkpt lat="-25.590468049" lon="26.3087059557"><ele>1190.778</ele></trkpt>
      <trkpt lat="-25.5903956294" lon="26.3081400096"><ele>1191.139</ele></trkpt>
      <trkpt lat="-25.5903312564" lon="26.3072428107"><ele>1185.601</ele></trkpt>
      <trkpt lat="-25.5902427435" lon="26.305488646"><ele>1175.419</ele></trkpt>
      <trkpt lat="-25.5901971459" lon="26.3047403097"><ele>1175.723</ele></trkpt>
      <trkpt lat="-25.5900523067" lon="26.3023705781"><ele>1176.221</ele></trkpt>
      <trkpt lat="-25.5899812281" lon="26.3006365299"><ele>1176.225</ele></trkpt>
      <trkpt lat="-25.5899704993" lon="26.2999740243"><ele>1177.216</ele></trkpt>
      <trkpt lat="-25.5900040269" lon="26.2999069691"><ele>1177.843</ele></trkpt>
      <trkpt lat="-25.5899865925" lon="26.2996038795"><ele>1177.798</ele></trkpt>
      <trkpt lat="-25.5899718404" lon="26.2993450463"><ele>1177.834</ele></trkpt>
      <trkpt lat="-25.5899530649" lon="26.2990084291"><ele>1177.623</ele></trkpt>
      <trkpt lat="-25.5899021029" lon="26.298391521"><ele>1177.391</ele></trkpt>
      <trkpt lat="-25.5898350477" lon="26.2978376448"><ele>1177.951</ele></trkpt>
      <trkpt lat="-25.5897934735" lon="26.297492981"><ele>1178.116</ele></trkpt>
      <trkpt lat="-25.5897331238" lon="26.2970973551"><ele>1178.049</ele></trkpt>
      <trkpt lat="-25.5897116661" lon="26.2969538569"><ele>1178.05</ele></trkpt>
      <trkpt lat="-25.5896674097" lon="26.2966668606"><ele>1177.98</ele></trkpt>
      <trkpt lat="-25.5895614624" lon="26.2959855795"><ele>1176.99</ele></trkpt>
      <trkpt lat="-25.5895158648" lon="26.2959346175"><ele>1176.979</ele></trkpt>
      <trkpt lat="-25.5890505016" lon="26.2933838367"><ele>1176.377</ele></trkpt>
      <trkpt lat="-25.5888158083" lon="26.2921848893"><ele>1175.974</ele></trkpt>
      <trkpt lat="-25.5885636806" lon="26.2910985947"><ele>1177.042</ele></trkpt>
      <trkpt lat="-25.5883356929" lon="26.2901343405"><ele>1178.912</ele></trkpt>
      <trkpt lat="-25.5879172683" lon="26.2884633243"><ele>1178.187</ele></trkpt>
      <trkpt lat="-25.5875176191" lon="26.2870551646"><ele>1175.979</ele></trkpt>
      <trkpt lat="-25.5868725479" lon="26.2849536538"><ele>1178.602</ele></trkpt>
      <trkpt lat="-25.5866740644" lon="26.2842683494"><ele>1181.686</ele></trkpt>
      <trkpt lat="-25.5865480006" lon="26.2837533653"><ele>1183.378</ele></trkpt>
      <trkpt lat="-25.586463511" lon="26.2833698094"><ele>1182.249</ele></trkpt>
      <trkpt lat="-25.5863964558" lon="26.2830305099"><ele>1183.194</ele></trkpt>
      <trkpt lat="-25.586334765" lon="26.2826536596"><ele>1185.01</ele></trkpt>
      <trkpt lat="-25.5862154067" lon="26.2817336619"><ele>1186.488</ele></trkpt>
      <trkpt lat="-25.5861496925" lon="26.2811100483"><ele>1185.708</ele></trkpt>
      <trkpt lat="-25.5860303342" lon="26.2799781561"><ele>1188.253</ele></trkpt>
      <trkpt lat="-25.5859284103" lon="26.2789803743"><ele>1192.166</ele></trkpt>
      <trkpt lat="-25.5858264863" lon="26.27805233"><ele>1193.771</ele></trkpt>
      <trkpt lat="-25.5857406557" lon="26.2774032354"><ele>1196.029</ele></trkpt>
      <trkpt lat="-25.5856387317" lon="26.2768560648"><ele>1198.294</ele></trkpt>
      <trkpt lat="-25.5855368078" lon="26.2764081359"><ele>1199.815</ele></trkpt>
      <trkpt lat="-25.5854402483" lon="26.2761117518"><ele>1198.68</ele></trkpt>
      <trkpt lat="-25.5852900445" lon="26.2757134438"><ele>1198.008</ele></trkpt>
      <trkpt lat="-25.5851344764" lon="26.2753406167"><ele>1198.039</ele></trkpt>
      <trkpt lat="-25.5849507451" lon="26.2749610841"><ele>1197.2</ele></trkpt>
      <trkpt lat="-25.5848045647" lon="26.2746472657"><ele>1197.161</ele></trkpt>
      <trkpt lat="-25.5846610665" lon="26.274381727"><ele>1196.176</ele></trkpt>
      <trkpt lat="-25.5844773352" lon="26.2740544975"><ele>1196.691</ele></trkpt>
      <trkpt lat="-25.5843780935" lon="26.2738935649"><ele>1194.821</ele></trkpt>
      <trkpt lat="-25.584269464" lon="26.273752749"><ele>1193.727</ele></trkpt>
      <trkpt lat="-25.5838282406" lon="26.2732511759"><ele>1192.753</ele></trkpt>
      <trkpt lat="-25.5834339559" lon="26.2728314102"><ele>1194.133</ele></trkpt>
      <trkpt lat="-25.5826762319" lon="26.272046864"><ele>1197.682</ele></trkpt>
      <trkpt lat="-25.5820794404" lon="26.2714487314"><ele>1199.591</ele></trkpt>
      <trkpt lat="-25.5804285407" lon="26.2697683275"><ele>1203.663</ele></trkpt>
      <trkpt lat="-25.5801106989" lon="26.269403547"><ele>1205.364</ele></trkpt>
      <trkpt lat="-25.5798639357" lon="26.2691192329"><ele>1206.067</ele></trkpt>
      <trkpt lat="-25.5797123909" lon="26.2689100206"><ele>1206.6</ele></trkpt>
      <trkpt lat="-25.5795568228" lon="26.2686578929"><ele>1208.262</ele></trkpt>
      <trkpt lat="-25.5794119835" lon="26.2683789432"><ele>1209.388</ele></trkpt>
      <trkpt lat="-25.5792523921" lon="26.2680329382"><ele>1210.917</ele></trkpt>
      <trkpt lat="-25.5791410804" lon="26.2677244842"><ele>1211.771</ele></trkpt>
      <trkpt lat="-25.5790512264" lon="26.2673811615"><ele>1213.583</ele></trkpt>
      <trkpt lat="-25.5789841712" lon="26.26700297"><ele>1215.653</ele></trkpt>
      <trkpt lat="-25.5789425969" lon="26.2666971982"><ele>1217.533</ele></trkpt>
      <trkpt lat="-25.5789278448" lon="26.2664155662"><ele>1218.65</ele></trkpt>
      <trkpt lat="-25.5789238214" lon="26.2661392987"><ele>1220.303</ele></trkpt>
      <trkpt lat="-25.5789452791" lon="26.2658576667"><ele>1221.801</ele></trkpt>
      <trkpt lat="-25.5790190399" lon="26.2653641403"><ele>1224.187</ele></trkpt>
      <trkpt lat="-25.579123646" lon="26.2649510801"><ele>1226.167</ele></trkpt>
      <trkpt lat="-25.5792564154" lon="26.2646077573"><ele>1226.665</ele></trkpt>
      <trkpt lat="-25.5794213712" lon="26.2641584873"><ele>1227.16</ele></trkpt>
      <trkpt lat="-25.5795232952" lon="26.2638272345"><ele>1227.776</ele></trkpt>
      <trkpt lat="-25.5796225369" lon="26.2635093927"><ele>1227.735</ele></trkpt>
      <trkpt lat="-25.5797378719" lon="26.2631137669"><ele>1227.749</ele></trkpt>
      <trkpt lat="-25.5798009038" lon="26.2627650797"><ele>1227.305</ele></trkpt>
      <trkpt lat="-25.5798505247" lon="26.262357384"><ele>1227.18</ele></trkpt>
      <trkpt lat="-25.5798827112" lon="26.2619282305"><ele>1225.812</ele></trkpt>
      <trkpt lat="-25.5798827112" lon="26.2615929544"><ele>1225.237</ele></trkpt>
      <trkpt lat="-25.5798625946" lon="26.261190623"><ele>1223.942</ele></trkpt>
      <trkpt lat="-25.5798169971" lon="26.2608526647"><ele>1222.76</ele></trkpt>
      <trkpt lat="-25.5797593296" lon="26.2605763972"><ele>1222.115</ele></trkpt>
      <trkpt lat="-25.5796895921" lon="26.2603081763"><ele>1221.757</ele></trkpt>
      <trkpt lat="-25.5795635283" lon="26.2598307431"><ele>1220.72</ele></trkpt>
      <trkpt lat="-25.5792725086" lon="26.2590233982"><ele>1218.175</ele></trkpt>
      <trkpt lat="-25.5772729218" lon="26.2536750734"><ele>1208.124</ele></trkpt>
      <trkpt lat="-25.5771388113" lon="26.2533277273"><ele>1207.47</ele></trkpt>
      <trkpt lat="-25.5763019621" lon="26.2511095405"><ele>1202.406</ele></trkpt>
      <trkpt lat="-25.5757212639" lon="26.2495900691"><ele>1201.352</ele></trkpt>
      <trkpt lat="-25.5750265718" lon="26.2477581203"><ele>1199.845</ele></trkpt>
      <trkpt lat="-25.5746765435" lon="26.2468676269"><ele>1196.861</ele></trkpt>
      <trkpt lat="-25.5741414428" lon="26.2455265224"><ele>1192.064</ele></trkpt>
      <trkpt lat="-25.5739215016" lon="26.2450142205"><ele>1189.295</ele></trkpt>
      <trkpt lat="-25.5738021433" lon="26.244725883"><ele>1188.372</ele></trkpt>
      <trkpt lat="-25.5736599863" lon="26.2444268167"><ele>1190.647</ele></trkpt>
      <trkpt lat="-25.5735446513" lon="26.2441854179"><ele>1190.358</ele></trkpt>
      <trkpt lat="-25.5734319985" lon="26.2439627945"><ele>1190.06</ele></trkpt>
      <trkpt lat="-25.5731128156" lon="26.2433753908"><ele>1191.743</ele></trkpt>
      <trkpt lat="-25.5727681518" lon="26.2427946925"><ele>1192.56</ele></trkpt>
      <trkpt lat="-25.5722598732" lon="26.2419497967"><ele>1194.116</ele></trkpt>
      <trkpt lat="-25.5714686215" lon="26.2406945229"><ele>1195.72</ele></trkpt>
      <trkpt lat="-25.5711373687" lon="26.2401352823"><ele>1195.295</ele></trkpt>
      <trkpt lat="-25.5708570778" lon="26.2396390736"><ele>1196.368</ele></trkpt>
      <trkpt lat="-25.570537895" lon="26.2390235066"><ele>1196.363</ele></trkpt>
      <trkpt lat="-25.5703622103" lon="26.2387003005"><ele>1196.281</ele></trkpt>
      <trkpt lat="-25.5700698495" lon="26.2381115556"><ele>1195.282</ele></trkpt>
      <trkpt lat="-25.5687408149" lon="26.2352094054"><ele>1195.947</ele></trkpt>
      <trkpt lat="-25.5682365596" lon="26.2342223525"><ele>1194.069</ele></trkpt>
      <trkpt lat="-25.5677323043" lon="26.2333291769"><ele>1192.604</ele></trkpt>
      <trkpt lat="-25.567574054" lon="26.2330529094"><ele>1192.116</ele></trkpt>
      <trkpt lat="-25.5674305558" lon="26.2328222394"><ele>1191.348</ele></trkpt>
      <trkpt lat="-25.5672870576" lon="26.2326022983"><ele>1191.135</ele></trkpt>
      <trkpt lat="-25.5671945214" lon="26.2324735522"><ele>1190.481</ele></trkpt>
      <trkpt lat="-25.5668216944" lon="26.2319934368"><ele>1188.91</ele></trkpt>
      <trkpt lat="-25.5660237372" lon="26.2310560048"><ele>1184.03</ele></trkpt>
      <trkpt lat="-25.565534234" lon="26.2304860353"><ele>1180.73</ele></trkpt>
      <trkpt lat="-25.5649025738" lon="26.22976318"><ele>1178.794</ele></trkpt>
      <trkpt lat="-25.5645163357" lon="26.2293179333"><ele>1177.524</ele></trkpt>
      <trkpt lat="-25.5636808276" lon="26.2283040583"><ele>1182.59</ele></trkpt>
      <trkpt lat="-25.5634099245" lon="26.2279754877"><ele>1184.347</ele></trkpt>
      <trkpt lat="-25.5632315576" lon="26.2277179956"><ele>1185.311</ele></trkpt>
      <trkpt lat="-25.5630223453" lon="26.2273907661"><ele>1186.368</ele></trkpt>
      <trkpt lat="-25.5629499257" lon="26.2272566557"><ele>1186.509</ele></trkpt>
      <trkpt lat="-25.5627903342" lon="26.2269669771"><ele>1186.949</ele></trkpt>
      <trkpt lat="-25.5621412396" lon="26.2258337438"><ele>1187.613</ele></trkpt>
      <trkpt lat="-25.5621345341" lon="26.2257438898"><ele>1187.6</ele></trkpt>
      <trkpt lat="-25.5615310371" lon="26.224603951"><ele>1187.254</ele></trkpt>
      <trkpt lat="-25.5612829328" lon="26.2241359055"><ele>1187.375</ele></trkpt>
      <trkpt lat="-25.5610401928" lon="26.2236866355"><ele>1187.11</ele></trkpt>
      <trkpt lat="-25.5601295829" lon="26.2220035493"><ele>1186.655</ele></trkpt>
      <trkpt lat="-25.5600638688" lon="26.2219592929"><ele>1186.683</ele></trkpt>
      <trkpt lat="-25.559155941" lon="26.2202346325"><ele>1187.819</ele></trkpt>
      <trkpt lat="-25.559168011" lon="26.2201568484"><ele>1188.028</ele></trkpt>
      <trkpt lat="-25.558180958" lon="26.2182819843"><ele>1190.327</ele></trkpt>
      <trkpt lat="-25.5580039322" lon="26.2179467082"><ele>1191.097</ele></trkpt>
      <trkpt lat="-25.557653904" lon="26.217340529"><ele>1192.167</ele></trkpt>
      <trkpt lat="-25.5575573444" lon="26.217174232"><ele>1192.215</ele></trkpt>
      <trkpt lat="-25.5572234094" lon="26.2166592479"><ele>1191.66</ele></trkpt>
      <trkpt lat="-25.557128191" lon="26.2166324258"><ele>1191.573</ele></trkpt>
      <trkpt lat="-25.5569162965" lon="26.216289103"><ele>1191.434</ele></trkpt>
      <trkpt lat="-25.5565944314" lon="26.215814352"><ele>1191.118</ele></trkpt>
      <trkpt lat="-25.5551406741" lon="26.213837564"><ele>1190.356</ele></trkpt>
      <trkpt lat="-25.554586798" lon="26.2130664289"><ele>1193.577</ele></trkpt>
      <trkpt lat="-25.5542528629" lon="26.2126104534"><ele>1194.334</ele></trkpt>
      <trkpt lat="-25.5536922812" lon="26.2118326128"><ele>1194.854</ele></trkpt>
      <trkpt lat="-25.5528339744" lon="26.2106658518"><ele>1194.278</ele></trkpt>
      <trkpt lat="-25.5524919927" lon="26.210205853"><ele>1194.556</ele></trkpt>
      <trkpt lat="-25.5518884957" lon="26.209436059"><ele>1194.501</ele></trkpt>
      <trkpt lat="-25.5514352024" lon="26.208896935"><ele>1194.894</ele></trkpt>
      <trkpt lat="-25.5509792268" lon="26.2083819509"><ele>1195.099</ele></trkpt>
      <trkpt lat="-25.5496475101" lon="26.2069389224"><ele>1194.204</ele></trkpt>
      <trkpt lat="-25.5483010411" lon="26.2054999173"><ele>1195.136</ele></trkpt>
      <trkpt lat="-25.54740116" lon="26.2045450509"><ele>1195.834</ele></trkpt>
      <trkpt lat="-25.5460399389" lon="26.2030752003"><ele>1196.333</ele></trkpt>
      <trkpt lat="-25.5456671119" lon="26.2026500702"><ele>1196.098</ele></trkpt>
      <trkpt lat="-25.5454820395" lon="26.2024381757"><ele>1196.238</ele></trkpt>
      <trkpt lat="-25.545296967" lon="26.2022209167"><ele>1196.291</ele></trkpt>
      <trkpt lat="-25.5449308455" lon="26.2017475069"><ele>1195.468</ele></trkpt>
      <trkpt lat="-25.5446518958" lon="26.2013813853"><ele>1195.283</ele></trkpt>
      <trkpt lat="-25.5444788933" lon="26.2011654675"><ele>1195.368</ele></trkpt>
      <trkpt lat="-25.5441100895" lon="26.2006773055"><ele>1195.027</ele></trkpt>
      <trkpt lat="-25.543718487" lon="26.2001864612"><ele>1194.576</ele></trkpt>
      <trkpt lat="-25.54334566" lon="26.1997412145"><ele>1194.024</ele></trkpt>
      <trkpt lat="-25.5431592464" lon="26.1995199323"><ele>1193.86</ele></trkpt>
      <trkpt lat="-25.5429808795" lon="26.1993174255"><ele>1192.697</ele></trkpt>
      <trkpt lat="-25.5427756906" lon="26.1991082132"><ele>1192.679</ele></trkpt>
      <trkpt lat="-25.542601347" lon="26.1989378929"><ele>1191.899</ele></trkpt>
      <trkpt lat="-25.5423116684" lon="26.1986643076"><ele>1190.728</ele></trkpt>
      <trkpt lat="-25.5420072377" lon="26.1983799934"><ele>1189.294</ele></trkpt>
      <trkpt lat="-25.5416209996" lon="26.1980581284"><ele>1189.188</ele></trkpt>
      <trkpt lat="-25.5412226915" lon="26.1977416277"><ele>1188.761</ele></trkpt>
      <trkpt lat="-25.5408109725" lon="26.1974237859"><ele>1189.373</ele></trkpt>
      <trkpt lat="-25.5389522016" lon="26.1960531771"><ele>1187.665</ele></trkpt>
      <trkpt lat="-25.5375574529" lon="26.1950151622"><ele>1184.434</ele></trkpt>
      <trkpt lat="-25.5366361141" lon="26.1943392456"><ele>1182.407</ele></trkpt>
      <trkpt lat="-25.5357429385" lon="26.1936727166"><ele>1180.06</ele></trkpt>
      <trkpt lat="-25.5343106389" lon="26.1926172674"><ele>1176.2</ele></trkpt>
      <trkpt lat="-25.533837229" lon="26.1922766268"><ele>1175.164</ele></trkpt>
      <trkpt lat="-25.5333061516" lon="26.1919252574"><ele>1174.011</ele></trkpt>
      <trkpt lat="-25.5331130326" lon="26.1917965114"><ele>1173.365</ele></trkpt>
      <trkpt lat="-25.5328756571" lon="26.1916516721"><ele>1173.002</ele></trkpt>
      <trkpt lat="-25.5326557159" lon="26.1915336549"><ele>1172.493</ele></trkpt>
      <trkpt lat="-25.5325108767" lon="26.1914558709"><ele>1172.235</ele></trkpt>
      <trkpt lat="-25.532360673" lon="26.1913834512"><ele>1171.478</ele></trkpt>
      <trkpt lat="-25.5321930349" lon="26.1913137138"><ele>1171.056</ele></trkpt>
      <trkpt lat="-25.5320428312" lon="26.191252023"><ele>1171.049</ele></trkpt>
      <trkpt lat="-25.5317679048" lon="26.1911635101"><ele>1170.482</ele></trkpt>
      <trkpt lat="-25.5314768851" lon="26.1910669506"><ele>1170.74</ele></trkpt>
      <trkpt lat="-25.5310678482" lon="26.190970391"><ele>1170.783</ele></trkpt>
      <trkpt lat="-25.5304026604" lon="26.1908040941"><ele>1169.083</ele></trkpt>
      <trkpt lat="-25.5299694836" lon="26.1906887591"><ele>1167.776</ele></trkpt>
      <trkpt lat="-25.5297106504" lon="26.1906002462"><ele>1166.738</ele></trkpt>
      <trkpt lat="-25.5295242369" lon="26.1905305088"><ele>1165.858</ele></trkpt>
      <trkpt lat="-25.5293405056" lon="26.1904473603"><ele>1164.824</ele></trkpt>
      <trkpt lat="-25.5291567743" lon="26.1903655529"><ele>1163.952</ele></trkpt>
      <trkpt lat="-25.5289703608" lon="26.19027704"><ele>1162.949</ele></trkpt>
      <trkpt lat="-25.5287718773" lon="26.1901724339"><ele>1162.081</ele></trkpt>
      <trkpt lat="-25.5285988748" lon="26.1900745332"><ele>1161.251</ele></trkpt>
      <trkpt lat="-25.5284392834" lon="26.1899766326"><ele>1160.491</ele></trkpt>
      <trkpt lat="-25.5283145607" lon="26.189892143"><ele>1159.969</ele></trkpt>
      <trkpt lat="-25.5282059312" lon="26.1898089945"><ele>1159.477</ele></trkpt>
      <trkpt lat="-25.5281053483" lon="26.1897432804"><ele>1159.286</ele></trkpt>
      <trkpt lat="-25.5280208588" lon="26.1896815896"><ele>1159.104</ele></trkpt>
      <trkpt lat="-25.52799806" lon="26.1895984411"><ele>1158.715</ele></trkpt>
      <trkpt lat="-25.5275528133" lon="26.1890941858"><ele>1157.048</ele></trkpt>
      <trkpt lat="-25.5272121727" lon="26.1886113882"><ele>1156.005</ele></trkpt>
      <trkpt lat="-25.5267669261" lon="26.1877959967"><ele>1155.414</ele></trkpt>
      <trkpt lat="-25.5266194046" lon="26.1875545979"><ele>1155.76</ele></trkpt>
      <trkpt lat="-25.5263793468" lon="26.1870718002"><ele>1155.392</ele></trkpt>
      <trkpt lat="-25.5260816216" lon="26.1865541339"><ele>1155.106</ele></trkpt>
      <trkpt lat="-25.5260574818" lon="26.1864951253"><ele>1154.954</ele></trkpt>
      <trkpt lat="-25.5259461701" lon="26.1864414811"><ele>1154.745</ele></trkpt>
      <trkpt lat="-25.5258227885" lon="26.1862161756"><ele>1154.766</ele></trkpt>
      <trkpt lat="-25.5256712437" lon="26.1859372258"><ele>1154.482</ele></trkpt>
      <trkpt lat="-25.5251589417" lon="26.1849997938"><ele>1154.285</ele></trkpt>
      <trkpt lat="-25.5244494975" lon="26.1836828291"><ele>1154.986</ele></trkpt>
      <trkpt lat="-25.5231003463" lon="26.1811602116"><ele>1153.765</ele></trkpt>
      <trkpt lat="-25.5226282775" lon="26.1802643538"><ele>1154.266</ele></trkpt>
      <trkpt lat="-25.5212603509" lon="26.1777484417"><ele>1155.882</ele></trkpt>
      <trkpt lat="-25.5209626257" lon="26.1771892011"><ele>1156.099</ele></trkpt>
      <trkpt lat="-25.5204798281" lon="26.1762598157"><ele>1156.258</ele></trkpt>
      <trkpt lat="-25.5202424526" lon="26.1757850647"><ele>1155.746</ele></trkpt>
      <trkpt lat="-25.5200520158" lon="26.1753840744"><ele>1155.089</ele></trkpt>
      <trkpt lat="-25.5198575556" lon="26.1749884486"><ele>1154.514</ele></trkpt>
      <trkpt lat="-25.519798547" lon="26.1748503149"><ele>1153.88</ele></trkpt>
      <trkpt lat="-25.519746244" lon="26.1747148633"><ele>1153.289</ele></trkpt>
      <trkpt lat="-25.519695282" lon="26.1745686829"><ele>1152.586</ele></trkpt>
      <trkpt lat="-25.51964432" lon="26.174402386"><ele>1152.114</ele></trkpt>
      <trkpt lat="-25.5195893347" lon="26.174210608"><ele>1151.343</ele></trkpt>
      <trkpt lat="-25.5195356905" lon="26.1740040779"><ele>1150.585</ele></trkpt>
      <trkpt lat="-25.5193090439" lon="26.1731792986"><ele>1147.364</ele></trkpt>
      <trkpt lat="-25.5188933015" lon="26.1715807021"><ele>1141.292</ele></trkpt>
      <trkpt lat="-25.5188168585" lon="26.1712749302"><ele>1140.521</ele></trkpt>
      <trkpt lat="-25.5187511444" lon="26.1710268259"><ele>1139.768</ele></trkpt>
      <trkpt lat="-25.5186210573" lon="26.1705265939"><ele>1140.365</ele></trkpt>
      <trkpt lat="-25.5183179677" lon="26.1693665385"><ele>1142.698</ele></trkpt>
      <trkpt lat="-25.5180698633" lon="26.1684451997"><ele>1145.686</ele></trkpt>
      <trkpt lat="-25.5178378522" lon="26.1674527824"><ele>1147.933</ele></trkpt>
      <trkpt lat="-25.5177587271" lon="26.1670772731"><ele>1148.101</ele></trkpt>
      <trkpt lat="-25.5177091062" lon="26.1668010056"><ele>1148.234</ele></trkpt>
      <trkpt lat="-25.5176836252" lon="26.1665247381"><ele>1148.548</ele></trkpt>
      <trkpt lat="-25.5176688731" lon="26.1661975086"><ele>1149.329</ele></trkpt>
      <trkpt lat="-25.5176688731" lon="26.1659373343"><ele>1149.608</ele></trkpt>
      <trkpt lat="-25.5176755786" lon="26.1656476557"><ele>1149.381</ele></trkpt>
      <trkpt lat="-25.5176970363" lon="26.1653526127"><ele>1149.485</ele></trkpt>
      <trkpt lat="-25.5177412927" lon="26.1650173366"><ele>1149.116</ele></trkpt>
      <trkpt lat="-25.5177949369" lon="26.1647517979"><ele>1148.991</ele></trkpt>
      <trkpt lat="-25.51784724" lon="26.1645130813"><ele>1149.238</ele></trkpt>
      <trkpt lat="-25.5179156363" lon="26.1642502248"><ele>1148.994</ele></trkpt>
      <trkpt lat="-25.5179974437" lon="26.1640195549"><ele>1148.533</ele></trkpt>
      <trkpt lat="-25.5180819333" lon="26.1637915671"><ele>1148.069</ele></trkpt>
      <trkpt lat="-25.5181771517" lon="26.1635608971"><ele>1148.12</ele></trkpt>
      <trkpt lat="-25.5182589591" lon="26.1633597314"><ele>1148.404</ele></trkpt>
      <trkpt lat="-25.5183394253" lon="26.1631880701"><ele>1148.399</ele></trkpt>
      <trkpt lat="-25.5184239149" lon="26.1630325019"><ele>1148.258</ele></trkpt>
      <trkpt lat="-25.5184963346" lon="26.1629091203"><ele>1148.493</ele></trkpt>
      <trkpt lat="-25.5185969174" lon="26.1627361178"><ele>1148.555</ele></trkpt>
      <trkpt lat="-25.5186921358" lon="26.1625738442"><ele>1148.593</ele></trkpt>
      <trkpt lat="-25.5188181996" lon="26.1623860896"><ele>1148.706</ele></trkpt>
      <trkpt lat="-25.5190435052" lon="26.1620615423"><ele>1149.047</ele></trkpt>
      <trkpt lat="-25.5199795961" lon="26.1607861519"><ele>1146.258</ele></trkpt>
      <trkpt lat="-25.520490557" lon="26.1601236463"><ele>1145.598</ele></trkpt>
      <trkpt lat="-25.5209438503" lon="26.1595268548"><ele>1144.627</ele></trkpt>
      <trkpt lat="-25.521504432" lon="26.1587530375"><ele>1142.687</ele></trkpt>
      <trkpt lat="-25.5222085118" lon="26.1577793956"><ele>1143.124</ele></trkpt>
      <trkpt lat="-25.52281335" lon="26.1568915844"><ele>1145.515</ele></trkpt>
      <trkpt lat="-25.5240780115" lon="26.1549577117"><ele>1156.879</ele></trkpt>
      <trkpt lat="-25.5252863467" lon="26.1530962586"><ele>1165.673</ele></trkpt>
      <trkpt lat="-25.5259649456" lon="26.1520300806"><ele>1170.833</ele></trkpt>
      <trkpt lat="-25.5263954401" lon="26.1513474584"><ele>1172.992</ele></trkpt>
      <trkpt lat="-25.5268929899" lon="26.1505615711"><ele>1175.317</ele></trkpt>
      <trkpt lat="-25.5276533961" lon="26.1493089795"><ele>1176.745</ele></trkpt>
      <trkpt lat="-25.5283749104" lon="26.1480590701"><ele>1171.703</ele></trkpt>
      <trkpt lat="-25.529011935" lon="26.1469513178"><ele>1167.417</ele></trkpt>
      <trkpt lat="-25.5293096602" lon="26.1464135349"><ele>1166.184</ele></trkpt>
      <trkpt lat="-25.5294840038" lon="26.146080941"><ele>1165.307</ele></trkpt>
      <trkpt lat="-25.5297012627" lon="26.145670563"><ele>1164.244</ele></trkpt>
      <trkpt lat="-25.5298219621" lon="26.145439893"><ele>1163.409</ele></trkpt>
      <trkpt lat="-25.5299185216" lon="26.1452521384"><ele>1163.23</ele></trkpt>
      <trkpt lat="-25.5300445855" lon="26.1450000107"><ele>1162.669</ele></trkpt>
      <trkpt lat="-25.5301451683" lon="26.1447894573"><ele>1162.421</ele></trkpt>
      <trkpt lat="-25.5302350223" lon="26.1445896327"><ele>1161.791</ele></trkpt>
      <trkpt lat="-25.5303758383" lon="26.1442449689"><ele>1161.845</ele></trkpt>
      <trkpt lat="-25.5305300653" lon="26.1438453197"><ele>1162.11</ele></trkpt>
      <trkpt lat="-25.5307365954" lon="26.1432874203"><ele>1162.68</ele></trkpt>
      <trkpt lat="-25.5313695967" lon="26.1414393783"><ele>1163.266</ele></trkpt>
      <trkpt lat="-25.5319690704" lon="26.1396570504"><ele>1164.41</ele></trkpt>
      <trkpt lat="-25.5325135589" lon="26.1380691826"><ele>1165.284</ele></trkpt>
      <trkpt lat="-25.5325604975" lon="26.1379216611"><ele>1165.499</ele></trkpt>
      <trkpt lat="-25.5325712264" lon="26.1378867924"><ele>1165.451</ele></trkpt>
      <trkpt lat="-25.5326557159" lon="26.1376266181"><ele>1165.565</ele></trkpt>
      <trkpt lat="-25.533233732" lon="26.1358885467"><ele>1166.195</ele></trkpt>
      <trkpt lat="-25.5337540805" lon="26.1343301833"><ele>1166.241</ele></trkpt>
      <trkpt lat="-25.5338855088" lon="26.1339385808"><ele>1166.201</ele></trkpt>
      <trkpt lat="-25.5341590941" lon="26.1332170665"><ele>1166.105</ele></trkpt>
      <trkpt lat="-25.5342489481" lon="26.1329756677"><ele>1165.791</ele></trkpt>
      <trkpt lat="-25.5343548954" lon="26.132710129"><ele>1165.68</ele></trkpt>
      <trkpt lat="-25.5344836414" lon="26.1324258149"><ele>1165.569</ele></trkpt>
      <trkpt lat="-25.5346043408" lon="26.1321870983"><ele>1165.925</ele></trkpt>
      <trkpt lat="-25.5347009003" lon="26.1320020258"><ele>1166.266</ele></trkpt>
      <trkpt lat="-25.5348068476" lon="26.1318035424"><ele>1166.257</ele></trkpt>
      <trkpt lat="-25.5349543691" lon="26.1315621436"><ele>1166.779</ele></trkpt>
      <trkpt lat="-25.535236001" lon="26.1311195791"><ele>1167.511</ele></trkpt>
      <trkpt lat="-25.5359883606" lon="26.1300118268"><ele>1168.246</ele></trkpt>
      <trkpt lat="-25.5365100503" lon="26.129180342"><ele>1167.834</ele></trkpt>
      <trkpt lat="-25.5366870761" lon="26.1288785934"><ele>1168.0</ele></trkpt>
      <trkpt lat="-25.536814481" lon="26.1286666989"><ele>1167.935</ele></trkpt>
      <trkpt lat="-25.5369459093" lon="26.1284199357"><ele>1168.501</ele></trkpt>
      <trkpt lat="-25.5370397866" lon="26.128244251"><ele>1169.353</ele></trkpt>
      <trkpt lat="-25.5371189117" lon="26.1280940473"><ele>1169.391</ele></trkpt>
      <trkpt lat="-25.5372154713" lon="26.1279036105"><ele>1170.083</ele></trkpt>
      <trkpt lat="-25.5372838676" lon="26.1277520657"><ele>1170.547</ele></trkpt>
      <trkpt lat="-25.5374528468" lon="26.1273698509"><ele>1171.322</ele></trkpt>
      <trkpt lat="-25.5377317965" lon="26.1267153919"><ele>1171.633</ele></trkpt>
      <trkpt lat="-25.5381596088" lon="26.1256438494"><ele>1171.103</ele></trkpt>
      <trkpt lat="-25.5382494628" lon="26.1254306138"><ele>1170.574</ele></trkpt>
      <trkpt lat="-25.5383393168" lon="26.125216037"><ele>1169.97</ele></trkpt>
      <trkpt lat="-25.5383956432" lon="26.1250886321"><ele>1169.7</ele></trkpt>
      <trkpt lat="-25.5384519696" lon="26.1249652505"><ele>1169.751</ele></trkpt>
      <trkpt lat="-25.5385190248" lon="26.1248324811"><ele>1169.77</ele></trkpt>
      <trkpt lat="-25.5386719108" lon="26.1245132983"><ele>1169.25</ele></trkpt>
      <trkpt lat="-25.5388355255" lon="26.1242115498"><ele>1169.243</ele></trkpt>
      <trkpt lat="-25.5392338336" lon="26.1235141754"><ele>1168.467</ele></trkpt>
      <trkpt lat="-25.5395154655" lon="26.1230313778"><ele>1167.661</ele></trkpt>
      <trkpt lat="-25.5403536558" lon="26.1216232181"><ele>1165.795</ele></trkpt>
      <trkpt lat="-25.5404904485" lon="26.1213965714"><ele>1165.248</ele></trkpt>
      <trkpt lat="-25.5406259" lon="26.1211484671"><ele>1164.821</ele></trkpt>
      <trkpt lat="-25.5407787859" lon="26.120877564"><ele>1164.74</ele></trkpt>
      <trkpt lat="-25.5408579111" lon="26.120724678"><ele>1164.476</ele></trkpt>
      <trkpt lat="-25.5409812927" lon="26.1204886436"><ele>1164.364</ele></trkpt>
      <trkpt lat="-25.5411274731" lon="26.1201922596"><ele>1165.125</ele></trkpt>
      <trkpt lat="-25.5413299799" lon="26.119722873"><ele>1165.03</ele></trkpt>
      <trkpt lat="-25.5414225161" lon="26.1194841564"><ele>1165.218</ele></trkpt>
      <trkpt lat="-25.5415150523" lon="26.1192347109"><ele>1165.318</ele></trkpt>
      <trkpt lat="-25.5415821075" lon="26.1190214753"><ele>1165.414</ele></trkpt>
      <trkpt lat="-25.5416706204" lon="26.1187559366"><ele>1165.543</ele></trkpt>
      <trkpt lat="-25.5417497456" lon="26.1184930801"><ele>1165.557</ele></trkpt>
      <trkpt lat="-25.5418503284" lon="26.11808002"><ele>1165.528</ele></trkpt>
      <trkpt lat="-25.5419321358" lon="26.1177527905"><ele>1165.201</ele></trkpt>
      <trkpt lat="-25.5420058966" lon="26.1173531413"><ele>1166.093</ele></trkpt>
      <trkpt lat="-25.5420394242" lon="26.117054075"><ele>1165.852</ele></trkpt>
      <trkpt lat="-25.5420675874" lon="26.1168193817"><ele>1165.518</ele></trkpt>
      <trkpt lat="-25.5420877039" lon="26.116540432"><ele>1165.333</ele></trkpt>
      <trkpt lat="-25.542101115" lon="26.1163124442"><ele>1165.288</ele></trkpt>
      <trkpt lat="-25.5421091616" lon="26.1160884798"><ele>1165.036</ele></trkpt>
      <trkpt lat="-25.5421292782" lon="26.1156472564"><ele>1164.828</ele></trkpt>
      <trkpt lat="-25.5421252549" lon="26.1152999103"><ele>1164.192</ele></trkpt>
      <trkpt lat="-25.5421158671" lon="26.1150048673"><ele>1164.027</ele></trkpt>
      <trkpt lat="-25.5420970917" lon="26.1147299409"><ele>1163.897</ele></trkpt>
      <trkpt lat="-25.5420716107" lon="26.114512682"><ele>1163.405</ele></trkpt>
      <trkpt lat="-25.5420139432" lon="26.1141224205"><ele>1162.827</ele></trkpt>
      <trkpt lat="-25.5418610573" lon="26.1130803823"><ele>1162.809</ele></trkpt>
      <trkpt lat="-25.5418395996" lon="26.1129543185"><ele>1162.8</ele></trkpt>
      <trkpt lat="-25.5417913198" lon="26.1126619577"><ele>1163.249</ele></trkpt>
      <trkpt lat="-25.5417470634" lon="26.1123870313"><ele>1163.274</ele></trkpt>
      <trkpt lat="-25.5416437984" lon="26.1117647588"><ele>1163.273</ele></trkpt>
      <trkpt lat="-25.5416129529" lon="26.1115448177"><ele>1163.172</ele></trkpt>
      <trkpt lat="-25.541575402" lon="26.1112900078"><ele>1163.252</ele></trkpt>
      <trkpt lat="-25.5415338278" lon="26.1109882593"><ele>1163.295</ele></trkpt>
      <trkpt lat="-25.5415029824" lon="26.1106529832"><ele>1163.592</ele></trkpt>
      <trkpt lat="-25.541485548" lon="26.1103257537"><ele>1164.043</ele></trkpt>
      <trkpt lat="-25.5414694548" lon="26.1098523438"><ele>1164.304</ele></trkpt>
      <trkpt lat="-25.5414694548" lon="26.1096538603"><ele>1164.235</ele></trkpt>
      <trkpt lat="-25.5414734781" lon="26.1094097793"><ele>1164.29</ele></trkpt>
      <trkpt lat="-25.5414909124" lon="26.1091026664"><ele>1164.799</ele></trkpt>
      <trkpt lat="-25.5415123701" lon="26.1087271571"><ele>1164.575</ele></trkpt>
      <trkpt lat="-25.5415338278" lon="26.1084589362"><ele>1164.787</ele></trkpt>
      <trkpt lat="-25.5415593088" lon="26.108173281"><ele>1165.365</ele></trkpt>
      <trkpt lat="-25.5416022241" lon="26.1077736318"><ele>1165.557</ele></trkpt>
      <trkpt lat="-25.5416384339" lon="26.1074490845"><ele>1166.361</ele></trkpt>
      <trkpt lat="-25.5417256057" lon="26.1068120599"><ele>1166.657</ele></trkpt>
      <trkpt lat="-25.5417591333" lon="26.1065706611"><ele>1166.241</ele></trkpt>
      <trkpt lat="-25.541895926" lon="26.1055769026"><ele>1163.83</ele></trkpt>
      <trkpt lat="-25.5418972671" lon="26.1055675149"><ele>1163.828</ele></trkpt>
      <trkpt lat="-25.5419415236" lon="26.1052416265"><ele>1162.773</ele></trkpt>
      <trkpt lat="-25.5420716107" lon="26.1043471098"><ele>1159.925</ele></trkpt>
      <trkpt lat="-25.5421185493" lon="26.1039957404"><ele>1159.224</ele></trkpt>
      <trkpt lat="-25.5422875285" lon="26.1027364433"><ele>1161.091</ele></trkpt>
      <trkpt lat="-25.5423250794" lon="26.1024454236"><ele>1161.923</ele></trkpt>
      <trkpt lat="-25.5423384905" lon="26.1023421586"><ele>1161.82</ele></trkpt>
      <trkpt lat="-25.5423760414" lon="26.1020430923"><ele>1161.875</ele></trkpt>
      <trkpt lat="-25.5424028635" lon="26.1018486321"><ele>1162.128</ele></trkpt>
      <trkpt lat="-25.5424672365" lon="26.1013162136"><ele>1161.446</ele></trkpt>
      <trkpt lat="-25.5425718427" lon="26.1005356908"><ele>1162.494</ele></trkpt>
      <trkpt lat="-25.5426134169" lon="26.100166887"><ele>1163.217</ele></trkpt>
      <trkpt lat="-25.5426496267" lon="26.0998664796"><ele>1164.043</ele></trkpt>
      <trkpt lat="-25.5426724255" lon="26.0996545851"><ele>1164.505</ele></trkpt>
      <trkpt lat="-25.5426952243" lon="26.0993729532"><ele>1165.621</ele></trkpt>
      <trkpt lat="-25.542691201" lon="26.0991020501"><ele>1167.045</ele></trkpt>
      <trkpt lat="-25.5426844954" lon="26.0988163948"><ele>1168.377</ele></trkpt>
      <trkpt lat="-25.5426603556" lon="26.0985602438"><ele>1169.725</ele></trkpt>
      <trkpt lat="-25.5426308513" lon="26.0983684659"><ele>1170.518</ele></trkpt>
      <trkpt lat="-25.5425785482" lon="26.0981324315"><ele>1171.782</ele></trkpt>
      <trkpt lat="-25.5425262451" lon="26.0979151726"><ele>1172.301</ele></trkpt>
      <trkpt lat="-25.5424390733" lon="26.0976523161"><ele>1173.863</ele></trkpt>
      <trkpt lat="-25.5423344672" lon="26.097369343"><ele>1175.336</ele></trkpt>
      <trkpt lat="-25.5422499776" lon="26.0971494019"><ele>1175.273</ele></trkpt>
      <trkpt lat="-25.5421453714" lon="26.09686777"><ele>1176.182</ele></trkpt>
      <trkpt lat="-25.5420354009" lon="26.0966236889"><ele>1177.225</ele></trkpt>
      <trkpt lat="-25.5417256057" lon="26.0958431661"><ele>1180.936</ele></trkpt>
      <trkpt lat="-25.5416478217" lon="26.0956446826"><ele>1181.468</ele></trkpt>
      <trkpt lat="-25.541600883" lon="26.0954971611"><ele>1182.299</ele></trkpt>
      <trkpt lat="-25.541561991" lon="26.095316112"><ele>1183.185</ele></trkpt>
      <trkpt lat="-25.5415311456" lon="26.0951176286"><ele>1183.529</ele></trkpt>
      <trkpt lat="-25.5415230989" lon="26.0949003696"><ele>1184.218</ele></trkpt>
      <trkpt lat="-25.5415324867" lon="26.0946442187"><ele>1185.072</ele></trkpt>
      <trkpt lat="-25.5415700376" lon="26.0943625867"><ele>1185.575</ele></trkpt>
      <trkpt lat="-25.5416370928" lon="26.0940018296"><ele>1186.217</ele></trkpt>
      <trkpt lat="-25.5418154597" lon="26.0932092369"><ele>1186.448</ele></trkpt>
      <trkpt lat="-25.5419978499" lon="26.0924501717"><ele>1187.36</ele></trkpt>
      <trkpt lat="-25.54221645" lon="26.0915677249"><ele>1187.858</ele></trkpt>
      <trkpt lat="-25.5422915518" lon="26.0912646353"><ele>1187.995</ele></trkpt>
      <trkpt lat="-25.5424498022" lon="26.0906276107"><ele>1186.443</ele></trkpt>
      <trkpt lat="-25.5426120758" lon="26.0899583995"><ele>1185.211</ele></trkpt>
      <trkpt lat="-25.5427904427" lon="26.0892020166"><ele>1185.556</ele></trkpt>
      <trkpt lat="-25.5429393053" lon="26.0885676742"><ele>1186.03</ele></trkpt>
      <trkpt lat="-25.5432772636" lon="26.0872010887"><ele>1187.419</ele></trkpt>
      <trkpt lat="-25.5433751643" lon="26.0868228972"><ele>1186.981</ele></trkpt>
      <trkpt lat="-25.5434985459" lon="26.0863025486"><ele>1187.357</ele></trkpt>
      <trkpt lat="-25.5435803533" lon="26.0859565437"><ele>1187.611</ele></trkpt>
      <trkpt lat="-25.5439384282" lon="26.0844437778"><ele>1190.265</ele></trkpt>
      <trkpt lat="-25.5443005264" lon="26.0830101371"><ele>1189.506</ele></trkpt>
      <trkpt lat="-25.5443152785" lon="26.0829564929"><ele>1189.339</ele></trkpt>
      <trkpt lat="-25.5443394184" lon="26.0828532279"><ele>1189.309</ele></trkpt>
      <trkpt lat="-25.5444252491" lon="26.0824844241"><ele>1189.365</ele></trkpt>
      <trkpt lat="-25.5444869399" lon="26.0822094977"><ele>1188.908</ele></trkpt>
      <trkpt lat="-25.5445580184" lon="26.0819023848"><ele>1189.336</ele></trkpt>
      <trkpt lat="-25.5446344614" lon="26.0815657675"><ele>1188.837</ele></trkpt>
      <trkpt lat="-25.5446907878" lon="26.0813310742"><ele>1188.906</ele></trkpt>
      <trkpt lat="-25.5449858308" lon="26.0800556839"><ele>1188.932</ele></trkpt>
      <trkpt lat="-25.5452218652" lon="26.0790391266"><ele>1189.45</ele></trkpt>
      <trkpt lat="-25.544859767" lon="26.0789318383"><ele>1190.951</ele></trkpt>
      <trkpt lat="-25.5442093313" lon="26.0787387192"><ele>1191.038</ele></trkpt>
      <trkpt lat="-25.5432638526" lon="26.0784597695"><ele>1193.841</ele></trkpt>
      <trkpt lat="-25.5423223972" lon="26.0781848431"><ele>1196.217</ele></trkpt>
      <trkpt lat="-25.5413621664" lon="26.0779045522"><ele>1198.33</ele></trkpt>
      <trkpt lat="-25.5404421687" lon="26.0776376724"><ele>1202.342</ele></trkpt>
      <trkpt lat="-25.5394886434" lon="26.0773640871"><ele>1206.09</ele></trkpt>
      <trkpt lat="-25.5392673612" lon="26.0783927143"><ele>1210.835</ele></trkpt>
      <trkpt lat="-25.5395878851" lon="26.078491956"><ele>1209.589</ele></trkpt>
      <trkpt lat="-25.5401913822" lon="26.0786810517"><ele>1206.231</ele></trkpt>
      <trkpt lat="-25.5411274731" lon="26.0789613426"><ele>1200.126</ele></trkpt>
      <trkpt lat="-25.5420783162" lon="26.0792389512"><ele>1198.09</ele></trkpt>
      <trkpt lat="-25.5417443812" lon="26.0806377232"><ele>1201.586</ele></trkpt>
      <trkpt lat="-25.5417121947" lon="26.0807718337"><ele>1202.25</ele></trkpt>
      <trkpt lat="-25.5413970351" lon="26.0820485651"><ele>1204.545</ele></trkpt>
      <trkpt lat="-25.5414251983" lon="26.0821129382"><ele>1204.437</ele></trkpt>
      <trkpt lat="-25.5414305627" lon="26.0821156204"><ele>1204.422</ele></trkpt>
    </trkseg>
  </trk>
</gpx>
