<?xml version="1.0" encoding="UTF-8"?>
<kml xmlns="http://www.opengis.net/kml/2.2">
  <Document>
    <name>11 Sept Stage 1: Swart Ruggens to Zeerust</name>
    <Placemark>
      <name>11 Sept Stage 1: Swart Ruggens to Zeerust</name>
      <LineString>
        <tessellate>1</tessellate>
        <coordinates>26.6889466345,-25.6605058908,1278.434 26.6891089082,-25.6602953374,1276.973 26.6893006861,-25.6600043178,1275.188 26.689453572,-25.6596891582,1273.761 26.6895340383,-25.6594504416,1271.789 26.6895970702,-25.6592063606,1269.505 26.68964535,-25.6589341164,1267.698 26.6896641254,-25.6586712599,1265.221 26.6896493733,-25.658107996,1264.646 26.6895514727,-25.6572309136,1261.592 26.6895447671,-25.6571745872,1261.67 26.6894575953,-25.6565093994,1262.535 26.6894428432,-25.6563927233,1262.747 26.6894026101,-25.6560882926,1263.05 26.689375788,-25.6557959318,1262.352 26.6893556714,-25.6555826962,1261.787 26.6893462837,-25.6552433968,1260.171 26.6893489659,-25.6551924348,1259.871 26.6893623769,-25.6549738348,1258.99 26.689363718,-25.6549590826,1258.94 26.68941468,-25.6545419991,1258.003 26.6894562542,-25.6542281806,1257.504 26.6895192862,-25.6537681818,1256.431 26.6895340383,-25.6536541879,1256.162 26.6896855831,-25.6527395546,1253.078 26.6897633672,-25.6522648036,1251.237 26.6898961365,-25.6514628232,1250.217 26.6899001598,-25.6513300538,1250.401 26.6898947954,-25.6512482464,1249.981 26.6898331046,-25.650832504,1248.957 26.689825058,-25.6507775187,1249.016 26.6897164285,-25.6504261494,1248.847 26.6896212101,-25.6504368782,1249.063 26.6895648837,-25.6504409015,1249.207 26.6894870996,-25.6504462659,1249.938 26.6894321144,-25.6504556537,1250.447 26.6891263425,-25.6505012512,1251.995 26.6888715327,-25.6505428255,1251.141 26.6885174811,-25.6506125629,1251.051 26.6883391142,-25.6506474316,1250.795 26.6881714761,-25.6506863236,1250.962 26.6873520613,-25.6508781016,1253.208 26.6870704293,-25.6509424746,1252.253 26.6862376034,-25.6511315703,1253.119 26.6860605776,-25.6511811912,1252.747 26.6852787137,-25.6513997912,1250.632 26.6848227382,-25.6515271962,1251.143 26.6847167909,-25.6515660882,1251.108 26.6840784252,-25.651794076,1251.365 26.6830457747,-25.6522044539,1252.666 26.6816926003,-25.6527248025,1254.782 26.6813573241,-25.6528535485,1256.404 26.6797479987,-25.6533806026,1259.178 26.6795361042,-25.65345034,1259.637 26.6793590784,-25.6535080075,1260.213 26.6789674759,-25.6536367536,1261.028 26.6786268353,-25.6537467241,1262.231 26.6784511507,-25.6538057327,1262.352 26.6775070131,-25.6541141868,1263.034 26.6754148901,-25.6548048556,1267.01 26.6733495891,-25.6555357575,1271.507 26.6727554798,-25.6557650864,1273.329 26.6717067361,-25.6561687589,1275.797 26.6707210243,-25.656542927,1277.968 26.6703186929,-25.656697154,1279.525 26.6702744365,-25.6567132473,1279.601 26.6702502966,-25.656722635,1279.642 26.6699646413,-25.6568312645,1280.117 26.6699230671,-25.6568473577,1280.218 26.6689172387,-25.6572255492,1282.476 26.6684438288,-25.6573985517,1283.571 26.6676083207,-25.6578572094,1284.361 26.6670933366,-25.6580355763,1285.253 26.6622331738,-25.659815222,1292.994 26.6577216983,-25.6614688039,1298.937 26.6563001275,-25.6619529426,1301.166 26.6556349397,-25.662112534,1301.197 26.6549000144,-25.6622520089,1302.388 26.6544292867,-25.6623257697,1302.351 26.653880775,-25.6624116004,1302.651 26.6508243978,-25.6628756225,1303.433 26.6417089105,-25.6642730534,1302.573 26.6323801875,-25.6656758487,1289.141 26.6301861405,-25.6660044193,1288.905 26.6293492913,-25.6660956144,1289.58 26.6284105182,-25.6661103666,1289.912 26.627638042,-25.6660620868,1289.907 26.627009064,-25.6659574807,1289.011 26.6264498234,-25.6658394635,1288.338 26.6260086,-25.6657214463,1288.731 26.6255056858,-25.6655605137,1287.859 26.6249638796,-25.6653727591,1287.342 26.6218927503,-25.6642261147,1281.467 26.6206897795,-25.6637714803,1280.134 26.6206213832,-25.6637741625,1280.086 26.6183066368,-25.6629104912,1277.505 26.6180156171,-25.6628005207,1277.016 26.6159677505,-25.6620267034,1272.564 26.6159301996,-25.6619864702,1272.522 26.6153588891,-25.6617705524,1271.71 26.6146856546,-25.6615452468,1269.894 26.6138622165,-25.6613186002,1269.075 26.6130146384,-25.661098659,1268.556 26.6122636199,-25.660918951,1268.905 26.6110244393,-25.6606413424,1268.673 26.6103485227,-25.660546124,1268.46 26.6095532477,-25.6604428589,1268.416 26.6093426943,-25.6604334712,1267.972 26.6090033948,-25.6604160368,1267.525 26.6089497507,-25.6604133546,1267.479 26.6082577407,-25.6604428589,1267.737 26.6079854965,-25.6604616344,1268.044 26.6073739529,-25.6605018675,1268.643 26.6067020595,-25.6605930626,1267.987 26.6050203145,-25.6608223915,1267.913 26.6040077806,-25.6609229743,1268.824 26.6037274897,-25.6609551609,1268.959 26.6035893559,-25.6609712541,1269.111 26.602063179,-25.6611509621,1270.676 26.6016434133,-25.6612059474,1270.906 26.601035893,-25.6612850726,1270.983 26.6007944942,-25.6613092124,1271.316 26.5995526314,-25.6614540517,1274.083 26.5990564227,-25.6615130603,1275.345 26.5976321697,-25.6616847217,1277.346 26.596480161,-25.6618241966,1280.736 26.5943706036,-25.6620897353,1273.55 26.5940406919,-25.6621608138,1272.663 26.5935203433,-25.6622667611,1270.619 26.5931394696,-25.662368685,1270.006 26.5925480425,-25.6625846028,1270.896 26.5907979012,-25.6632229686,1273.541 26.5895935893,-25.6635408103,1277.924 26.5892073512,-25.66361323,1277.171 26.5888157487,-25.6636816263,1275.58 26.5884509683,-25.6637245417,1275.276 26.5853382647,-25.6637835503,1281.946 26.5831723809,-25.663818419,1279.812 26.5828129649,-25.6638935208,1279.558 26.582185328,-25.6640142202,1276.648 26.5816891193,-25.6641764939,1274.411 26.5812385082,-25.6643360853,1272.768 26.580170989,-25.6648765504,1265.134 26.5799215436,-25.6649918854,1264.042 26.5793448687,-25.665242672,1259.924 26.5789586306,-25.6653660536,1258.809 26.5786099434,-25.6654559076,1258.302 26.5783712268,-25.665486753,1257.067 26.5780319273,-25.6655229628,1255.033 26.5776899457,-25.6655310094,1254.42 26.5773278475,-25.6655082107,1253.767 26.576834321,-25.665447861,1252.138 26.5764856339,-25.6653808057,1250.86 26.5762120485,-25.6653150916,1250.097 26.5759465098,-25.665230602,1249.979 26.5757399797,-25.6651434302,1250.269 26.5754449368,-25.6650052965,1249.641 26.5752276778,-25.664883256,1248.467 26.5749809146,-25.6647115946,1249.491 26.5748548508,-25.6646968424,1249.437 26.5734735131,-25.6637057662,1248.323 26.572432816,-25.6629668176,1248.513 26.5714484453,-25.6624156237,1249.364 26.5713894367,-25.6623418629,1249.726 26.5711641312,-25.6622332335,1249.481 26.5706223249,-25.6619851291,1249.874 26.5701368451,-25.6617772579,1251.021 26.5694770217,-25.6615157425,1250.484 26.568363905,-25.6611000001,1251.142 26.5621747077,-25.6588040292,1246.758 26.5617321432,-25.6586404145,1246.314 26.5570355952,-25.6569519639,1237.436 26.5541307628,-25.6559662521,1239.212 26.5523149073,-25.6553252041,1241.309 26.5515075624,-25.6550569832,1243.313 26.5502294898,-25.6546077132,1244.345 26.5493242443,-25.6542912126,1244.903 26.548935324,-25.6541383266,1243.667 26.548704654,-25.6540511549,1243.765 26.5483345091,-25.6538888812,1244.482 26.5480743349,-25.6537507474,1243.633 26.5475513041,-25.6534744799,1244.225 26.5446008742,-25.6516639888,1242.9 26.5429808199,-25.6506608427,1239.727 26.5422914922,-25.6502585113,1237.796 26.5409503877,-25.6495383382,1234.791 26.5386356413,-25.6482897699,1230.713 26.538182348,-25.648060441,1229.777 26.5376780927,-25.6478257477,1229.865 26.5371389687,-25.6476125121,1229.309 26.5367688239,-25.6474918127,1229.159 26.5364657342,-25.6474046409,1227.738 26.5361197293,-25.6473174691,1227.263 26.5357334912,-25.6472356617,1226.068 26.5351782739,-25.6471431255,1226.51 26.5337325633,-25.6469231844,1224.979 26.5304227173,-25.6464028358,1222.916 26.527775377,-25.6459924579,1219.546 26.5270940959,-25.6458811462,1218.278 26.5261499584,-25.6456799805,1216.138 26.5249054134,-25.6453125179,1214.66 26.5216331184,-25.6443120539,1213.952 26.520781517,-25.6440652907,1213.796 26.5185686946,-25.6433840096,1209.84 26.5179531276,-25.6432364881,1206.757 26.5175293386,-25.6431573629,1205.378 26.5170921385,-25.6431077421,1204.028 26.5166173875,-25.6430795789,1203.031 26.5164886415,-25.6430715322,1203.109 26.5159830451,-25.6430648267,1203.212 26.515481472,-25.6431144476,1203.65 26.5144380927,-25.6433008611,1205.37 26.5115694702,-25.6439352036,1207.744 26.5106588602,-25.644094795,1209.314 26.5105167031,-25.6441189349,1209.67 26.5096074343,-25.6442812085,1211.237 26.5075434744,-25.6446942687,1212.465 26.5070351958,-25.6447841227,1213.691 26.5066234767,-25.6448216736,1214.783 26.5058027208,-25.644852519,1216.411 26.5056592226,-25.6448552012,1216.761 26.5054687858,-25.6448578835,1217.118 26.5043784678,-25.6447680295,1218.353 26.5034946799,-25.6446352601,1218.313 26.5027007461,-25.6444555521,1218.884 26.5019497275,-25.6442758441,1217.517 26.5013931692,-25.6441122293,1218.116 26.5011611581,-25.6440371275,1218.41 26.500864774,-25.6439271569,1218.413 26.5004087985,-25.6437407434,1218.138 26.5000909567,-25.6436039507,1217.94 26.4996899664,-25.6434027851,1217.651 26.4992393553,-25.6431426108,1217.139 26.4984990656,-25.6427040696,1217.411 26.4977037907,-25.6422373652,1217.816 26.4966094494,-25.6416285038,1219.838 26.4934793115,-25.6398542225,1221.193 26.4933532476,-25.6398421526,1220.981 26.4924868941,-25.6392909586,1221.238 26.4919504523,-25.6389047205,1220.082 26.4918284118,-25.6388242543,1219.589 26.4916983247,-25.6387008727,1219.519 26.4911189675,-25.6381429732,1218.549 26.4907541871,-25.637743324,1216.245 26.4904457331,-25.6373423338,1214.524 26.4903330803,-25.6371679902,1213.65 26.4903277159,-25.6370835006,1213.321 26.4888015389,-25.6348022819,1203.375 26.4873531461,-25.6326457858,1197.883 26.4855828881,-25.6300145388,1190.985 26.4847755432,-25.6288129091,1189.176 26.4842578769,-25.6281101704,1188.471 26.4839601517,-25.6277681887,1187.561 26.4835846424,-25.627373904,1186.819 26.4831447601,-25.6269581616,1184.853 26.4827504754,-25.6266188622,1184.116 26.4819967747,-25.6260797381,1182.202 26.4812994003,-25.6256492436,1179.908 26.4803794026,-25.6251074374,1178.865 26.4785273373,-25.6240560114,1180.575 26.47235021,-25.6205222011,1189.674 26.4706791937,-25.6195552647,1192.153 26.467948705,-25.6179875135,1199.139 26.4622154832,-25.6147380173,1215.137 26.4616280794,-25.6143906713,1216.097 26.4602480829,-25.6136114895,1216.695 26.4598470926,-25.613399595,1216.066 26.4591859281,-25.6131273508,1215.873 26.4585126936,-25.6128805876,1215.241 26.4556869864,-25.6118948758,1212.911 26.4545953274,-25.6114979088,1212.098 26.4499953389,-25.6098242104,1196.242 26.4490753412,-25.609484911,1191.991 26.4436948299,-25.6075000763,1159.798 26.4424918592,-25.6070682406,1156.036 26.4414082468,-25.6066793203,1158.219 26.4401435852,-25.606226027,1165.299 26.4378140867,-25.605288595,1166.843 26.4377255738,-25.6052429974,1166.833 26.4371998608,-25.6049694121,1165.737 26.4364917576,-25.6045563519,1161.45 26.4357943833,-25.6040883064,1159.252 26.4355248213,-25.6039072573,1158.689 26.4339664578,-25.6027686596,1151.229 26.4325167239,-25.6017078459,1145.11 26.4321103692,-25.6014114618,1142.367 26.4305439591,-25.6002701819,1143.339 26.4302650094,-25.600066334,1144.458 26.4270986617,-25.5977019668,1142.508 26.4266507328,-25.5973787606,1141.476 26.4259372652,-25.5968476832,1138.363 26.4258085191,-25.5967524648,1137.921 26.4253659546,-25.5964453518,1136.319 26.4250695705,-25.5962321162,1135.564 26.4247208834,-25.5959813297,1133.992 26.4247168601,-25.5959786475,1133.976 26.4240154624,-25.5954730511,1131.782 26.422970742,-25.5947595835,1129.027 26.4215907454,-25.5938208103,1127.369 26.4214579761,-25.5937282741,1127.229 26.4203207195,-25.5929423869,1126.06 26.4196783304,-25.5924984813,1124.459 26.4195549488,-25.5924126506,1124.07 26.4185357094,-25.5917085707,1119.633 26.4177806675,-25.591224432,1116.088 26.4170604944,-25.5908475816,1112.565 26.4164704084,-25.5905753374,1110.056 26.4160479605,-25.5903956294,1108.602 26.4158923924,-25.5903285742,1108.032 26.4150555432,-25.590018779,1104.539 26.4149066806,-25.5900160968,1104.223 26.4134649932,-25.589454174,1095.113 26.4130519331,-25.5893240869,1092.824 26.4128802717,-25.589261055,1092.034 26.4123491943,-25.5890773237,1090.111 26.4119200408,-25.5889391899,1087.042 26.4118543267,-25.5888815224,1086.426 26.4117349684,-25.5888412893,1085.577 26.4110483229,-25.5886119604,1087.614 26.4107841253,-25.5885140598,1089.114 26.410446167,-25.588414818,1088.274 26.4102329314,-25.5883638561,1088.114 26.4100062847,-25.5883195996,1088.77 26.4096321166,-25.5882659554,1091.038 26.4093464613,-25.58824718,1092.206 26.4090621471,-25.5882431567,1092.974 26.4088408649,-25.5882538855,1093.204 26.4087603986,-25.5882619321,1093.219 26.4087121189,-25.5882941186,1092.787 26.4085377753,-25.5883142352,1092.552 26.4083486795,-25.5883464217,1092.471 26.4081072807,-25.5883960426,1094.092 26.4078176022,-25.5884724855,1097.953 26.4075681567,-25.588555634,1100.155 26.4072181284,-25.5886910856,1099.563 26.4068506658,-25.5888520181,1102.77 26.4064925909,-25.5890451372,1102.833 26.4058542252,-25.58937639,1102.892 26.4055913687,-25.5894984305,1103.234 26.4048631489,-25.5898404121,1104.77 26.4044849575,-25.5900067091,1105.569 26.4041617513,-25.5901381373,1104.997 26.4039176702,-25.5902373791,1106.188 26.4036078751,-25.5903500319,1105.524 26.4032846689,-25.5904600024,1105.291 26.4025618136,-25.5906799436,1105.924 26.4024317265,-25.5907188356,1106.104 26.402336508,-25.5907443166,1106.27 26.4020682871,-25.5908194184,1106.726 26.4009350538,-25.5911238492,1108.216 26.3999573886,-25.5913800001,1110.412 26.3999117911,-25.5913679302,1110.551 26.3995684683,-25.5914591253,1111.474 26.3991969824,-25.5915610492,1112.077 26.3984553516,-25.5917555094,1113.912 26.3968674839,-25.5922114849,1117.252 26.3962519169,-25.5923804641,1119.432 26.3954861462,-25.5925896764,1121.706 26.3952447474,-25.592648685,1121.454 26.3947512209,-25.5927707255,1122.898 26.3935482502,-25.5930872262,1123.897 26.3928696513,-25.5932937562,1124.156 26.3921964169,-25.5935163796,1125.06 26.3912495971,-25.5938382447,1126.421 26.3911986351,-25.5938825011,1126.57 26.3900184631,-25.5942901969,1125.934 26.389427036,-25.5944900215,1126.038 26.3890354335,-25.5946241319,1126.969 26.388835609,-25.5946938694,1127.605 26.3872557878,-25.5952437222,1132.231 26.3871726394,-25.5952437222,1132.222 26.3861882687,-25.5955857038,1135.619 26.384691596,-25.5961181223,1137.904 26.3824050128,-25.5969160795,1142.979 26.3818605244,-25.597102493,1144.367 26.38118729,-25.5973304808,1147.099 26.3801841438,-25.5976657569,1149.313 26.379403621,-25.5979084969,1151.773 26.3788108528,-25.5980680883,1153.306 26.3781403005,-25.5982343853,1155.841 26.3775233924,-25.5983577669,1157.025 26.3769628108,-25.598462373,1158.455 26.3764370978,-25.5985401571,1160.735 26.3748277724,-25.5987721682,1164.967 26.3735349476,-25.5989290774,1167.27 26.3714294136,-25.5992093682,1170.003 26.3676984608,-25.5996961892,1173.61 26.3649384677,-25.6000676751,1178.522 26.3627175987,-25.6003533304,1183.129 26.3596759737,-25.6007435918,1189.233 26.357524842,-25.6010265648,1190.684 26.3564197719,-25.6011714041,1192.176 26.3547554612,-25.6013551354,1195.788 26.3536772132,-25.6014852226,1195.893 26.3530616462,-25.6015455723,1196.445 26.3524715602,-25.6015911698,1197.228 26.3510365784,-25.6016542017,1200.992 26.3496445119,-25.6016716361,1205.971 26.3492944837,-25.6016689539,1206.246 26.346860379,-25.6016917527,1204.994 26.3452215493,-25.6017065048,1202.052 26.3435250521,-25.601746738,1199.919 26.3434419036,-25.6017829478,1199.62 26.3432916999,-25.60178563,1199.157 26.3422295451,-25.6017923355,1197.656 26.3414785266,-25.6018044055,1196.992 26.3412719965,-25.6018017232,1196.725 26.3402956724,-25.6018191576,1197.19 26.339147687,-25.6018164754,1199.822 26.3390725851,-25.6017762423,1199.944 26.3365459442,-25.6017816067,1207.101 26.3347421587,-25.6017775834,1209.102 26.3340689242,-25.6017695367,1210.197 26.3331851363,-25.6017400324,1211.536 26.3318574429,-25.6016474962,1213.422 26.3310608268,-25.6015911698,1212.48 26.3288962841,-25.6013886631,1211.117 26.3281881809,-25.6012921035,1209.359 26.3273566961,-25.6011365354,1207.213 26.3264608383,-25.6009340286,1207.498 26.3253852725,-25.6006188691,1205.299 26.3249775767,-25.6004619598,1203.857 26.3241863251,-25.6001400948,1203.597 26.3235077262,-25.5998182297,1204.979 26.3229122758,-25.5995057523,1205.59 26.3222980499,-25.5991369486,1207.023 26.3215443492,-25.5986568332,1206.298 26.3208469748,-25.5981901288,1207.136 26.318923831,-25.5968691409,1207.484 26.3167110085,-25.5953067541,1206.494 26.314778477,-25.5939602852,1205.235 26.3131839037,-25.5928458273,1204.129 26.3126863539,-25.592494458,1202.943 26.3117770851,-25.5918520689,1200.862 26.3113023341,-25.5915234983,1198.741 26.3109080493,-25.5912807584,1197.71 26.3105593622,-25.5910930037,1194.434 26.31031394,-25.5909790099,1194.952 26.3101033866,-25.5908918381,1194.581 26.3097909093,-25.5907644331,1192.966 26.3094824553,-25.5906625092,1192.673 26.3092236221,-25.5905820429,1192.647 26.3089647889,-25.5905176699,1191.228 26.3087059557,-25.590468049,1190.778 26.3081400096,-25.5903956294,1191.139 26.3072428107,-25.5903312564,1185.601 26.305488646,-25.5902427435,1175.419 26.3047403097,-25.5901971459,1175.723 26.3023705781,-25.5900523067,1176.221 26.3006365299,-25.5899812281,1176.225 26.2999740243,-25.5899704993,1177.216 26.2999069691,-25.5900040269,1177.843 26.2996038795,-25.5899865925,1177.798 26.2993450463,-25.5899718404,1177.834 26.2990084291,-25.5899530649,1177.623 26.298391521,-25.5899021029,1177.391 26.2978376448,-25.5898350477,1177.951 26.297492981,-25.5897934735,1178.116 26.2970973551,-25.5897331238,1178.049 26.2969538569,-25.5897116661,1178.05 26.2966668606,-25.5896674097,1177.98 26.2959855795,-25.5895614624,1176.99 26.2959346175,-25.5895158648,1176.979 26.2933838367,-25.5890505016,1176.377 26.2921848893,-25.5888158083,1175.974 26.2910985947,-25.5885636806,1177.042 26.2901343405,-25.5883356929,1178.912 26.2884633243,-25.5879172683,1178.187 26.2870551646,-25.5875176191,1175.979 26.2849536538,-25.5868725479,1178.602 26.2842683494,-25.5866740644,1181.686 26.2837533653,-25.5865480006,1183.378 26.2833698094,-25.586463511,1182.249 26.2830305099,-25.5863964558,1183.194 26.2826536596,-25.586334765,1185.01 26.2817336619,-25.5862154067,1186.488 26.2811100483,-25.5861496925,1185.708 26.2799781561,-25.5860303342,1188.253 26.2789803743,-25.5859284103,1192.166 26.27805233,-25.5858264863,1193.771 26.2774032354,-25.5857406557,1196.029 26.2768560648,-25.5856387317,1198.294 26.2764081359,-25.5855368078,1199.815 26.2761117518,-25.5854402483,1198.68 26.2757134438,-25.5852900445,1198.008 26.2753406167,-25.5851344764,1198.039 26.2749610841,-25.5849507451,1197.2 26.2746472657,-25.5848045647,1197.161 26.274381727,-25.5846610665,1196.176 26.2740544975,-25.5844773352,1196.691 26.2738935649,-25.5843780935,1194.821 26.273752749,-25.584269464,1193.727 26.2732511759,-25.5838282406,1192.753 26.2728314102,-25.5834339559,1194.133 26.272046864,-25.5826762319,1197.682 26.2714487314,-25.5820794404,1199.591 26.2697683275,-25.5804285407,1203.663 26.269403547,-25.5801106989,1205.364 26.2691192329,-25.5798639357,1206.067 26.2689100206,-25.5797123909,1206.6 26.2686578929,-25.5795568228,1208.262 26.2683789432,-25.5794119835,1209.388 26.2680329382,-25.5792523921,1210.917 26.2677244842,-25.5791410804,1211.771 26.2673811615,-25.5790512264,1213.583 26.26700297,-25.5789841712,1215.653 26.2666971982,-25.5789425969,1217.533 26.2664155662,-25.5789278448,1218.65 26.2661392987,-25.5789238214,1220.303 26.2658576667,-25.5789452791,1221.801 26.2653641403,-25.5790190399,1224.187 26.2649510801,-25.579123646,1226.167 26.2646077573,-25.5792564154,1226.665 26.2641584873,-25.5794213712,1227.16 26.2638272345,-25.5795232952,1227.776 26.2635093927,-25.5796225369,1227.735 26.2631137669,-25.5797378719,1227.749 26.2627650797,-25.5798009038,1227.305 26.262357384,-25.5798505247,1227.18 26.2619282305,-25.5798827112,1225.812 26.2615929544,-25.5798827112,1225.237 26.261190623,-25.5798625946,1223.942 26.2608526647,-25.5798169971,1222.76 26.2605763972,-25.5797593296,1222.115 26.2603081763,-25.5796895921,1221.757 26.2598307431,-25.5795635283,1220.72 26.2590233982,-25.5792725086,1218.175 26.2536750734,-25.5772729218,1208.124 26.2533277273,-25.5771388113,1207.47 26.2511095405,-25.5763019621,1202.406 26.2495900691,-25.5757212639,1201.352 26.2477581203,-25.5750265718,1199.845 26.2468676269,-25.5746765435,1196.861 26.2455265224,-25.5741414428,1192.064 26.2450142205,-25.5739215016,1189.295 26.244725883,-25.5738021433,1188.372 26.2444268167,-25.5736599863,1190.647 26.2441854179,-25.5735446513,1190.358 26.2439627945,-25.5734319985,1190.06 26.2433753908,-25.5731128156,1191.743 26.2427946925,-25.5727681518,1192.56 26.2419497967,-25.5722598732,1194.116 26.2406945229,-25.5714686215,1195.72 26.2401352823,-25.5711373687,1195.295 26.2396390736,-25.5708570778,1196.368 26.2390235066,-25.570537895,1196.363 26.2387003005,-25.5703622103,1196.281 26.2381115556,-25.5700698495,1195.282 26.2352094054,-25.5687408149,1195.947 26.2342223525,-25.5682365596,1194.069 26.2333291769,-25.5677323043,1192.604 26.2330529094,-25.567574054,1192.116 26.2328222394,-25.5674305558,1191.348 26.2326022983,-25.5672870576,1191.135 26.2324735522,-25.5671945214,1190.481 26.2319934368,-25.5668216944,1188.91 26.2310560048,-25.5660237372,1184.03 26.2304860353,-25.565534234,1180.73 26.22976318,-25.5649025738,1178.794 26.2293179333,-25.5645163357,1177.524 26.2283040583,-25.5636808276,1182.59 26.2279754877,-25.5634099245,1184.347 26.2277179956,-25.5632315576,1185.311 26.2273907661,-25.5630223453,1186.368 26.2272566557,-25.5629499257,1186.509 26.2269669771,-25.5627903342,1186.949 26.2258337438,-25.5621412396,1187.613 26.2257438898,-25.5621345341,1187.6 26.224603951,-25.5615310371,1187.254 26.2241359055,-25.5612829328,1187.375 26.2236866355,-25.5610401928,1187.11 26.2220035493,-25.5601295829,1186.655 26.2219592929,-25.5600638688,1186.683 26.2202346325,-25.559155941,1187.819 26.2201568484,-25.559168011,1188.028 26.2182819843,-25.558180958,1190.327 26.2179467082,-25.5580039322,1191.097 26.217340529,-25.557653904,1192.167 26.217174232,-25.5575573444,1192.215 26.2166592479,-25.5572234094,1191.66 26.2166324258,-25.557128191,1191.573 26.216289103,-25.5569162965,1191.434 26.215814352,-25.5565944314,1191.118 26.213837564,-25.5551406741,1190.356 26.2130664289,-25.554586798,1193.577 26.2126104534,-25.5542528629,1194.334 26.2118326128,-25.5536922812,1194.854 26.2106658518,-25.5528339744,1194.278 26.210205853,-25.5524919927,1194.556 26.209436059,-25.5518884957,1194.501 26.208896935,-25.5514352024,1194.894 26.2083819509,-25.5509792268,1195.099 26.2069389224,-25.5496475101,1194.204 26.2054999173,-25.5483010411,1195.136 26.2045450509,-25.54740116,1195.834 26.2030752003,-25.5460399389,1196.333 26.2026500702,-25.5456671119,1196.098 26.2024381757,-25.5454820395,1196.238 26.2022209167,-25.545296967,1196.291 26.2017475069,-25.5449308455,1195.468 26.2013813853,-25.5446518958,1195.283 26.2011654675,-25.5444788933,1195.368 26.2006773055,-25.5441100895,1195.027 26.2001864612,-25.543718487,1194.576 26.1997412145,-25.54334566,1194.024 26.1995199323,-25.5431592464,1193.86 26.1993174255,-25.5429808795,1192.697 26.1991082132,-25.5427756906,1192.679 26.1989378929,-25.542601347,1191.899 26.1986643076,-25.5423116684,1190.728 26.1983799934,-25.5420072377,1189.294 26.1980581284,-25.5416209996,1189.188 26.1977416277,-25.5412226915,1188.761 26.1974237859,-25.5408109725,1189.373 26.1960531771,-25.5389522016,1187.665 26.1950151622,-25.5375574529,1184.434 26.1943392456,-25.5366361141,1182.407 26.1936727166,-25.5357429385,1180.06 26.1926172674,-25.5343106389,1176.2 26.1922766268,-25.533837229,1175.164 26.1919252574,-25.5333061516,1174.011 26.1917965114,-25.5331130326,1173.365 26.1916516721,-25.5328756571,1173.002 26.1915336549,-25.5326557159,1172.493 26.1914558709,-25.5325108767,1172.235 26.1913834512,-25.532360673,1171.478 26.1913137138,-25.5321930349,1171.056 26.191252023,-25.5320428312,1171.049 26.1911635101,-25.5317679048,1170.482 26.1910669506,-25.5314768851,1170.74 26.190970391,-25.5310678482,1170.783 26.1908040941,-25.5304026604,1169.083 26.1906887591,-25.5299694836,1167.776 26.1906002462,-25.5297106504,1166.738 26.1905305088,-25.5295242369,1165.858 26.1904473603,-25.5293405056,1164.824 26.1903655529,-25.5291567743,1163.952 26.19027704,-25.5289703608,1162.949 26.1901724339,-25.5287718773,1162.081 26.1900745332,-25.5285988748,1161.251 26.1899766326,-25.5284392834,1160.491 26.189892143,-25.5283145607,1159.969 26.1898089945,-25.5282059312,1159.477 26.1897432804,-25.5281053483,1159.286 26.1896815896,-25.5280208588,1159.104 26.1895984411,-25.52799806,1158.715 26.1890941858,-25.5275528133,1157.048 26.1886113882,-25.5272121727,1156.005 26.1877959967,-25.5267669261,1155.414 26.1875545979,-25.5266194046,1155.76 26.1870718002,-25.5263793468,1155.392 26.1865541339,-25.5260816216,1155.106 26.1864951253,-25.5260574818,1154.954 26.1864414811,-25.5259461701,1154.745 26.1862161756,-25.5258227885,1154.766 26.1859372258,-25.5256712437,1154.482 26.1849997938,-25.5251589417,1154.285 26.1836828291,-25.5244494975,1154.986 26.1811602116,-25.5231003463,1153.765 26.1802643538,-25.5226282775,1154.266 26.1777484417,-25.5212603509,1155.882 26.1771892011,-25.5209626257,1156.099 26.1762598157,-25.5204798281,1156.258 26.1757850647,-25.5202424526,1155.746 26.1753840744,-25.5200520158,1155.089 26.1749884486,-25.5198575556,1154.514 26.1748503149,-25.519798547,1153.88 26.1747148633,-25.519746244,1153.289 26.1745686829,-25.519695282,1152.586 26.174402386,-25.51964432,1152.114 26.174210608,-25.5195893347,1151.343 26.1740040779,-25.5195356905,1150.585 26.1731792986,-25.5193090439,1147.364 26.1715807021,-25.5188933015,1141.292 26.1712749302,-25.5188168585,1140.521 26.1710268259,-25.5187511444,1139.768 26.1705265939,-25.5186210573,1140.365 26.1693665385,-25.5183179677,1142.698 26.1684451997,-25.5180698633,1145.686 26.1674527824,-25.5178378522,1147.933 26.1670772731,-25.5177587271,1148.101 26.1668010056,-25.5177091062,1148.234 26.1665247381,-25.5176836252,1148.548 26.1661975086,-25.5176688731,1149.329 26.1659373343,-25.5176688731,1149.608 26.1656476557,-25.5176755786,1149.381 26.1653526127,-25.5176970363,1149.485 26.1650173366,-25.5177412927,1149.116 26.1647517979,-25.5177949369,1148.991 26.1645130813,-25.51784724,1149.238 26.1642502248,-25.5179156363,1148.994 26.1640195549,-25.5179974437,1148.533 26.1637915671,-25.5180819333,1148.069 26.1635608971,-25.5181771517,1148.12 26.1633597314,-25.5182589591,1148.404 26.1631880701,-25.5183394253,1148.399 26.1630325019,-25.5184239149,1148.258 26.1629091203,-25.5184963346,1148.493 26.1627361178,-25.5185969174,1148.555 26.1625738442,-25.5186921358,1148.593 26.1623860896,-25.5188181996,1148.706 26.1620615423,-25.5190435052,1149.047 26.1607861519,-25.5199795961,1146.258 26.1601236463,-25.520490557,1145.598 26.1595268548,-25.5209438503,1144.627 26.1587530375,-25.521504432,1142.687 26.1577793956,-25.5222085118,1143.124 26.1568915844,-25.52281335,1145.515 26.1549577117,-25.5240780115,1156.879 26.1530962586,-25.5252863467,1165.673 26.1520300806,-25.5259649456,1170.833 26.1513474584,-25.5263954401,1172.992 26.1505615711,-25.5268929899,1175.317 26.1493089795,-25.5276533961,1176.745 26.1480590701,-25.5283749104,1171.703 26.1469513178,-25.529011935,1167.417 26.1464135349,-25.5293096602,1166.184 26.146080941,-25.5294840038,1165.307 26.145670563,-25.5297012627,1164.244 26.145439893,-25.5298219621,1163.409 26.1452521384,-25.5299185216,1163.23 26.1450000107,-25.5300445855,1162.669 26.1447894573,-25.5301451683,1162.421 26.1445896327,-25.5302350223,1161.791 26.1442449689,-25.5303758383,1161.845 26.1438453197,-25.5305300653,1162.11 26.1432874203,-25.5307365954,1162.68 26.1414393783,-25.5313695967,1163.266 26.1396570504,-25.5319690704,1164.41 26.1380691826,-25.5325135589,1165.284 26.1379216611,-25.5325604975,1165.499 26.1378867924,-25.5325712264,1165.451 26.1376266181,-25.5326557159,1165.565 26.1358885467,-25.533233732,1166.195 26.1343301833,-25.5337540805,1166.241 26.1339385808,-25.5338855088,1166.201 26.1332170665,-25.5341590941,1166.105 26.1329756677,-25.5342489481,1165.791 26.132710129,-25.5343548954,1165.68 26.1324258149,-25.5344836414,1165.569 26.1321870983,-25.5346043408,1165.925 26.1320020258,-25.5347009003,1166.266 26.1318035424,-25.5348068476,1166.257 26.1315621436,-25.5349543691,1166.779 26.1311195791,-25.535236001,1167.511 26.1300118268,-25.5359883606,1168.246 26.129180342,-25.5365100503,1167.834 26.1288785934,-25.5366870761,1168.0 26.1286666989,-25.536814481,1167.935 26.1284199357,-25.5369459093,1168.501 26.128244251,-25.5370397866,1169.353 26.1280940473,-25.5371189117,1169.391 26.1279036105,-25.5372154713,1170.083 26.1277520657,-25.5372838676,1170.547 26.1273698509,-25.5374528468,1171.322 26.1267153919,-25.5377317965,1171.633 26.1256438494,-25.5381596088,1171.103 26.1254306138,-25.5382494628,1170.574 26.125216037,-25.5383393168,1169.97 26.1250886321,-25.5383956432,1169.7 26.1249652505,-25.5384519696,1169.751 26.1248324811,-25.5385190248,1169.77 26.1245132983,-25.5386719108,1169.25 26.1242115498,-25.5388355255,1169.243 26.1235141754,-25.5392338336,1168.467 26.1230313778,-25.5395154655,1167.661 26.1216232181,-25.5403536558,1165.795 26.1213965714,-25.5404904485,1165.248 26.1211484671,-25.5406259,1164.821 26.120877564,-25.5407787859,1164.74 26.120724678,-25.5408579111,1164.476 26.1204886436,-25.5409812927,1164.364 26.1201922596,-25.5411274731,1165.125 26.119722873,-25.5413299799,1165.03 26.1194841564,-25.5414225161,1165.218 26.1192347109,-25.5415150523,1165.318 26.1190214753,-25.5415821075,1165.414 26.1187559366,-25.5416706204,1165.543 26.1184930801,-25.5417497456,1165.557 26.11808002,-25.5418503284,1165.528 26.1177527905,-25.5419321358,1165.201 26.1173531413,-25.5420058966,1166.093 26.117054075,-25.5420394242,1165.852 26.1168193817,-25.5420675874,1165.518 26.116540432,-25.5420877039,1165.333 26.1163124442,-25.542101115,1165.288 26.1160884798,-25.5421091616,1165.036 26.1156472564,-25.5421292782,1164.828 26.1152999103,-25.5421252549,1164.192 26.1150048673,-25.5421158671,1164.027 26.1147299409,-25.5420970917,1163.897 26.114512682,-25.5420716107,1163.405 26.1141224205,-25.5420139432,1162.827 26.1130803823,-25.5418610573,1162.809 26.1129543185,-25.5418395996,1162.8 26.1126619577,-25.5417913198,1163.249 26.1123870313,-25.5417470634,1163.274 26.1117647588,-25.5416437984,1163.273 26.1115448177,-25.5416129529,1163.172 26.1112900078,-25.541575402,1163.252 26.1109882593,-25.5415338278,1163.295 26.1106529832,-25.5415029824,1163.592 26.1103257537,-25.541485548,1164.043 26.1098523438,-25.5414694548,1164.304 26.1096538603,-25.5414694548,1164.235 26.1094097793,-25.5414734781,1164.29 26.1091026664,-25.5414909124,1164.799 26.1087271571,-25.5415123701,1164.575 26.1084589362,-25.5415338278,1164.787 26.108173281,-25.5415593088,1165.365 26.1077736318,-25.5416022241,1165.557 26.1074490845,-25.5416384339,1166.361 26.1068120599,-25.5417256057,1166.657 26.1065706611,-25.5417591333,1166.241 26.1055769026,-25.541895926,1163.83 26.1055675149,-25.5418972671,1163.828 26.1052416265,-25.5419415236,1162.773 26.1043471098,-25.5420716107,1159.925 26.1039957404,-25.5421185493,1159.224 26.1027364433,-25.5422875285,1161.091 26.1024454236,-25.5423250794,1161.923 26.1023421586,-25.5423384905,1161.82 26.1020430923,-25.5423760414,1161.875 26.1018486321,-25.5424028635,1162.128 26.1013162136,-25.5424672365,1161.446 26.1005356908,-25.5425718427,1162.494 26.100166887,-25.5426134169,1163.217 26.0998664796,-25.5426496267,1164.043 26.0996545851,-25.5426724255,1164.505 26.0993729532,-25.5426952243,1165.621 26.0991020501,-25.542691201,1167.045 26.0988163948,-25.5426844954,1168.377 26.0985602438,-25.5426603556,1169.725 26.0983684659,-25.5426308513,1170.518 26.0981324315,-25.5425785482,1171.782 26.0979151726,-25.5425262451,1172.301 26.0976523161,-25.5424390733,1173.863 26.097369343,-25.5423344672,1175.336 26.0971494019,-25.5422499776,1175.273 26.09686777,-25.5421453714,1176.182 26.0966236889,-25.5420354009,1177.225 26.0958431661,-25.5417256057,1180.936 26.0956446826,-25.5416478217,1181.468 26.0954971611,-25.541600883,1182.299 26.095316112,-25.541561991,1183.185 26.0951176286,-25.5415311456,1183.529 26.0949003696,-25.5415230989,1184.218 26.0946442187,-25.5415324867,1185.072 26.0943625867,-25.5415700376,1185.575 26.0940018296,-25.5416370928,1186.217 26.0932092369,-25.5418154597,1186.448 26.0924501717,-25.5419978499,1187.36 26.0915677249,-25.54221645,1187.858 26.0912646353,-25.5422915518,1187.995 26.0906276107,-25.5424498022,1186.443 26.0899583995,-25.5426120758,1185.211 26.0892020166,-25.5427904427,1185.556 26.0885676742,-25.5429393053,1186.03 26.0872010887,-25.5432772636,1187.419 26.0868228972,-25.5433751643,1186.981 26.0863025486,-25.5434985459,1187.357 26.0859565437,-25.5435803533,1187.611 26.0844437778,-25.5439384282,1190.265 26.0830101371,-25.5443005264,1189.506 26.0829564929,-25.5443152785,1189.339 26.0828532279,-25.5443394184,1189.309 26.0824844241,-25.5444252491,1189.365 26.0822094977,-25.5444869399,1188.908 26.0819023848,-25.5445580184,1189.336 26.0815657675,-25.5446344614,1188.837 26.0813310742,-25.5446907878,1188.906 26.0800556839,-25.5449858308,1188.932 26.0790391266,-25.5452218652,1189.45 26.0789318383,-25.544859767,1190.951 26.0787387192,-25.5442093313,1191.038 26.0784597695,-25.5432638526,1193.841 26.0781848431,-25.5423223972,1196.217 26.0779045522,-25.5413621664,1198.33 26.0776376724,-25.5404421687,1202.342 26.0773640871,-25.5394886434,1206.09 26.0783927143,-25.5392673612,1210.835 26.078491956,-25.5395878851,1209.589 26.0786810517,-25.5401913822,1206.231 26.0789613426,-25.5411274731,1200.126 26.0792389512,-25.5420783162,1198.09 26.0806377232,-25.5417443812,1201.586 26.0807718337,-25.5417121947,1202.25 26.0820485651,-25.5413970351,1204.545 26.0821129382,-25.5414251983,1204.437 26.0821156204,-25.5414305627,1204.422</coordinates>
      </LineString>
    </Placemark>
  </Document>
</kml>
